{
  "type": "FeatureCollection",
  "features": [
    {
      "type": "Feature",
      "properties": {
        "name": "削除テスト用ポリゴン",
        "fid": 0
      },
      "geometry": {
        "type": "Polygon",
        "coordinates": [
          [
            [
              140.1,
              35.6
            ],
            [
              140.11,
              35.6
            ],
            [
              140.11,
              35.61
            ],
            [
              140.1,
              35.61
            ],
            [
              140.1,
              35.6
            ]
          ]
        ]
      }
    }
  ]
}