{
  "type": "FeatureCollection",
  "features": [
    {
      "type": "Feature",
      "properties": {
        "fid": 1,
        "氏名": null,
        "明細/圃場地番": "北新田901-1, 2",
        "地番": "901-1, 2",
        "layer": "耕地耕作",
        "面積": 13.68,
        "ｗｋｔ": "408f9191ad4a1e2acc9a36566d7d16c8",
        "計算面積": 14
      },
      "geometry": {
        "type": "MultiPolygon",
        "coordinates": [
          [
            [
              [
                140.0288283,
                35.8814583
              ],
              [
                140.0277675,
                35.8820623
              ],
              [
                140.0278439,
                35.8821484
              ],
              [
                140.0289038,
                35.8815431
              ],
              [
                140.0288283,
                35.8814583
              ]
            ]
          ]
        ]
      }
    },
    {
      "type": "Feature",
      "properties": {
        "fid": 2,
        "氏名": null,
        "明細/圃場地番": "北新田1124",
        "地番": "1124",
        "layer": "耕地耕作",
        "面積": 16.92,
        "ｗｋｔ": "cd843b9cc792e31e95f82b59c5f464b2",
        "計算面積": 17
      },
      "geometry": {
        "type": "MultiPolygon",
        "coordinates": [
          [
            [
              [
                140.024491289,
                35.882076824
              ],
              [
                140.024388321,
                35.881952885
              ],
              [
                140.023415591,
                35.882519674
              ],
              [
                140.023555042,
                35.882610008
              ],
              [
                140.024491289,
                35.882076824
              ]
            ]
          ]
        ]
      }
    },
    {
      "type": "Feature",
      "properties": {
        "fid": 3,
        "氏名": null,
        "明細/圃場地番": "北新田897-1,2",
        "地番": "897-1,2",
        "layer": "耕地耕作",
        "面積": 12.18,
        "ｗｋｔ": "5b985a82c1fead06306f23789585c0ac",
        "計算面積": 12
      },
      "geometry": {
        "type": "MultiPolygon",
        "coordinates": [
          [
            [
              [
                140.0292559,
                35.8819416
              ],
              [
                140.0281935,
                35.8825489
              ],
              [
                140.0282562,
                35.8826185
              ],
              [
                140.029329,
                35.8820233
              ],
              [
                140.0292559,
                35.8819416
              ]
            ]
          ]
        ]
      }
    },
    {
      "type": "Feature",
      "properties": {
        "fid": 4,
        "氏名": null,
        "明細/圃場地番": "北新田1125",
        "地番": "1125",
        "layer": "耕地耕作",
        "面積": 93.32,
        "ｗｋｔ": "3efa882bfa89a7ec4a01039fcabf4d0f",
        "計算面積": 93
      },
      "geometry": {
        "type": "MultiPolygon",
        "coordinates": [
          [
            [
              [
                140.0235545,
                35.8826091
              ],
              [
                140.0239007,
                35.8828041
              ],
              [
                140.0240503,
                35.8828765
              ],
              [
                140.0242754593925,
                35.8829497464958
              ],
              [
                140.0245159,
                35.8830015
              ],
              [
                140.02496970569396,
                35.88308903795119
              ],
              [
                140.0254760190794,
                35.88318189892144
              ],
              [
                140.0250366,
                35.8826935
              ],
              [
                140.0245081,
                35.8820575
              ],
              [
                140.0235545,
                35.8826091
              ]
            ]
          ]
        ]
      }
    },
    {
      "type": "Feature",
      "properties": {
        "fid": 5,
        "氏名": null,
        "明細/圃場地番": "北新田603-1,604-3",
        "地番": "603-1,604-3",
        "layer": "耕地耕作",
        "面積": 30.34,
        "ｗｋｔ": "d51e5146c820835881f0e7102fd6656d",
        "計算面積": 30
      },
      "geometry": {
        "type": "MultiPolygon",
        "coordinates": [
          [
            [
              [
                140.0353014,
                35.8846562
              ],
              [
                140.0360927,
                35.884202
              ],
              [
                140.0359157,
                35.8839774
              ],
              [
                140.0348842,
                35.8845695
              ],
              [
                140.0349139,
                35.8846023
              ],
              [
                140.0353014,
                35.8846562
              ]
            ]
          ]
        ]
      }
    },
    {
      "type": "Feature",
      "properties": {
        "fid": 6,
        "氏名": null,
        "明細/圃場地番": "北新田783",
        "地番": "783",
        "layer": "耕地耕作",
        "面積": 33.16,
        "ｗｋｔ": "1df8b3f32ddcce6f71f6c76ecdc17828",
        "計算面積": 33
      },
      "geometry": {
        "type": "MultiPolygon",
        "coordinates": [
          [
            [
              [
                140.033172833,
                35.884654471
              ],
              [
                140.032206878,
                35.885236915
              ],
              [
                140.032386356,
                35.885443655
              ],
              [
                140.033429339,
                35.884832095
              ],
              [
                140.033338825,
                35.884728995
              ],
              [
                140.033282747,
                35.884672857
              ],
              [
                140.033172833,
                35.884654471
              ]
            ]
          ]
        ]
      }
    },
    {
      "type": "Feature",
      "properties": {
        "fid": 7,
        "氏名": null,
        "明細/圃場地番": "北新田677",
        "地番": "677",
        "layer": "耕地耕作",
        "面積": 30.28,
        "ｗｋｔ": "4d193aece8bd16d0d943c012dfa5f424",
        "計算面積": 30
      },
      "geometry": {
        "type": "MultiPolygon",
        "coordinates": [
          [
            [
              [
                140.038188477,
                35.888409576
              ],
              [
                140.03713506,
                35.889016335
              ],
              [
                140.037302914,
                35.88920985
              ],
              [
                140.038353773,
                35.888597554
              ],
              [
                140.038188477,
                35.888409576
              ]
            ]
          ]
        ]
      }
    },
    {
      "type": "Feature",
      "properties": {
        "fid": 8,
        "氏名": null,
        "明細/圃場地番": "北新田857",
        "地番": "857",
        "layer": "耕地耕作",
        "面積": 29.65,
        "ｗｋｔ": "4c37e625206d9f6ca2693a0fff99b2a4",
        "計算面積": 30
      },
      "geometry": {
        "type": "MultiPolygon",
        "coordinates": [
          [
            [
              [
                140.033594778,
                35.888692984
              ],
              [
                140.033762013,
                35.888884669
              ],
              [
                140.034805571,
                35.888270182
              ],
              [
                140.034638531,
                35.88808972
              ],
              [
                140.033594778,
                35.888692984
              ]
            ]
          ]
        ]
      }
    },
    {
      "type": "Feature",
      "properties": {
        "fid": 9,
        "氏名": null,
        "明細/圃場地番": "北新田786",
        "地番": "786",
        "layer": "耕地耕作",
        "面積": 29.77,
        "ｗｋｔ": "7eedb614d06b1fb4d39ab5eac34e4aa4",
        "計算面積": 30
      },
      "geometry": {
        "type": "MultiPolygon",
        "coordinates": [
          [
            [
              [
                140.033795111,
                35.885248725
              ],
              [
                140.032750656,
                35.885863288
              ],
              [
                140.032914093,
                35.886051549
              ],
              [
                140.033959656,
                35.885436146
              ],
              [
                140.033795111,
                35.885248725
              ]
            ]
          ]
        ]
      }
    },
    {
      "type": "Feature",
      "properties": {
        "fid": 10,
        "氏名": null,
        "明細/圃場地番": "北新田788",
        "地番": "788",
        "layer": "耕地耕作",
        "面積": 30.58,
        "ｗｋｔ": "31148826bb37bf5bb74127ea1d353aaf",
        "計算面積": 31
      },
      "geometry": {
        "type": "MultiPolygon",
        "coordinates": [
          [
            [
              [
                140.034138438,
                35.885639783
              ],
              [
                140.033084746,
                35.886247488
              ],
              [
                140.033256784,
                35.886443886
              ],
              [
                140.034303781,
                35.885828112
              ],
              [
                140.034138438,
                35.885639783
              ]
            ]
          ]
        ]
      }
    },
    {
      "type": "Feature",
      "properties": {
        "fid": 11,
        "氏名": null,
        "明細/圃場地番": "北新田1159.1160",
        "地番": "1159.1160",
        "layer": "耕地耕作",
        "面積": 62.61,
        "ｗｋｔ": "ad12510e515ff2132fc09717a7d29417",
        "計算面積": 63
      },
      "geometry": {
        "type": "MultiPolygon",
        "coordinates": [
          [
            [
              [
                140.0270265,
                35.8867866
              ],
              [
                140.0280536,
                35.8861892
              ],
              [
                140.0277058,
                35.8857847
              ],
              [
                140.0266739,
                35.8863842
              ],
              [
                140.0270265,
                35.8867866
              ]
            ]
          ]
        ]
      }
    },
    {
      "type": "Feature",
      "properties": {
        "fid": 12,
        "氏名": null,
        "明細/圃場地番": "北新田1152.1153",
        "地番": "1152.1153",
        "layer": "耕地耕作",
        "面積": 61.75,
        "ｗｋｔ": "852b34a7c6b871a01d2965e57bd61c03",
        "計算面積": 62
      },
      "geometry": {
        "type": "MultiPolygon",
        "coordinates": [
          [
            [
              [
                140.0259841,
                35.885597
              ],
              [
                140.0270255,
                35.8849931
              ],
              [
                140.0266852,
                35.8845972
              ],
              [
                140.0256425,
                35.8852071
              ],
              [
                140.0259841,
                35.885597
              ]
            ]
          ]
        ]
      }
    },
    {
      "type": "Feature",
      "properties": {
        "fid": 13,
        "氏名": null,
        "明細/圃場地番": "北新田1154",
        "地番": "1154",
        "layer": "耕地耕作",
        "面積": 31.07,
        "ｗｋｔ": "8c857cbbb0422a501e865652a7d801c1",
        "計算面積": 31
      },
      "geometry": {
        "type": "MultiPolygon",
        "coordinates": [
          [
            [
              [
                140.026157374,
                35.885794718
              ],
              [
                140.027196456,
                35.88519204
              ],
              [
                140.027025467,
                35.884993099
              ],
              [
                140.025984133,
                35.885596995
              ],
              [
                140.026157374,
                35.885794718
              ]
            ]
          ]
        ]
      }
    },
    {
      "type": "Feature",
      "properties": {
        "fid": 14,
        "氏名": null,
        "明細/圃場地番": "北新田1155",
        "地番": "1155",
        "layer": "耕地耕作",
        "面積": 23.21,
        "ｗｋｔ": "ded2354a427e24b006fabbbf2f237b77",
        "計算面積": 23
      },
      "geometry": {
        "type": "MultiPolygon",
        "coordinates": [
          [
            [
              [
                140.026289302,
                35.885945289
              ],
              [
                140.027322144,
                35.885338274
              ],
              [
                140.027196456,
                35.88519204
              ],
              [
                140.026157374,
                35.885794718
              ],
              [
                140.026289302,
                35.885945289
              ]
            ]
          ]
        ]
      }
    },
    {
      "type": "Feature",
      "properties": {
        "fid": 15,
        "氏名": null,
        "明細/圃場地番": "北新田1259.1260",
        "地番": "1259.1260",
        "layer": "耕地耕作",
        "面積": 50.88,
        "ｗｋｔ": "7773ff3140da67f59548d584f03c482a",
        "計算面積": 51
      },
      "geometry": {
        "type": "MultiPolygon",
        "coordinates": [
          [
            [
              [
                140.0252585,
                35.8866124
              ],
              [
                140.0262819,
                35.8860074
              ],
              [
                140.0259971,
                35.8856827
              ],
              [
                140.0249703,
                35.8862831
              ],
              [
                140.0252585,
                35.8866124
              ]
            ]
          ]
        ]
      }
    },
    {
      "type": "Feature",
      "properties": {
        "fid": 16,
        "氏名": null,
        "明細/圃場地番": "北新田654",
        "地番": "654",
        "layer": "耕地耕作",
        "面積": 33.47,
        "ｗｋｔ": "7dadd2113b409e46af9ea75896f772d7",
        "計算面積": 33
      },
      "geometry": {
        "type": "MultiPolygon",
        "coordinates": [
          [
            [
              [
                140.0411791,
                35.8918033
              ],
              [
                140.0401166,
                35.8924108
              ],
              [
                140.0401279,
                35.8924228
              ],
              [
                140.0402984,
                35.8926053
              ],
              [
                140.0403555,
                35.892583
              ],
              [
                140.0413664,
                35.8920206
              ],
              [
                140.0411915,
                35.8918177
              ],
              [
                140.0411791,
                35.8918033
              ]
            ]
          ]
        ]
      }
    },
    {
      "type": "Feature",
      "properties": {
        "fid": 17,
        "氏名": null,
        "明細/圃場地番": "北新田858",
        "地番": "858",
        "layer": "耕地耕作",
        "面積": 30.56,
        "ｗｋｔ": "9321fee73d5ad07e427d7ea1564a346a",
        "計算面積": 31
      },
      "geometry": {
        "type": "MultiPolygon",
        "coordinates": [
          [
            [
              [
                140.033423544,
                35.888496714
              ],
              [
                140.033594778,
                35.888692984
              ],
              [
                140.034638531,
                35.88808972
              ],
              [
                140.034471461,
                35.887897208
              ],
              [
                140.033423544,
                35.888496714
              ]
            ]
          ]
        ]
      }
    },
    {
      "type": "Feature",
      "properties": {
        "fid": 18,
        "氏名": null,
        "明細/圃場地番": "北新田650",
        "地番": "650",
        "layer": "耕地耕作",
        "面積": 29.47,
        "ｗｋｔ": "c196a5fea667a57b2355aea943523c5e",
        "計算面積": 29
      },
      "geometry": {
        "type": "MultiPolygon",
        "coordinates": [
          [
            [
              [
                140.041009485,
                35.891568688
              ],
              [
                140.041173364,
                35.891758098
              ],
              [
                140.042149472,
                35.891089103
              ],
              [
                140.041986257,
                35.890900112
              ],
              [
                140.041009485,
                35.891568688
              ]
            ]
          ]
        ]
      }
    },
    {
      "type": "Feature",
      "properties": {
        "fid": 19,
        "氏名": null,
        "明細/圃場地番": "北新田651",
        "地番": "651",
        "layer": "耕地耕作",
        "面積": 39.4,
        "ｗｋｔ": "b3b737bed2103938adebd80c147315f2",
        "計算面積": 39
      },
      "geometry": {
        "type": "MultiPolygon",
        "coordinates": [
          [
            [
              [
                140.041173364,
                35.891758098
              ],
              [
                140.041379924,
                35.891996837
              ],
              [
                140.0418662,
                35.891712162
              ],
              [
                140.041961475,
                35.891653088
              ],
              [
                140.042050183,
                35.891599381
              ],
              [
                140.04217835,
                35.891534894
              ],
              [
                140.042227653,
                35.891513387
              ],
              [
                140.042217697,
                35.891481273
              ],
              [
                140.042174785,
                35.891430472
              ],
              [
                140.042168119,
                35.891398352
              ],
              [
                140.042184481,
                35.891363513
              ],
              [
                140.042319194,
                35.891285627
              ],
              [
                140.042149472,
                35.891089103
              ],
              [
                140.041173364,
                35.891758098
              ]
            ]
          ]
        ]
      }
    },
    {
      "type": "Feature",
      "properties": {
        "fid": 20,
        "氏名": null,
        "明細/圃場地番": "北新田846",
        "地番": "846",
        "layer": "耕地耕作",
        "面積": 31.29,
        "ｗｋｔ": "8c7e72bf3c014e42ea6cd0dac97e6168",
        "計算面積": 31
      },
      "geometry": {
        "type": "MultiPolygon",
        "coordinates": [
          [
            [
              [
                140.035318782,
                35.890655116
              ],
              [
                140.035496966,
                35.890847608
              ],
              [
                140.036535694,
                35.890249707
              ],
              [
                140.036357485,
                35.890047577
              ],
              [
                140.035318782,
                35.890655116
              ]
            ]
          ]
        ]
      }
    },
    {
      "type": "Feature",
      "properties": {
        "fid": 21,
        "氏名": null,
        "明細/圃場地番": "北新田649",
        "地番": "649",
        "layer": "耕地耕作",
        "面積": 31.63,
        "ｗｋｔ": "0b3e4a8879823ed38685b5c895c17bc8",
        "計算面積": 32
      },
      "geometry": {
        "type": "MultiPolygon",
        "coordinates": [
          [
            [
              [
                140.040838618,
                35.891371201
              ],
              [
                140.041009485,
                35.891568688
              ],
              [
                140.041986257,
                35.890900112
              ],
              [
                140.041804287,
                35.890689404
              ],
              [
                140.041364163,
                35.891003453
              ],
              [
                140.040838618,
                35.891371201
              ]
            ]
          ]
        ]
      }
    },
    {
      "type": "Feature",
      "properties": {
        "fid": 22,
        "氏名": null,
        "明細/圃場地番": "北新田655",
        "地番": "655",
        "layer": "耕地耕作",
        "面積": 29.78,
        "ｗｋｔ": "3a7f48a2c9b9108217123ee4cfb485a6",
        "計算面積": 30
      },
      "geometry": {
        "type": "MultiPolygon",
        "coordinates": [
          [
            [
              [
                140.041179092,
                35.891803312
              ],
              [
                140.041013455,
                35.891611105
              ],
              [
                140.039952028,
                35.892234537
              ],
              [
                140.040116639,
                35.892410779
              ],
              [
                140.041179092,
                35.891803312
              ]
            ]
          ]
        ]
      }
    },
    {
      "type": "Feature",
      "properties": {
        "fid": 23,
        "氏名": null,
        "明細/圃場地番": "北新田838.839-1-2-3",
        "地番": "838.839-1-2-3",
        "layer": "耕地耕作",
        "面積": 86.08,
        "ｗｋｔ": "a78a94712f94bfa6a943cef4d67c9953",
        "計算面積": 86
      },
      "geometry": {
        "type": "MultiPolygon",
        "coordinates": [
          [
            [
              [
                140.0375386,
                35.8914455
              ],
              [
                140.0365377,
                35.8920283
              ],
              [
                140.0370199,
                35.8925815
              ],
              [
                140.0380518,
                35.8919656
              ],
              [
                140.0376077,
                35.8914522
              ],
              [
                140.0375559,
                35.8914674
              ],
              [
                140.0375386,
                35.8914455
              ]
            ]
          ]
        ]
      }
    },
    {
      "type": "Feature",
      "properties": {
        "fid": 24,
        "氏名": null,
        "明細/圃場地番": "北新田329.330",
        "地番": "329.330",
        "layer": "耕地耕作",
        "面積": 42.4,
        "ｗｋｔ": "f0ba1588e7f5e72858644e4de85decaf",
        "計算面積": 42
      },
      "geometry": {
        "type": "MultiPolygon",
        "coordinates": [
          [
            [
              [
                140.0443716,
                35.8894004
              ],
              [
                140.0441263,
                35.8895472
              ],
              [
                140.0443598,
                35.8898102
              ],
              [
                140.045404,
                35.8892088
              ],
              [
                140.0451689,
                35.8889306
              ],
              [
                140.0451426,
                35.8889528
              ],
              [
                140.0448918,
                35.8890984
              ],
              [
                140.0443716,
                35.8894004
              ]
            ]
          ]
        ]
      }
    },
    {
      "type": "Feature",
      "properties": {
        "fid": 25,
        "氏名": null,
        "明細/圃場地番": "北新田1204.1205",
        "地番": "1204.1205",
        "layer": "耕地耕作",
        "面積": 63.37,
        "ｗｋｔ": "4c0860aab2138b6846b8b814ad22ef3f",
        "計算面積": 63
      },
      "geometry": {
        "type": "MultiPolygon",
        "coordinates": [
          [
            [
              [
                140.0350529,
                35.8940888
              ],
              [
                140.0346993,
                35.8936898
              ],
              [
                140.0336436,
                35.8943115
              ],
              [
                140.033987,
                35.8947001
              ],
              [
                140.0350529,
                35.8940888
              ]
            ]
          ]
        ]
      }
    },
    {
      "type": "Feature",
      "properties": {
        "fid": 26,
        "氏名": null,
        "明細/圃場地番": "北新田1354",
        "地番": "1354",
        "layer": "耕地耕作",
        "面積": 29.51,
        "ｗｋｔ": "6fa395b813bc53a946e36c3d88298c48",
        "計算面積": 30
      },
      "geometry": {
        "type": "MultiPolygon",
        "coordinates": [
          [
            [
              [
                140.03032753,
                35.894306976
              ],
              [
                140.029282781,
                35.894905639
              ],
              [
                140.029447373,
                35.895092672
              ],
              [
                140.03049284,
                35.894494732
              ],
              [
                140.03032753,
                35.894306976
              ]
            ]
          ]
        ]
      }
    },
    {
      "type": "Feature",
      "properties": {
        "fid": 27,
        "氏名": null,
        "明細/圃場地番": "北新田1374(宝典)",
        "地番": "1374(宝典)",
        "layer": "耕地耕作",
        "面積": 30.69,
        "ｗｋｔ": "6ab0fd08ff64ad2e879f0d4ce7b0412a",
        "計算面積": 31
      },
      "geometry": {
        "type": "MultiPolygon",
        "coordinates": [
          [
            [
              [
                140.0265512,
                35.8918065
              ],
              [
                140.0267226,
                35.892003
              ],
              [
                140.0277545,
                35.8913985
              ],
              [
                140.0275853,
                35.8912014
              ],
              [
                140.0275633,
                35.8912142
              ],
              [
                140.0265512,
                35.8918065
              ]
            ]
          ]
        ]
      }
    },
    {
      "type": "Feature",
      "properties": {
        "fid": 28,
        "氏名": null,
        "明細/圃場地番": "北新田1369.1370",
        "地番": "1369",
        "layer": "耕地耕作",
        "面積": 29.09,
        "ｗｋｔ": "368c4f2376278b7a951112c288751bc0",
        "計算面積": 29
      },
      "geometry": {
        "type": "MultiPolygon",
        "coordinates": [
          [
            [
              [
                140.0271173,
                35.8924528
              ],
              [
                140.0272735,
                35.8926382
              ],
              [
                140.0278454,
                35.8923057
              ],
              [
                140.0283121,
                35.8920344
              ],
              [
                140.0281498,
                35.8918453
              ],
              [
                140.0271173,
                35.8924528
              ]
            ]
          ]
        ]
      }
    },
    {
      "type": "Feature",
      "properties": {
        "fid": 29,
        "氏名": null,
        "明細/圃場地番": "北新田1471",
        "地番": "1471",
        "layer": "耕地耕作",
        "面積": 23.09,
        "ｗｋｔ": "1c43f105e88d381fec847f4eacd1b1d7",
        "計算面積": 23
      },
      "geometry": {
        "type": "MultiPolygon",
        "coordinates": [
          [
            [
              [
                140.029387956,
                35.896867003
              ],
              [
                140.030440704,
                35.896259003
              ],
              [
                140.030319093,
                35.896111316
              ],
              [
                140.02926113,
                35.896721226
              ],
              [
                140.029387956,
                35.896867003
              ]
            ]
          ]
        ]
      }
    },
    {
      "type": "Feature",
      "properties": {
        "fid": 30,
        "氏名": null,
        "明細/圃場地番": "北新田1213.1215",
        "地番": "1213.1215",
        "layer": "耕地耕作",
        "面積": 79.26,
        "ｗｋｔ": "ac068c4c4758c9fcd5f9f45cb6ba5335",
        "計算面積": 79
      },
      "geometry": {
        "type": "MultiPolygon",
        "coordinates": [
          [
            [
              [
                140.0332621,
                35.8939267
              ],
              [
                140.032834,
                35.8934299
              ],
              [
                140.031781,
                35.8940481
              ],
              [
                140.0322116,
                35.8945493
              ],
              [
                140.0332621,
                35.8939267
              ]
            ]
          ]
        ]
      }
    },
    {
      "type": "Feature",
      "properties": {
        "fid": 31,
        "氏名": null,
        "明細/圃場地番": "北新田1337.1338",
        "地番": "1337.1338",
        "layer": "耕地耕作",
        "面積": 62.85,
        "ｗｋｔ": "4a172dc568113e21de8ccd890dfb61a6",
        "計算面積": 63
      },
      "geometry": {
        "type": "MultiPolygon",
        "coordinates": [
          [
            [
              [
                140.0320164,
                35.8943717
              ],
              [
                140.0316676,
                35.893966
              ],
              [
                140.0306187,
                35.8945779
              ],
              [
                140.0309615,
                35.8949679
              ],
              [
                140.0320164,
                35.8943717
              ]
            ]
          ]
        ]
      }
    },
    {
      "type": "Feature",
      "properties": {
        "fid": 32,
        "氏名": null,
        "明細/圃場地番": "北新田1376(宝典)",
        "地番": "1376(宝典)",
        "layer": "耕地耕作",
        "面積": 47.22,
        "ｗｋｔ": "20e639c622f527da0959e6ecbce37060",
        "計算面積": 47
      },
      "geometry": {
        "type": "MultiPolygon",
        "coordinates": [
          [
            [
              [
                140.0261172,
                35.8913009
              ],
              [
                140.0263764,
                35.8916061
              ],
              [
                140.0274169,
                35.8910052
              ],
              [
                140.0271626,
                35.8907021
              ],
              [
                140.0271318,
                35.8907212
              ],
              [
                140.0266716,
                35.8909824
              ],
              [
                140.0261172,
                35.8913009
              ]
            ]
          ]
        ]
      }
    },
    {
      "type": "Feature",
      "properties": {
        "fid": 33,
        "氏名": null,
        "明細/圃場地番": "北新田1201.1203",
        "地番": "1201.1203",
        "layer": "耕地耕作",
        "面積": 95.97,
        "ｗｋｔ": "b7e1db1f5547a896fdf130b6ee1d2251",
        "計算面積": 96
      },
      "geometry": {
        "type": "MultiPolygon",
        "coordinates": [
          [
            [
              [
                140.0341725,
                35.8930955
              ],
              [
                140.0331139,
                35.8937122
              ],
              [
                140.0332951,
                35.8939172
              ],
              [
                140.0336436,
                35.8943115
              ],
              [
                140.0346993,
                35.8936898
              ],
              [
                140.0343531,
                35.8932993
              ],
              [
                140.0341725,
                35.8930955
              ]
            ]
          ]
        ]
      }
    },
    {
      "type": "Feature",
      "properties": {
        "fid": 34,
        "氏名": null,
        "明細/圃場地番": "北新田1209.1210",
        "地番": "1209.1210",
        "layer": "耕地耕作",
        "面積": 71.71,
        "ｗｋｔ": "82e1dd445fbd7ed8765be67254010daf",
        "計算面積": 72
      },
      "geometry": {
        "type": "MultiPolygon",
        "coordinates": [
          [
            [
              [
                140.0340008,
                35.8947839
              ],
              [
                140.033605,
                35.8943246
              ],
              [
                140.03255,
                35.8949432
              ],
              [
                140.03293,
                35.8953856
              ],
              [
                140.0340008,
                35.8947839
              ]
            ]
          ]
        ]
      }
    },
    {
      "type": "Feature",
      "properties": {
        "fid": 35,
        "氏名": null,
        "明細/圃場地番": "北新田1510",
        "地番": "1510",
        "layer": "耕地耕作",
        "面積": 18.02,
        "ｗｋｔ": "1bfae13ad0a5f686b77d0325285ec595",
        "計算面積": 18
      },
      "geometry": {
        "type": "MultiPolygon",
        "coordinates": [
          [
            [
              [
                140.02593549,
                35.893002327
              ],
              [
                140.025825999,
                35.892904504
              ],
              [
                140.025802828,
                35.892898888
              ],
              [
                140.024785385,
                35.893507252
              ],
              [
                140.024884719,
                35.893613266
              ],
              [
                140.02593549,
                35.893002327
              ]
            ]
          ]
        ]
      }
    },
    {
      "type": "Feature",
      "properties": {
        "fid": 36,
        "氏名": null,
        "明細/圃場地番": "北新田1496",
        "地番": "1496",
        "layer": "耕地耕作",
        "面積": 40.46,
        "ｗｋｔ": "510384419b20aaf0b8a3a4cc72937827",
        "計算面積": 40
      },
      "geometry": {
        "type": "MultiPolygon",
        "coordinates": [
          [
            [
              [
                140.027774526,
                35.895123284
              ],
              [
                140.027550332,
                35.894865049
              ],
              [
                140.026515185,
                35.895465175
              ],
              [
                140.026743007,
                35.89572565
              ],
              [
                140.027774526,
                35.895123284
              ]
            ]
          ]
        ]
      }
    },
    {
      "type": "Feature",
      "properties": {
        "fid": 37,
        "氏名": null,
        "明細/圃場地番": "北新田1375(宝典)",
        "地番": "1375(宝典)",
        "layer": "耕地耕作",
        "面積": 30.92,
        "ｗｋｔ": "54cdb67baca7655fff3f76e887df033b",
        "計算面積": 31
      },
      "geometry": {
        "type": "MultiPolygon",
        "coordinates": [
          [
            [
              [
                140.0263764,
                35.8916061
              ],
              [
                140.0265512,
                35.8918065
              ],
              [
                140.0275633,
                35.8912142
              ],
              [
                140.0275535,
                35.8911996
              ],
              [
                140.0275727,
                35.8911867
              ],
              [
                140.0274169,
                35.8910052
              ],
              [
                140.0263764,
                35.8916061
              ]
            ]
          ]
        ]
      }
    },
    {
      "type": "Feature",
      "properties": {
        "fid": 38,
        "氏名": null,
        "明細/圃場地番": "北新田1373(宝典)",
        "地番": "1373(宝典)",
        "layer": "耕地耕作",
        "面積": 29.67,
        "ｗｋｔ": "2dca6b4d4d758922ce4a11f006d370d8",
        "計算面積": 30
      },
      "geometry": {
        "type": "MultiPolygon",
        "coordinates": [
          [
            [
              [
                140.0267226,
                35.892003
              ],
              [
                140.0268876,
                35.8921921
              ],
              [
                140.0279194,
                35.8915906
              ],
              [
                140.0277545,
                35.8913985
              ],
              [
                140.0267226,
                35.892003
              ]
            ]
          ]
        ]
      }
    },
    {
      "type": "Feature",
      "properties": {
        "fid": 39,
        "氏名": null,
        "明細/圃場地番": "北新田1206",
        "地番": "1206",
        "layer": "耕地耕作",
        "面積": 27.46,
        "ｗｋｔ": "98141524b19721903dc991855784e471",
        "計算面積": 27
      },
      "geometry": {
        "type": "MultiPolygon",
        "coordinates": [
          [
            [
              [
                140.035052933,
                35.894088813
              ],
              [
                140.033986952,
                35.894700083
              ],
              [
                140.034143298,
                35.894876995
              ],
              [
                140.035198432,
                35.894252966
              ],
              [
                140.035052933,
                35.894088813
              ]
            ]
          ]
        ]
      }
    },
    {
      "type": "Feature",
      "properties": {
        "fid": 40,
        "氏名": null,
        "明細/圃場地番": "北新田1349.1350",
        "地番": "1349.1350",
        "layer": "耕地耕作",
        "面積": 50.19,
        "ｗｋｔ": "820d21455460c380d28a9d07b1de5fb1",
        "計算面積": 50
      },
      "geometry": {
        "type": "MultiPolygon",
        "coordinates": [
          [
            [
              [
                140.0310258,
                35.8951
              ],
              [
                140.0299937,
                35.8957135
              ],
              [
                140.0302727,
                35.8960305
              ],
              [
                140.031272,
                35.8954451
              ],
              [
                140.0312426,
                35.8954071
              ],
              [
                140.0312791,
                35.8953868
              ],
              [
                140.0310258,
                35.8951
              ]
            ]
          ]
        ]
      }
    },
    {
      "type": "Feature",
      "properties": {
        "fid": 41,
        "氏名": null,
        "明細/圃場地番": "北新田1341~1343",
        "地番": "1341~1343",
        "layer": "耕地耕作",
        "面積": 93.91,
        "ｗｋｔ": "fe452e6639af9b39bd0f4d89a35121f5",
        "計算面積": 94
      },
      "geometry": {
        "type": "MultiPolygon",
        "coordinates": [
          [
            [
              [
                140.0318523,
                35.8959697
              ],
              [
                140.0328649,
                35.8953693
              ],
              [
                140.0323382,
                35.8947608
              ],
              [
                140.0313176,
                35.8953601
              ],
              [
                140.0318523,
                35.8959697
              ]
            ]
          ]
        ]
      }
    },
    {
      "type": "Feature",
      "properties": {
        "fid": 42,
        "氏名": null,
        "明細/圃場地番": "北新田1339.1340",
        "地番": "1339.1340",
        "layer": "耕地耕作",
        "面積": 60.91,
        "ｗｋｔ": "27b280eac73369394ec05bfa566d1ac3",
        "計算面積": 61
      },
      "geometry": {
        "type": "MultiPolygon",
        "coordinates": [
          [
            [
              [
                140.0313176,
                35.8953601
              ],
              [
                140.0323382,
                35.8947608
              ],
              [
                140.0320164,
                35.8943717
              ],
              [
                140.0309615,
                35.8949679
              ],
              [
                140.0313176,
                35.8953601
              ]
            ]
          ]
        ]
      }
    },
    {
      "type": "Feature",
      "properties": {
        "fid": 43,
        "氏名": null,
        "明細/圃場地番": "北新田1219",
        "地番": "1219",
        "layer": "耕地耕作",
        "面積": 32,
        "ｗｋｔ": "3592f9d6d65a36b379005b870773ecae",
        "計算面積": 32
      },
      "geometry": {
        "type": "MultiPolygon",
        "coordinates": [
          [
            [
              [
                140.032028298,
                35.892533533
              ],
              [
                140.030973409,
                35.893113551
              ],
              [
                140.031160714,
                35.893325011
              ],
              [
                140.032201841,
                35.892729305
              ],
              [
                140.032028298,
                35.892533533
              ]
            ]
          ]
        ]
      }
    },
    {
      "type": "Feature",
      "properties": {
        "fid": 44,
        "氏名": null,
        "明細/圃場地番": "北新田1335.1336",
        "地番": "1335.1336",
        "layer": "耕地耕作",
        "面積": 61.98,
        "ｗｋｔ": "53e7ff88c80a19b1c0731dcb500368c6",
        "計算面積": 62
      },
      "geometry": {
        "type": "MultiPolygon",
        "coordinates": [
          [
            [
              [
                140.0316676,
                35.893966
              ],
              [
                140.0313361,
                35.8935803
              ],
              [
                140.0302714,
                35.8941827
              ],
              [
                140.0306187,
                35.8945779
              ],
              [
                140.0316676,
                35.893966
              ]
            ]
          ]
        ]
      }
    },
    {
      "type": "Feature",
      "properties": {
        "fid": 45,
        "氏名": null,
        "明細/圃場地番": "北新田1211.1212",
        "地番": "1211.1212",
        "layer": "耕地耕作",
        "面積": 62.93,
        "ｗｋｔ": "880b783c38e883c40a728c4e93dd61d3",
        "計算面積": 63
      },
      "geometry": {
        "type": "MultiPolygon",
        "coordinates": [
          [
            [
              [
                140.033605,
                35.8943246
              ],
              [
                140.0332621,
                35.8939267
              ],
              [
                140.0322116,
                35.8945493
              ],
              [
                140.03255,
                35.8949432
              ],
              [
                140.033605,
                35.8943246
              ]
            ]
          ]
        ]
      }
    },
    {
      "type": "Feature",
      "properties": {
        "fid": 46,
        "氏名": null,
        "明細/圃場地番": "北新田1293",
        "地番": "1293",
        "layer": "耕地耕作",
        "面積": 30.32,
        "ｗｋｔ": "cd51a7bcabb6bedeb5a371ac702935dc",
        "計算面積": 30
      },
      "geometry": {
        "type": "MultiPolygon",
        "coordinates": [
          [
            [
              [
                140.0243518,
                35.8874359
              ],
              [
                140.025376,
                35.8868335
              ],
              [
                140.0252064,
                35.8866373
              ],
              [
                140.0241834,
                35.8872398
              ],
              [
                140.0243518,
                35.8874359
              ]
            ]
          ]
        ]
      }
    },
    {
      "type": "Feature",
      "properties": {
        "fid": 47,
        "氏名": null,
        "明細/圃場地番": "北新田1291.1292",
        "地番": "1291.1292",
        "layer": "耕地耕作",
        "面積": 60.94,
        "ｗｋｔ": "b6d212a5be8b0ddf403f737c4bb56b94",
        "計算面積": 61
      },
      "geometry": {
        "type": "MultiPolygon",
        "coordinates": [
          [
            [
              [
                140.0241834,
                35.8872398
              ],
              [
                140.0252064,
                35.8866373
              ],
              [
                140.0248697,
                35.8862476
              ],
              [
                140.0238401,
                35.8868401
              ],
              [
                140.0241834,
                35.8872398
              ]
            ]
          ]
        ]
      }
    },
    {
      "type": "Feature",
      "properties": {
        "fid": 48,
        "氏名": null,
        "明細/圃場地番": "北新田1557",
        "地番": "1557",
        "layer": "耕地耕作",
        "面積": 21.02,
        "ｗｋｔ": "2788ebc678c3614c934b95535e13eefd",
        "計算面積": 21
      },
      "geometry": {
        "type": "MultiPolygon",
        "coordinates": [
          [
            [
              [
                140.021312949,
                35.88958511
              ],
              [
                140.02025767,
                35.890190851
              ],
              [
                140.020371394,
                35.890323378
              ],
              [
                140.021428892,
                35.889718272
              ],
              [
                140.021312949,
                35.88958511
              ]
            ]
          ]
        ]
      }
    },
    {
      "type": "Feature",
      "properties": {
        "fid": 49,
        "氏名": null,
        "明細/圃場地番": "北新田1378(宝典)",
        "地番": "1378(宝典)",
        "layer": "耕地耕作",
        "面積": 37.69,
        "ｗｋｔ": "dea30796f6c1852aa7eebd925c72e89c",
        "計算面積": 38
      },
      "geometry": {
        "type": "MultiPolygon",
        "coordinates": [
          [
            [
              [
                140.0257657,
                35.8909346
              ],
              [
                140.0259872,
                35.8911699
              ],
              [
                140.0270349,
                35.8905601
              ],
              [
                140.0269888,
                35.8905063
              ],
              [
                140.0268469,
                35.8903499
              ],
              [
                140.0267979,
                35.8903456
              ],
              [
                140.0257657,
                35.8909346
              ]
            ]
          ]
        ]
      }
    },
    {
      "type": "Feature",
      "properties": {
        "fid": 50,
        "氏名": null,
        "明細/圃場地番": "北新田1558",
        "地番": "1558",
        "layer": "耕地耕作",
        "面積": 35.98,
        "ｗｋｔ": "3980110f6e58c3973798e639861d5bda",
        "計算面積": 36
      },
      "geometry": {
        "type": "MultiPolygon",
        "coordinates": [
          [
            [
              [
                140.021428892,
                35.889718272
              ],
              [
                140.020371394,
                35.890323378
              ],
              [
                140.020541959,
                35.890522141
              ],
              [
                140.020612999,
                35.890530002
              ],
              [
                140.021623744,
                35.88994206
              ],
              [
                140.021428892,
                35.889718272
              ]
            ]
          ]
        ]
      }
    },
    {
      "type": "Feature",
      "properties": {
        "fid": 51,
        "氏名": null,
        "明細/圃場地番": "北新田1176",
        "地番": "1176",
        "layer": "耕地耕作",
        "面積": 22.62,
        "ｗｋｔ": "e8a2a2c0f7d07c61cd322ecd0efe3ca8",
        "計算面積": 23
      },
      "geometry": {
        "type": "MultiPolygon",
        "coordinates": [
          [
            [
              [
                140.029337276,
                35.88938479
              ],
              [
                140.029467996,
                35.889533651
              ],
              [
                140.030504818,
                35.888922356
              ],
              [
                140.030385849,
                35.888783278
              ],
              [
                140.029337276,
                35.88938479
              ]
            ]
          ]
        ]
      }
    },
    {
      "type": "Feature",
      "properties": {
        "fid": 52,
        "氏名": null,
        "明細/圃場地番": "北新田1237.1238",
        "地番": "1237.1238",
        "layer": "耕地耕作",
        "面積": 57.4,
        "ｗｋｔ": "8a10924bd9606faa0a7ffd1f5dd71e16",
        "計算面積": 57
      },
      "geometry": {
        "type": "MultiPolygon",
        "coordinates": [
          [
            [
              [
                140.0294585,
                35.8895903
              ],
              [
                140.0284091,
                35.8902014
              ],
              [
                140.0287297,
                35.8905638
              ],
              [
                140.0297738,
                35.8899509
              ],
              [
                140.0294585,
                35.8895903
              ]
            ]
          ]
        ]
      }
    },
    {
      "type": "Feature",
      "properties": {
        "fid": 53,
        "氏名": null,
        "明細/圃場地番": "北新田1385(宝典)",
        "地番": "1385(宝典)",
        "layer": "耕地耕作",
        "面積": 40.55,
        "ｗｋｔ": "f5118cc6a32864eca6f56ffdba979aea",
        "計算面積": 41
      },
      "geometry": {
        "type": "MultiPolygon",
        "coordinates": [
          [
            [
              [
                140.0249991,
                35.8900387
              ],
              [
                140.0260269,
                35.8894348
              ],
              [
                140.0257979,
                35.8891752
              ],
              [
                140.0247709,
                35.8897792
              ],
              [
                140.0249991,
                35.8900387
              ]
            ]
          ]
        ]
      }
    },
    {
      "type": "Feature",
      "properties": {
        "fid": 54,
        "氏名": null,
        "明細/圃場地番": "北新田1184",
        "地番": "1184",
        "layer": "耕地耕作",
        "面積": 30.24,
        "ｗｋｔ": "ad018b7b8504424737b696370a6298bd",
        "計算面積": 30
      },
      "geometry": {
        "type": "MultiPolygon",
        "coordinates": [
          [
            [
              [
                140.0317006,
                35.8902849
              ],
              [
                140.0315279,
                35.8900876
              ],
              [
                140.0304894,
                35.8907072
              ],
              [
                140.030649,
                35.8908925
              ],
              [
                140.0317006,
                35.8902849
              ]
            ]
          ]
        ]
      }
    },
    {
      "type": "Feature",
      "properties": {
        "fid": 55,
        "氏名": null,
        "明細/圃場地番": "北新田1180",
        "地番": "1180",
        "layer": "耕地耕作",
        "面積": 24.42,
        "ｗｋｔ": "d904b6719976ec283d5966ea2ed8da64",
        "計算面積": 24
      },
      "geometry": {
        "type": "MultiPolygon",
        "coordinates": [
          [
            [
              [
                140.03001314,
                35.890154439
              ],
              [
                140.030152715,
                35.890313378
              ],
              [
                140.03118082,
                35.889712608
              ],
              [
                140.031047878,
                35.889557199
              ],
              [
                140.03001314,
                35.890154439
              ]
            ]
          ]
        ]
      }
    },
    {
      "type": "Feature",
      "properties": {
        "fid": 56,
        "氏名": null,
        "明細/圃場地番": "北新田1177",
        "地番": "1177",
        "layer": "耕地耕作",
        "面積": 35.75,
        "ｗｋｔ": "5ed255f41aef6193edc74d980d3e3298",
        "計算面積": 36
      },
      "geometry": {
        "type": "MultiPolygon",
        "coordinates": [
          [
            [
              [
                140.029467996,
                35.889533651
              ],
              [
                140.029664698,
                35.889757648
              ],
              [
                140.029689764,
                35.889743102
              ],
              [
                140.030703611,
                35.889154748
              ],
              [
                140.030504818,
                35.888922356
              ],
              [
                140.029467996,
                35.889533651
              ]
            ]
          ]
        ]
      }
    },
    {
      "type": "Feature",
      "properties": {
        "fid": 57,
        "氏名": null,
        "明細/圃場地番": "北新田1311.1312",
        "地番": "1311.1312",
        "layer": "耕地耕作",
        "面積": 75.01,
        "ｗｋｔ": "971f3ab6ef5146ca4cf5c25b3750f6cd",
        "計算面積": 75
      },
      "geometry": {
        "type": "MultiPolygon",
        "coordinates": [
          [
            [
              [
                140.0280875,
                35.8899044
              ],
              [
                140.027055,
                35.890501
              ],
              [
                140.0270791,
                35.8905313
              ],
              [
                140.02706,
                35.8905376
              ],
              [
                140.0274246,
                35.8909536
              ],
              [
                140.0274506,
                35.8909826
              ],
              [
                140.0274699,
                35.8909715
              ],
              [
                140.0285151,
                35.8903696
              ],
              [
                140.0282968,
                35.890143
              ],
              [
                140.0280875,
                35.8899044
              ]
            ]
          ]
        ]
      }
    },
    {
      "type": "Feature",
      "properties": {
        "fid": 58,
        "氏名": null,
        "明細/圃場地番": "北新田1417",
        "地番": "1417",
        "layer": "耕地耕作",
        "面積": 20.97,
        "ｗｋｔ": "b3229f21c4d606f49fe2c8d6282c7467",
        "計算面積": 21
      },
      "geometry": {
        "type": "MultiPolygon",
        "coordinates": [
          [
            [
              [
                140.02323857,
                35.888080628
              ],
              [
                140.022224681,
                35.888668414
              ],
              [
                140.022244307,
                35.888704583
              ],
              [
                140.022222864,
                35.88871451
              ],
              [
                140.02226089,
                35.888759181
              ],
              [
                140.022312063,
                35.888818482
              ],
              [
                140.023357181,
                35.888214691
              ],
              [
                140.02323857,
                35.888080628
              ]
            ]
          ]
        ]
      }
    },
    {
      "type": "Feature",
      "properties": {
        "fid": 59,
        "氏名": null,
        "明細/圃場地番": "北新田1235",
        "地番": "1235",
        "layer": "耕地耕作",
        "面積": 31.64,
        "ｗｋｔ": "65183b0cce14f32f210a8c2d9048060f",
        "計算面積": 32
      },
      "geometry": {
        "type": "MultiPolygon",
        "coordinates": [
          [
            [
              [
                140.02889789,
                35.890753902
              ],
              [
                140.029075621,
                35.890954802
              ],
              [
                140.03011807,
                35.8903446
              ],
              [
                140.02994417,
                35.890145732
              ],
              [
                140.02889789,
                35.890753902
              ]
            ]
          ]
        ]
      }
    },
    {
      "type": "Feature",
      "properties": {
        "fid": 60,
        "氏名": null,
        "明細/圃場地番": "北新田1313.1314",
        "地番": "1313.1314",
        "layer": "耕地耕作",
        "面積": 41.98,
        "ｗｋｔ": "6a3c9c25cc757cf1eee585c8569041d4",
        "計算面積": 42
      },
      "geometry": {
        "type": "MultiPolygon",
        "coordinates": [
          [
            [
              [
                140.0285151,
                35.8903696
              ],
              [
                140.0274699,
                35.8909715
              ],
              [
                140.0274828,
                35.8909937
              ],
              [
                140.0274679,
                35.8910019
              ],
              [
                140.0276576,
                35.8912132
              ],
              [
                140.027707,
                35.891226
              ],
              [
                140.0287516,
                35.8906289
              ],
              [
                140.0286531,
                35.8905128
              ],
              [
                140.0285151,
                35.8903696
              ]
            ]
          ]
        ]
      }
    },
    {
      "type": "Feature",
      "properties": {
        "fid": 61,
        "氏名": null,
        "明細/圃場地番": "北新田1172",
        "地番": "1172",
        "layer": "耕地耕作",
        "面積": 43.96,
        "ｗｋｔ": "523d54d08ab03f311c37ed9b0aa46627",
        "計算面積": 44
      },
      "geometry": {
        "type": "MultiPolygon",
        "coordinates": [
          [
            [
              [
                140.028648565,
                35.888591365
              ],
              [
                140.028889251,
                35.888868648
              ],
              [
                140.029930073,
                35.888268931
              ],
              [
                140.029678657,
                35.887985203
              ],
              [
                140.028648565,
                35.888591365
              ]
            ]
          ]
        ]
      }
    },
    {
      "type": "Feature",
      "properties": {
        "fid": 62,
        "氏名": null,
        "明細/圃場地番": "北新田1230",
        "地番": "1230",
        "layer": "耕地耕作",
        "面積": 30.73,
        "ｗｋｔ": "9845545310b4f80426ad9bd8482f4f21",
        "計算面積": 31
      },
      "geometry": {
        "type": "MultiPolygon",
        "coordinates": [
          [
            [
              [
                140.030332427,
                35.890595956
              ],
              [
                140.029295763,
                35.891201722
              ],
              [
                140.029473843,
                35.891395879
              ],
              [
                140.030502474,
                35.890791943
              ],
              [
                140.030332427,
                35.890595956
              ]
            ]
          ]
        ]
      }
    },
    {
      "type": "Feature",
      "properties": {
        "fid": 63,
        "氏名": null,
        "明細/圃場地番": "北新田1241.1244",
        "地番": "1241.1244",
        "layer": "耕地耕作",
        "面積": 104.42,
        "ｗｋｔ": "bd34beee65a4c06e7c0888d2a5698240",
        "計算面積": 104
      },
      "geometry": {
        "type": "MultiPolygon",
        "coordinates": [
          [
            [
              [
                140.0279919,
                35.8897537
              ],
              [
                140.0290595,
                35.8891419
              ],
              [
                140.028483,
                35.8884926
              ],
              [
                140.0274223,
                35.8891014
              ],
              [
                140.0279919,
                35.8897537
              ]
            ]
          ]
        ]
      }
    },
    {
      "type": "Feature",
      "properties": {
        "fid": 64,
        "氏名": null,
        "明細/圃場地番": "北新田1383,1384(宝典)",
        "地番": "1383,1384(宝典)",
        "layer": "耕地耕作",
        "面積": 61.12,
        "ｗｋｔ": "06a852e21d1b2cf2b31b2efad6d8ec26",
        "計算面積": 61
      },
      "geometry": {
        "type": "MultiPolygon",
        "coordinates": [
          [
            [
              [
                140.0253376,
                35.8904237
              ],
              [
                140.0263772,
                35.8898319
              ],
              [
                140.0260269,
                35.8894348
              ],
              [
                140.0249991,
                35.8900387
              ],
              [
                140.0253376,
                35.8904237
              ]
            ]
          ]
        ]
      }
    },
    {
      "type": "Feature",
      "properties": {
        "fid": 65,
        "氏名": null,
        "明細/圃場地番": "北新田1377(宝典)",
        "地番": "1377(宝典)",
        "layer": "耕地耕作",
        "面積": 22.25,
        "ｗｋｔ": "0f29223f8b4cd2f4a6daa84c00e671a3",
        "計算面積": 22
      },
      "geometry": {
        "type": "MultiPolygon",
        "coordinates": [
          [
            [
              [
                140.0259872,
                35.8911699
              ],
              [
                140.0261208,
                35.8913024
              ],
              [
                140.0266608,
                35.8909883
              ],
              [
                140.0271264,
                35.8907256
              ],
              [
                140.0271481,
                35.8907168
              ],
              [
                140.0271681,
                35.8907035
              ],
              [
                140.0270349,
                35.8905601
              ],
              [
                140.0259872,
                35.8911699
              ]
            ]
          ]
        ]
      }
    },
    {
      "type": "Feature",
      "properties": {
        "fid": 66,
        "氏名": null,
        "明細/圃場地番": "北新田1236",
        "地番": "1236",
        "layer": "耕地耕作",
        "面積": 30.51,
        "ｗｋｔ": "d158373cfead87a67fc7be9320a9d2fc",
        "計算面積": 31
      },
      "geometry": {
        "type": "MultiPolygon",
        "coordinates": [
          [
            [
              [
                140.028729679,
                35.890563765
              ],
              [
                140.02889789,
                35.890753902
              ],
              [
                140.02994417,
                35.890145732
              ],
              [
                140.029773773,
                35.88995087
              ],
              [
                140.028729679,
                35.890563765
              ]
            ]
          ]
        ]
      }
    },
    {
      "type": "Feature",
      "properties": {
        "fid": 67,
        "氏名": null,
        "明細/圃場地番": "北新田1401",
        "地番": "1401",
        "layer": "耕地耕作",
        "面積": 30.9,
        "ｗｋｔ": "d5d45b15ff10e30e1a5de57b8b6fa62f",
        "計算面積": 31
      },
      "geometry": {
        "type": "MultiPolygon",
        "coordinates": [
          [
            [
              [
                140.0224079,
                35.887080404
              ],
              [
                140.023425185,
                35.886490568
              ],
              [
                140.023410893,
                35.886469851
              ],
              [
                140.023427624,
                35.88646068
              ],
              [
                140.023269721,
                35.886276662
              ],
              [
                140.022239077,
                35.886886459
              ],
              [
                140.0224079,
                35.887080404
              ]
            ]
          ]
        ]
      }
    },
    {
      "type": "Feature",
      "properties": {
        "fid": 68,
        "氏名": null,
        "明細/圃場地番": "北新田1402-1-2",
        "地番": "1402-1",
        "layer": "耕地耕作",
        "面積": 38.13,
        "ｗｋｔ": "96b3be7d3dfba4f6f0cec1956b9dc55b",
        "計算面積": 38
      },
      "geometry": {
        "type": "MultiPolygon",
        "coordinates": [
          [
            [
              [
                140.0222391,
                35.8868865
              ],
              [
                140.0232697,
                35.8862767
              ],
              [
                140.0232377,
                35.8862394
              ],
              [
                140.0230569,
                35.8860341
              ],
              [
                140.0220253,
                35.8866433
              ],
              [
                140.0222391,
                35.8868865
              ]
            ]
          ]
        ]
      }
    },
    {
      "type": "Feature",
      "properties": {
        "fid": 69,
        "氏名": null,
        "明細/圃場地番": "北新田1004",
        "地番": "1004",
        "layer": "耕地耕作",
        "面積": 19.77,
        "ｗｋｔ": "d8e5e232e5e57cd027861e1c3e9f9711",
        "計算面積": 20
      },
      "geometry": {
        "type": "MultiPolygon",
        "coordinates": [
          [
            [
              [
                140.0373216,
                35.8929957
              ],
              [
                140.0372208,
                35.8928654
              ],
              [
                140.0361886,
                35.8934773
              ],
              [
                140.0363164,
                35.8935982
              ],
              [
                140.0373216,
                35.8929957
              ]
            ]
          ]
        ]
      }
    },
    {
      "type": "Feature",
      "properties": {
        "fid": 70,
        "氏名": null,
        "明細/圃場地番": "北新田836",
        "地番": "836",
        "layer": "耕地耕作",
        "面積": 23.53,
        "ｗｋｔ": "8327bfb4e4b56f1575e3c08e5b050017",
        "計算面積": 24
      },
      "geometry": {
        "type": "MultiPolygon",
        "coordinates": [
          [
            [
              [
                140.0373817,
                35.8929621
              ],
              [
                140.0383888,
                35.8923815
              ],
              [
                140.0382706,
                35.8922168
              ],
              [
                140.0372364,
                35.8928193
              ],
              [
                140.0373817,
                35.8929621
              ]
            ]
          ]
        ]
      }
    },
    {
      "type": "Feature",
      "properties": {
        "fid": 71,
        "氏名": null,
        "明細/圃場地番": "北新田1012",
        "地番": "1012",
        "layer": "耕地耕作",
        "面積": 33.81,
        "ｗｋｔ": "fff283ee2120210e5f4611ca3714ca68",
        "計算面積": 34
      },
      "geometry": {
        "type": "MultiPolygon",
        "coordinates": [
          [
            [
              [
                140.0360245,
                35.8933558
              ],
              [
                140.0349612,
                35.8939762
              ],
              [
                140.0350503,
                35.8940771
              ],
              [
                140.0351445,
                35.8941838
              ],
              [
                140.0362107,
                35.8935677
              ],
              [
                140.036118,
                35.8934622
              ],
              [
                140.0360245,
                35.8933558
              ]
            ]
          ]
        ]
      }
    },
    {
      "type": "Feature",
      "properties": {
        "fid": 72,
        "氏名": null,
        "明細/圃場地番": "北新田1351",
        "地番": "1351",
        "layer": "耕地耕作",
        "面積": 31.32,
        "ｗｋｔ": "edffb1a204660d2ee04e3eb72d427711",
        "計算面積": 31
      },
      "geometry": {
        "type": "MultiPolygon",
        "coordinates": [
          [
            [
              [
                140.030846179,
                35.894896044
              ],
              [
                140.029823086,
                35.895519607
              ],
              [
                140.029993689,
                35.895713467
              ],
              [
                140.031025751,
                35.895099995
              ],
              [
                140.030846179,
                35.894896044
              ]
            ]
          ]
        ]
      }
    },
    {
      "type": "Feature",
      "properties": {
        "fid": 73,
        "氏名": null,
        "明細/圃場地番": "北新田1014",
        "地番": "1014",
        "layer": "耕地耕作",
        "面積": 34.58,
        "ｗｋｔ": "9d43726154f73951abde3f3f0c86c567",
        "計算面積": 35
      },
      "geometry": {
        "type": "MultiPolygon",
        "coordinates": [
          [
            [
              [
                140.0357684,
                35.8930796
              ],
              [
                140.0355779,
                35.8928627
              ],
              [
                140.0345213,
                35.8934627
              ],
              [
                140.0347145,
                35.8936815
              ],
              [
                140.0357684,
                35.8930796
              ]
            ]
          ]
        ]
      }
    },
    {
      "type": "Feature",
      "properties": {
        "fid": 74,
        "氏名": null,
        "明細/圃場地番": "北新田1333.1334",
        "地番": "1333.1334",
        "layer": "耕地耕作",
        "面積": 60.82,
        "ｗｋｔ": "78b29cfcb19d06a0bb4d6c7941092203",
        "計算面積": 61
      },
      "geometry": {
        "type": "MultiPolygon",
        "coordinates": [
          [
            [
              [
                140.0299422,
                35.893808
              ],
              [
                140.0302714,
                35.8941827
              ],
              [
                140.0313361,
                35.8935803
              ],
              [
                140.0310025,
                35.8931922
              ],
              [
                140.0299422,
                35.893808
              ]
            ]
          ]
        ]
      }
    },
    {
      "type": "Feature",
      "properties": {
        "fid": 75,
        "氏名": null,
        "明細/圃場地番": "北新田1468",
        "地番": "1468",
        "layer": "耕地耕作",
        "面積": 26.41,
        "ｗｋｔ": "ff23422fa44601be34324d0a155d1d48",
        "計算面積": 26
      },
      "geometry": {
        "type": "MultiPolygon",
        "coordinates": [
          [
            [
              [
                140.029129126,
                35.896571491
              ],
              [
                140.030184185,
                35.895955441
              ],
              [
                140.030038248,
                35.895794649
              ],
              [
                140.028984842,
                35.896400243
              ],
              [
                140.029129126,
                35.896571491
              ]
            ]
          ]
        ]
      }
    },
    {
      "type": "Feature",
      "properties": {
        "fid": 76,
        "氏名": null,
        "明細/圃場地番": "北新田1060",
        "地番": "1060",
        "layer": "耕地耕作",
        "面積": 10.73,
        "ｗｋｔ": "172e1a3b8ac1ccb480a3fb161cb985d2",
        "計算面積": 11
      },
      "geometry": {
        "type": "MultiPolygon",
        "coordinates": [
          [
            [
              [
                140.027808652,
                35.885831309
              ],
              [
                140.028841117,
                35.885230096
              ],
              [
                140.028786661,
                35.885167058
              ],
              [
                140.02774384,
                35.885756347
              ],
              [
                140.027808652,
                35.885831309
              ]
            ]
          ]
        ]
      }
    },
    {
      "type": "Feature",
      "properties": {
        "fid": 77,
        "氏名": null,
        "明細/圃場地番": "北新田1061",
        "地番": "1061",
        "layer": "耕地耕作",
        "面積": 31.31,
        "ｗｋｔ": "2f13ecd5380fc2fd77ac33b0858d5251",
        "計算面積": 31
      },
      "geometry": {
        "type": "MultiPolygon",
        "coordinates": [
          [
            [
              [
                140.02774384,
                35.885756347
              ],
              [
                140.028786661,
                35.885167058
              ],
              [
                140.028610112,
                35.884962683
              ],
              [
                140.027572349,
                35.885558002
              ],
              [
                140.02774384,
                35.885756347
              ]
            ]
          ]
        ]
      }
    }
  ]
}