{
  "type": "FeatureCollection",
  "features": [
    {
      "type": "Feature",
      "properties": {
        "fid": 6,
        "AreaOnRegistry": "777",
        "Address": "千葉県横芝光町北清水三軒뀞前9314",
        "Tiban": "9314",
        "SectionOfPolygonCodeName": "その他",
        "大字小字": "横芝光町北清水三軒뀞前",
        "大字": "北清水",
        "面積": 42,
        "㎡面積": 4179.97,
        "name": "エリア #1"
      },
      "geometry": {
        "type": "Polygon",
        "coordinates": [
          [
            [
              140.505116091,
              35.622933847
            ],
            [
              140.50558831,
              35.623449623
            ],
            [
              140.505746227,
              35.62334632
            ],
            [
              140.505877519,
              35.623264599
            ],
            [
              140.506081391,
              35.623136887
            ],
            [
              140.505593447,
              35.622600088
            ],
            [
              140.505176099,
              35.62286659
            ],
            [
              140.505116091,
              35.622933847
            ]
          ]
        ]
      }
    },
    {
      "type": "Feature",
      "properties": {
        "fid": 73,
        "AreaOnRegistry": "3270",
        "Address": "千葉県横芝光町新島一反田5249",
        "Tiban": "5249",
        "SectionOfPolygonCodeName": "その他",
        "大字小字": "横芝光町新島一反田",
        "大字": "新島",
        "面積": 32,
        "㎡面積": 3150.05,
        "name": "エリア #2"
      },
      "geometry": {
        "type": "Polygon",
        "coordinates": [
          [
            [
              140.50395562,
              35.620830527
            ],
            [
              140.504955449,
              35.621354873
            ],
            [
              140.504978528,
              35.621352859
            ],
            [
              140.505081352,
              35.621220278
            ],
            [
              140.505119952,
              35.621140859
            ],
            [
              140.505096667,
              35.621118359
            ],
            [
              140.50413395,
              35.620612665
            ],
            [
              140.50395562,
              35.620830527
            ]
          ]
        ]
      }
    },
    {
      "type": "Feature",
      "properties": {
        "fid": 83,
        "AreaOnRegistry": "1118",
        "Address": "千葉県横芝光町新島茶畑5087-2",
        "Tiban": "5087-2",
        "SectionOfPolygonCodeName": "その他",
        "大字小字": "横芝光町新島茶畑",
        "大字": "新島",
        "面積": 12,
        "㎡面積": 1171.22,
        "name": "エリア #3"
      },
      "geometry": {
        "type": "Polygon",
        "coordinates": [
          [
            [
              140.498843472,
              35.615932489
            ],
            [
              140.498970063,
              35.615805549
            ],
            [
              140.49838434,
              35.615414075
            ],
            [
              140.498329161,
              35.615589438
            ],
            [
              140.498843472,
              35.615932489
            ]
          ]
        ]
      }
    },
    {
      "type": "Feature",
      "properties": {
        "fid": 85,
        "AreaOnRegistry": "3270",
        "Address": "千葉県横芝光町新島一反田5250",
        "Tiban": "5250",
        "SectionOfPolygonCodeName": "その他",
        "大字小字": "横芝光町新島一反田",
        "大字": "新島",
        "面積": 32,
        "㎡面積": 3228.1,
        "name": "エリア #4"
      },
      "geometry": {
        "type": "Polygon",
        "coordinates": [
          [
            [
              140.504830112,
              35.621557355
            ],
            [
              140.504960225,
              35.621373705
            ],
            [
              140.504955449,
              35.621354873
            ],
            [
              140.50395562,
              35.620830527
            ],
            [
              140.503795624,
              35.621031315
            ],
            [
              140.503791256,
              35.621061513
            ],
            [
              140.504760905,
              35.62156717
            ],
            [
              140.504800229,
              35.621574494
            ],
            [
              140.504830112,
              35.621557355
            ]
          ]
        ]
      }
    },
    {
      "type": "Feature",
      "properties": {
        "fid": 93,
        "AreaOnRegistry": "195",
        "Address": "千葉県山武市松尾町武野里旧中里辻野69-2",
        "Tiban": "69-2",
        "SectionOfPolygonCodeName": "農業委員会管理のポリゴン",
        "大字小字": "山武市松尾町武野里旧中里辻野",
        "大字": "武野里",
        "面積": 7,
        "㎡面積": 723.94,
        "name": "エリア #5"
      },
      "geometry": {
        "type": "Polygon",
        "coordinates": [
          [
            [
              140.500056426,
              35.624625553
            ],
            [
              140.499948227,
              35.624513198
            ],
            [
              140.499574525,
              35.62475969
            ],
            [
              140.499583866,
              35.624782063
            ],
            [
              140.499568732,
              35.624797097
            ],
            [
              140.499664055,
              35.624883777
            ],
            [
              140.500056426,
              35.624625553
            ]
          ]
        ]
      }
    },
    {
      "type": "Feature",
      "properties": {
        "fid": 124,
        "AreaOnRegistry": "549",
        "Address": "千葉県横芝光町新島新田5232-6",
        "Tiban": "5232-6",
        "SectionOfPolygonCodeName": "その他",
        "大字小字": "横芝光町新島新田",
        "大字": "新島",
        "面積": 29,
        "㎡面積": 2873.45,
        "name": "エリア #6"
      },
      "geometry": {
        "type": "Polygon",
        "coordinates": [
          [
            [
              140.501778222,
              35.619699974
            ],
            [
              140.501918571,
              35.619514192
            ],
            [
              140.50167043,
              35.619397839
            ],
            [
              140.50171793,
              35.619330301
            ],
            [
              140.501534039,
              35.619234147
            ],
            [
              140.501375446,
              35.619152803
            ],
            [
              140.501205381,
              35.619067784
            ],
            [
              140.501189564,
              35.619092165
            ],
            [
              140.50099884,
              35.618999786
            ],
            [
              140.500924219,
              35.619108585
            ],
            [
              140.500890125,
              35.619136805
            ],
            [
              140.500810476,
              35.61919144
            ],
            [
              140.501132268,
              35.619357842
            ],
            [
              140.501580505,
              35.619592685
            ],
            [
              140.501778222,
              35.619699974
            ]
          ]
        ]
      }
    },
    {
      "type": "Feature",
      "properties": {
        "fid": 126,
        "AreaOnRegistry": "2248",
        "Address": "千葉県横芝光町新島一反田5263",
        "Tiban": "5263",
        "SectionOfPolygonCodeName": "その他",
        "大字小字": "横芝光町新島一反田",
        "大字": "新島",
        "面積": 23,
        "㎡面積": 2297.26,
        "name": "エリア #7"
      },
      "geometry": {
        "type": "Polygon",
        "coordinates": [
          [
            [
              140.506327676,
              35.62143136
            ],
            [
              140.506350644,
              35.621416145
            ],
            [
              140.50644407,
              35.621264758
            ],
            [
              140.506434659,
              35.621244066
            ],
            [
              140.506434548,
              35.621230866
            ],
            [
              140.505560033,
              35.620778437
            ],
            [
              140.505546207,
              35.620782286
            ],
            [
              140.505429669,
              35.620931916
            ],
            [
              140.505427549,
              35.620954558
            ],
            [
              140.506327676,
              35.62143136
            ]
          ]
        ]
      }
    },
    {
      "type": "Feature",
      "properties": {
        "fid": 195,
        "AreaOnRegistry": "956",
        "Address": "千葉県横芝光町新島上人꽳5180-4",
        "Tiban": "5180-4",
        "SectionOfPolygonCodeName": "その他",
        "大字小字": "横芝光町新島上人꽳",
        "大字": "新島",
        "面積": 41,
        "㎡面積": 4083.29,
        "name": "エリア #8"
      },
      "geometry": {
        "type": "Polygon",
        "coordinates": [
          [
            [
              140.498513706,
              35.620099699
            ],
            [
              140.498295698,
              35.620376198
            ],
            [
              140.498301904,
              35.620388622
            ],
            [
              140.499307168,
              35.620913787
            ],
            [
              140.499500228,
              35.620643624
            ],
            [
              140.499500001,
              35.620616217
            ],
            [
              140.498532028,
              35.62010126
            ],
            [
              140.498513706,
              35.620099699
            ]
          ]
        ]
      }
    },
    {
      "type": "Feature",
      "properties": {
        "fid": 245,
        "AreaOnRegistry": "3160",
        "Address": "千葉県横芝光町新島一反田5259",
        "Tiban": "5259",
        "SectionOfPolygonCodeName": "その他",
        "大字小字": "横芝光町新島一反田",
        "大字": "新島",
        "面積": 32,
        "㎡面積": 3222.82,
        "name": "エリア #9"
      },
      "geometry": {
        "type": "Polygon",
        "coordinates": [
          [
            [
              140.505541691,
              35.622407597
            ],
            [
              140.505574993,
              35.622410419
            ],
            [
              140.505692093,
              35.622327733
            ],
            [
              140.50581624,
              35.62225915
            ],
            [
              140.505816004,
              35.622230864
            ],
            [
              140.505241741,
              35.62191725
            ],
            [
              140.504845131,
              35.621718621
            ],
            [
              140.504789631,
              35.621710444
            ],
            [
              140.504662988,
              35.621895018
            ],
            [
              140.504680853,
              35.621959979
            ],
            [
              140.505541691,
              35.622407597
            ]
          ]
        ]
      }
    },
    {
      "type": "Feature",
      "properties": {
        "fid": 353,
        "AreaOnRegistry": "2372",
        "Address": "千葉県横芝光町新島上人꽳5192-1",
        "Tiban": "5192-1",
        "SectionOfPolygonCodeName": "その他",
        "大字小字": "横芝光町新島上人꽳",
        "大字": "新島",
        "面積": 23,
        "㎡面積": 2255.13,
        "name": "エリア #10"
      },
      "geometry": {
        "type": "Polygon",
        "coordinates": [
          [
            [
              140.500023513,
              35.623127404
            ],
            [
              140.500412018,
              35.623331383
            ],
            [
              140.500567452,
              35.623124659
            ],
            [
              140.500543224,
              35.623113845
            ],
            [
              140.500561029,
              35.623087695
            ],
            [
              140.499567952,
              35.622570543
            ],
            [
              140.500023513,
              35.623127404
            ]
          ]
        ]
      }
    },
    {
      "type": "Feature",
      "properties": {
        "fid": 508,
        "AreaOnRegistry": "1000",
        "Address": "千葉県横芝光町北清水入間後9296",
        "Tiban": "9296",
        "SectionOfPolygonCodeName": "その他",
        "大字小字": "横芝光町北清水入間後",
        "大字": "北清水",
        "面積": 11,
        "㎡面積": 1080.29,
        "name": "エリア #11"
      },
      "geometry": {
        "type": "Polygon",
        "coordinates": [
          [
            [
              140.508672456,
              35.622699421
            ],
            [
              140.508693289,
              35.622704962
            ],
            [
              140.508881768,
              35.622596413
            ],
            [
              140.508555466,
              35.622245594
            ],
            [
              140.508463481,
              35.622293256
            ],
            [
              140.508362511,
              35.62237114
            ],
            [
              140.508672456,
              35.622699421
            ]
          ]
        ]
      }
    },
    {
      "type": "Feature",
      "properties": {
        "fid": 528,
        "AreaOnRegistry": "3270",
        "Address": "千葉県横芝光町新島新田5222",
        "Tiban": "5222",
        "SectionOfPolygonCodeName": "その他",
        "大字小字": "横芝光町新島新田",
        "大字": "新島",
        "面積": 33,
        "㎡面積": 3296.28,
        "name": "エリア #12"
      },
      "geometry": {
        "type": "Polygon",
        "coordinates": [
          [
            [
              140.50224198,
              35.621005301
            ],
            [
              140.502321224,
              35.620902082
            ],
            [
              140.502407302,
              35.620795086
            ],
            [
              140.502395735,
              35.6207802
            ],
            [
              140.502397899,
              35.620765239
            ],
            [
              140.501400238,
              35.620239122
            ],
            [
              140.501223626,
              35.620468086
            ],
            [
              140.50224198,
              35.621005301
            ]
          ]
        ]
      }
    },
    {
      "type": "Feature",
      "properties": {
        "fid": 582,
        "AreaOnRegistry": "3883",
        "Address": "千葉県横芝光町北清水青宮野9400-1",
        "Tiban": "9400-1",
        "SectionOfPolygonCodeName": "その他",
        "大字小字": "横芝光町北清水青宮野",
        "大字": "北清水",
        "面積": 43,
        "㎡面積": 4319.76,
        "name": "エリア #13"
      },
      "geometry": {
        "type": "Polygon",
        "coordinates": [
          [
            [
              140.504216141,
              35.626767592
            ],
            [
              140.504501281,
              35.62707041
            ],
            [
              140.504914441,
              35.62749556
            ],
            [
              140.504963672,
              35.627490257
            ],
            [
              140.505000459,
              35.627469936
            ],
            [
              140.505279188,
              35.627287343
            ],
            [
              140.504581725,
              35.626536743
            ],
            [
              140.504216141,
              35.626767592
            ]
          ]
        ]
      }
    },
    {
      "type": "Feature",
      "properties": {
        "fid": 687,
        "AreaOnRegistry": "142",
        "Address": "千葉県横芝光町新島本郷5172-2",
        "Tiban": "5172-2",
        "SectionOfPolygonCodeName": "その他",
        "大字小字": "横芝光町新島本郷",
        "大字": "新島",
        "面積": 28,
        "㎡面積": 2812.03,
        "name": "エリア #14"
      },
      "geometry": {
        "type": "Polygon",
        "coordinates": [
          [
            [
              140.498565775,
              35.620031066
            ],
            [
              140.499580191,
              35.620556179
            ],
            [
              140.499733328,
              35.620361347
            ],
            [
              140.498707359,
              35.619830045
            ],
            [
              140.498565775,
              35.620031066
            ]
          ]
        ]
      }
    },
    {
      "type": "Feature",
      "properties": {
        "fid": 850,
        "AreaOnRegistry": "330",
        "Address": "千葉県横芝光町北清水入間後9298-2",
        "Tiban": "9298-2",
        "SectionOfPolygonCodeName": "その他",
        "大字小字": "横芝光町北清水入間後",
        "大字": "北清水",
        "面積": 18,
        "㎡面積": 1788.29,
        "name": "エリア #15"
      },
      "geometry": {
        "type": "Polygon",
        "coordinates": [
          [
            [
              140.508336876,
              35.622893656
            ],
            [
              140.508378433,
              35.622891537
            ],
            [
              140.508415322,
              35.622883787
            ],
            [
              140.508670352,
              35.622723949
            ],
            [
              140.508672456,
              35.622699421
            ],
            [
              140.508362511,
              35.62237114
            ],
            [
              140.50804302,
              35.622555854
            ],
            [
              140.508040837,
              35.622570953
            ],
            [
              140.508336876,
              35.622893656
            ]
          ]
        ]
      }
    },
    {
      "type": "Feature",
      "properties": {
        "fid": 1045,
        "AreaOnRegistry": "145",
        "Address": "千葉県横芝光町新島旧三島蛇川1295-3",
        "Tiban": "1295-3",
        "SectionOfPolygonCodeName": "その他",
        "大字小字": "横芝光町新島旧三島蛇川",
        "大字": "新島",
        "面積": 20,
        "㎡面積": 2029.77,
        "name": "エリア #16"
      },
      "geometry": {
        "type": "Polygon",
        "coordinates": [
          [
            [
              140.498700115,
              35.624349079
            ],
            [
              140.498239987,
              35.624062589
            ],
            [
              140.497949182,
              35.624323324
            ],
            [
              140.498415386,
              35.624606458
            ],
            [
              140.498700115,
              35.624349079
            ]
          ]
        ]
      }
    },
    {
      "type": "Feature",
      "properties": {
        "fid": 1100,
        "AreaOnRegistry": "1656",
        "Address": "千葉県横芝光町新島上人꽳5187-1",
        "Tiban": "5187-1",
        "SectionOfPolygonCodeName": "その他",
        "大字小字": "横芝光町新島上人꽳",
        "大字": "新島",
        "面積": 18,
        "㎡面積": 1797.57,
        "name": "エリア #17"
      },
      "geometry": {
        "type": "Polygon",
        "coordinates": [
          [
            [
              140.498936068,
              35.622867926
            ],
            [
              140.499199644,
              35.623004755
            ],
            [
              140.499450213,
              35.622676967
            ],
            [
              140.499252582,
              35.622396504
            ],
            [
              140.499215675,
              35.622361825
            ],
            [
              140.49918817,
              35.622356994
            ],
            [
              140.498929696,
              35.62283557
            ],
            [
              140.498936068,
              35.622867926
            ]
          ]
        ]
      }
    },
    {
      "type": "Feature",
      "properties": {
        "fid": 1160,
        "AreaOnRegistry": "302",
        "Address": "千葉県横芝光町新島新田前5022-3",
        "Tiban": "5022-3",
        "SectionOfPolygonCodeName": "その他",
        "大字小字": "横芝光町新島新田前",
        "大字": "新島",
        "面積": 36,
        "㎡面積": 3613.14,
        "name": "エリア #18"
      },
      "geometry": {
        "type": "Polygon",
        "coordinates": [
          [
            [
              140.504648739,
              35.618370211
            ],
            [
              140.50486093,
              35.618501617
            ],
            [
              140.505591607,
              35.618983145
            ],
            [
              140.505827774,
              35.618731702
            ],
            [
              140.505480233,
              35.618502538
            ],
            [
              140.505201099,
              35.618317436
            ],
            [
              140.505004068,
              35.618187428
            ],
            [
              140.504890981,
              35.618332497
            ],
            [
              140.504757155,
              35.618275468
            ],
            [
              140.504702468,
              35.618244662
            ],
            [
              140.504637918,
              35.61833613
            ],
            [
              140.504648934,
              35.618351623
            ],
            [
              140.504648739,
              35.618370211
            ]
          ]
        ]
      }
    },
    {
      "type": "Feature",
      "properties": {
        "fid": 1175,
        "AreaOnRegistry": "3270",
        "Address": "千葉県横芝光町新島一反田5253",
        "Tiban": "5253",
        "SectionOfPolygonCodeName": "その他",
        "大字小字": "横芝光町新島一反田",
        "大字": "新島",
        "面積": 33,
        "㎡面積": 3261.96,
        "name": "エリア #19"
      },
      "geometry": {
        "type": "Polygon",
        "coordinates": [
          [
            [
              140.503970377,
              35.622228782
            ],
            [
              140.504182597,
              35.622340812
            ],
            [
              140.504361017,
              35.622133321
            ],
            [
              140.504326078,
              35.622098156
            ],
            [
              140.503362097,
              35.621580206
            ],
            [
              140.503187329,
              35.621810305
            ],
            [
              140.503194352,
              35.621821581
            ],
            [
              140.503403119,
              35.621929326
            ],
            [
              140.503970377,
              35.622228782
            ]
          ]
        ]
      }
    },
    {
      "type": "Feature",
      "properties": {
        "fid": 1204,
        "AreaOnRegistry": "1674",
        "Address": "千葉県横芝光町新島上人꽳5191-3",
        "Tiban": "5191-3",
        "SectionOfPolygonCodeName": "その他",
        "大字小字": "横芝光町新島上人꽳",
        "大字": "新島",
        "面積": 49,
        "㎡面積": 4917.29,
        "name": "エリア #20"
      },
      "geometry": {
        "type": "Polygon",
        "coordinates": [
          [
            [
              140.500029749,
              35.623769267
            ],
            [
              140.500050986,
              35.623742871
            ],
            [
              140.500080615,
              35.623758036
            ],
            [
              140.500192021,
              35.623608509
            ],
            [
              140.499628469,
              35.622924009
            ],
            [
              140.499399506,
              35.622804832
            ],
            [
              140.49904383,
              35.623253531
            ],
            [
              140.500029749,
              35.623769267
            ]
          ]
        ]
      }
    },
    {
      "type": "Feature",
      "properties": {
        "fid": 1304,
        "AreaOnRegistry": "4545",
        "Address": "千葉県横芝光町北清水三軒뀞前9311",
        "Tiban": "9311",
        "SectionOfPolygonCodeName": "その他",
        "大字小字": "横芝光町北清水三軒뀞前",
        "大字": "北清水",
        "面積": 44,
        "㎡面積": 4381.23,
        "name": "エリア #21"
      },
      "geometry": {
        "type": "Polygon",
        "coordinates": [
          [
            [
              140.505593447,
              35.622600088
            ],
            [
              140.506081391,
              35.623136887
            ],
            [
              140.5067026,
              35.622738933
            ],
            [
              140.505956479,
              35.622349775
            ],
            [
              140.505890068,
              35.622360489
            ],
            [
              140.505805048,
              35.622417846
            ],
            [
              140.505593447,
              35.622600088
            ]
          ]
        ]
      }
    },
    {
      "type": "Feature",
      "properties": {
        "fid": 1318,
        "AreaOnRegistry": "1404",
        "Address": "千葉県横芝光町新島旧三島蛇川1270",
        "Tiban": "1270",
        "SectionOfPolygonCodeName": "その他",
        "大字小字": "横芝光町新島旧三島蛇川",
        "大字": "新島",
        "面積": 15,
        "㎡面積": 1527.76,
        "name": "エリア #22"
      },
      "geometry": {
        "type": "Polygon",
        "coordinates": [
          [
            [
              140.498839604,
              35.622768612
            ],
            [
              140.498927809,
              35.622619504
            ],
            [
              140.49821019,
              35.622192414
            ],
            [
              140.498176541,
              35.622182633
            ],
            [
              140.49808578,
              35.622277816
            ],
            [
              140.498091297,
              35.622320927
            ],
            [
              140.498839604,
              35.622768612
            ]
          ]
        ]
      }
    },
    {
      "type": "Feature",
      "properties": {
        "fid": 1385,
        "AreaOnRegistry": "3270",
        "Address": "千葉県横芝光町新島茶畑5068",
        "Tiban": "5068",
        "SectionOfPolygonCodeName": "その他",
        "大字小字": "横芝光町新島茶畑",
        "大字": "新島",
        "面積": 32,
        "㎡面積": 3239.97,
        "name": "エリア #23"
      },
      "geometry": {
        "type": "Polygon",
        "coordinates": [
          [
            [
              140.500031925,
              35.616365634
            ],
            [
              140.500234804,
              35.616158258
            ],
            [
              140.499278307,
              35.615528046
            ],
            [
              140.49908044,
              35.615730658
            ],
            [
              140.500031925,
              35.616365634
            ]
          ]
        ]
      }
    },
    {
      "type": "Feature",
      "properties": {
        "fid": 1402,
        "AreaOnRegistry": "2833",
        "Address": "千葉県横芝光町新島上人꽳5179-1",
        "Tiban": "5179-1",
        "SectionOfPolygonCodeName": "その他",
        "大字小字": "横芝光町新島上人꽳",
        "大字": "新島",
        "面積": 29,
        "㎡面積": 2878.67,
        "name": "エリア #24"
      },
      "geometry": {
        "type": "Polygon",
        "coordinates": [
          [
            [
              140.499128248,
              35.621049325
            ],
            [
              140.498372008,
              35.620651531
            ],
            [
              140.498347329,
              35.620639426
            ],
            [
              140.4983378,
              35.620669978
            ],
            [
              140.498369058,
              35.620759505
            ],
            [
              140.498406355,
              35.620841523
            ],
            [
              140.498527033,
              35.621042679
            ],
            [
              140.498752698,
              35.621392754
            ],
            [
              140.498792987,
              35.62146728
            ],
            [
              140.498829686,
              35.621477043
            ],
            [
              140.498863128,
              35.62146191
            ],
            [
              140.498893395,
              35.621431843
            ],
            [
              140.498981206,
              35.621349134
            ],
            [
              140.499065676,
              35.62123156
            ],
            [
              140.499162165,
              35.621091495
            ],
            [
              140.499131548,
              35.621079206
            ],
            [
              140.499128248,
              35.621049325
            ]
          ]
        ]
      }
    },
    {
      "type": "Feature",
      "properties": {
        "fid": 2228,
        "AreaOnRegistry": "3270",
        "Address": "千葉県横芝光町新島茶畑5075",
        "Tiban": "5075",
        "SectionOfPolygonCodeName": "その他",
        "大字小字": "横芝光町新島茶畑",
        "大字": "新島",
        "面積": 66,
        "㎡面積": 6588.67,
        "name": "エリア #25"
      },
      "geometry": {
        "type": "Polygon",
        "coordinates": [
          [
            [
              140.501514425,
              35.614838549
            ],
            [
              140.501538584,
              35.614825203
            ],
            [
              140.501939681,
              35.61441671
            ],
            [
              140.500996673,
              35.613803347
            ],
            [
              140.500743471,
              35.614054358
            ],
            [
              140.500583013,
              35.614222747
            ],
            [
              140.501514425,
              35.614838549
            ]
          ]
        ]
      }
    },
    {
      "type": "Feature",
      "properties": {
        "fid": 2240,
        "AreaOnRegistry": "3270",
        "Address": "千葉県横芝光町新島茶畑5081",
        "Tiban": "5081",
        "SectionOfPolygonCodeName": "その他",
        "大字小字": "横芝光町新島茶畑",
        "大字": "新島",
        "面積": 32,
        "㎡面積": 3241.87,
        "name": "エリア #26"
      },
      "geometry": {
        "type": "Polygon",
        "coordinates": [
          [
            [
              140.500337874,
              35.614415678
            ],
            [
              140.500330989,
              35.614411062
            ],
            [
              140.499427797,
              35.61380541
            ],
            [
              140.499412457,
              35.613815359
            ],
            [
              140.49936868,
              35.613819179
            ],
            [
              140.499190548,
              35.613997835
            ],
            [
              140.500136011,
              35.61461877
            ],
            [
              140.500337874,
              35.614415678
            ]
          ]
        ]
      }
    },
    {
      "type": "Feature",
      "properties": {
        "fid": 2354,
        "AreaOnRegistry": "2544",
        "Address": "千葉県横芝光町新島新田5223",
        "Tiban": "5223",
        "SectionOfPolygonCodeName": "その他",
        "大字小字": "横芝光町新島新田",
        "大字": "新島",
        "面積": 26,
        "㎡面積": 2582.43,
        "name": "エリア #27"
      },
      "geometry": {
        "type": "Polygon",
        "coordinates": [
          [
            [
              140.502076267,
              35.621168801
            ],
            [
              140.502096818,
              35.62116308
            ],
            [
              140.502119719,
              35.621164822
            ],
            [
              140.50224198,
              35.621005301
            ],
            [
              140.501223626,
              35.620468086
            ],
            [
              140.501080923,
              35.620646406
            ],
            [
              140.502076267,
              35.621168801
            ]
          ]
        ]
      }
    },
    {
      "type": "Feature",
      "properties": {
        "fid": 2361,
        "AreaOnRegistry": "3270",
        "Address": "千葉県横芝光町新島上人꽳5195",
        "Tiban": "5195",
        "SectionOfPolygonCodeName": "その他",
        "大字小字": "横芝光町新島上人꽳",
        "大字": "新島",
        "面積": 33,
        "㎡面積": 3304.85,
        "name": "エリア #28"
      },
      "geometry": {
        "type": "Polygon",
        "coordinates": [
          [
            [
              140.50111884,
              35.622419703
            ],
            [
              140.500108116,
              35.62188363
            ],
            [
              140.499926846,
              35.62211453
            ],
            [
              140.500914872,
              35.622634622
            ],
            [
              140.500941606,
              35.622624255
            ],
            [
              140.500963161,
              35.622627507
            ],
            [
              140.50111884,
              35.622419703
            ]
          ]
        ]
      }
    },
    {
      "type": "Feature",
      "properties": {
        "fid": 2408,
        "AreaOnRegistry": "2943",
        "Address": "千葉県横芝光町新島荒場5127",
        "Tiban": "5127",
        "SectionOfPolygonCodeName": "その他",
        "大字小字": "横芝光町新島荒場",
        "大字": "新島",
        "面積": 31,
        "㎡面積": 3092.79,
        "name": "エリア #29"
      },
      "geometry": {
        "type": "Polygon",
        "coordinates": [
          [
            [
              140.496352485,
              35.615124382
            ],
            [
              140.49655177,
              35.614924403
            ],
            [
              140.495613857,
              35.614317665
            ],
            [
              140.495588122,
              35.614317807
            ],
            [
              140.495409298,
              35.614503275
            ],
            [
              140.496352485,
              35.615124382
            ]
          ]
        ]
      }
    },
    {
      "type": "Feature",
      "properties": {
        "fid": 2443,
        "AreaOnRegistry": "4344",
        "Address": "千葉県横芝光町新島上人꽳5189",
        "Tiban": "5189",
        "SectionOfPolygonCodeName": "その他",
        "大字小字": "横芝光町新島上人꽳",
        "大字": "新島",
        "面積": 43,
        "㎡面積": 4294.76,
        "name": "エリア #30"
      },
      "geometry": {
        "type": "Polygon",
        "coordinates": [
          [
            [
              140.500029749,
              35.623769267
            ],
            [
              140.49904383,
              35.623253531
            ],
            [
              140.498825664,
              35.623538786
            ],
            [
              140.498810716,
              35.623576243
            ],
            [
              140.49882016,
              35.623611073
            ],
            [
              140.498841706,
              35.623633379
            ],
            [
              140.49925511,
              35.62380551
            ],
            [
              140.499460204,
              35.623881617
            ],
            [
              140.499845588,
              35.623986625
            ],
            [
              140.499909794,
              35.624001219
            ],
            [
              140.500075913,
              35.623793495
            ],
            [
              140.500029749,
              35.623769267
            ]
          ]
        ]
      }
    },
    {
      "type": "Feature",
      "properties": {
        "fid": 2503,
        "AreaOnRegistry": "1703",
        "Address": "千葉県横芝光町新島旧三島後野場1323-1",
        "Tiban": "1323-1",
        "SectionOfPolygonCodeName": "その他",
        "大字小字": "横芝光町新島旧三島後野場",
        "大字": "新島",
        "面積": 17,
        "㎡面積": 1679.42,
        "name": "エリア #31"
      },
      "geometry": {
        "type": "Polygon",
        "coordinates": [
          [
            [
              140.498041885,
              35.620586331
            ],
            [
              140.498044174,
              35.620494129
            ],
            [
              140.498040319,
              35.620396977
            ],
            [
              140.498005805,
              35.620282551
            ],
            [
              140.497986981,
              35.620220364
            ],
            [
              140.497594422,
              35.619983332
            ],
            [
              140.497579186,
              35.619985908
            ],
            [
              140.497489703,
              35.620235564
            ],
            [
              140.497483725,
              35.620250548
            ],
            [
              140.497511373,
              35.62027282
            ],
            [
              140.498041885,
              35.620586331
            ]
          ]
        ]
      }
    },
    {
      "type": "Feature",
      "properties": {
        "fid": 2537,
        "AreaOnRegistry": "3269",
        "Address": "千葉県横芝光町新島荒場5121",
        "Tiban": "5121",
        "SectionOfPolygonCodeName": "その他",
        "大字小字": "横芝光町新島荒場",
        "大字": "新島",
        "面積": 33,
        "㎡面積": 3343.22,
        "name": "エリア #32"
      },
      "geometry": {
        "type": "Polygon",
        "coordinates": [
          [
            [
              140.497934129,
              35.613514126
            ],
            [
              140.498132854,
              35.613314794
            ],
            [
              140.497189569,
              35.612691335
            ],
            [
              140.496996054,
              35.612889886
            ],
            [
              140.496996271,
              35.612916154
            ],
            [
              140.497911682,
              35.613522919
            ],
            [
              140.497934129,
              35.613514126
            ]
          ]
        ]
      }
    },
    {
      "type": "Feature",
      "properties": {
        "fid": 2561,
        "AreaOnRegistry": "3270",
        "Address": "千葉県横芝光町新島荒場5111",
        "Tiban": "5111",
        "SectionOfPolygonCodeName": "その他",
        "大字小字": "横芝光町新島荒場",
        "大字": "新島",
        "面積": 33,
        "㎡面積": 3349.91,
        "name": "エリア #33"
      },
      "geometry": {
        "type": "Polygon",
        "coordinates": [
          [
            [
              140.49910815,
              35.613953097
            ],
            [
              140.499304617,
              35.613743922
            ],
            [
              140.499292319,
              35.613724172
            ],
            [
              140.49838127,
              35.613121451
            ],
            [
              140.498160588,
              35.613337364
            ],
            [
              140.49910815,
              35.613953097
            ]
          ]
        ]
      }
    },
    {
      "type": "Feature",
      "properties": {
        "fid": 2702,
        "AreaOnRegistry": "3270",
        "Address": "千葉県横芝光町新島上人꽳5196",
        "Tiban": "5196",
        "SectionOfPolygonCodeName": "その他",
        "大字小字": "横芝光町新島上人꽳",
        "大字": "新島",
        "面積": 33,
        "㎡面積": 3303.58,
        "name": "エリア #34"
      },
      "geometry": {
        "type": "Polygon",
        "coordinates": [
          [
            [
              140.500286892,
              35.621655906
            ],
            [
              140.500108116,
              35.62188363
            ],
            [
              140.50111884,
              35.622419703
            ],
            [
              140.501276168,
              35.622209698
            ],
            [
              140.501270676,
              35.622194399
            ],
            [
              140.501275858,
              35.622172471
            ],
            [
              140.500286892,
              35.621655906
            ]
          ]
        ]
      }
    },
    {
      "type": "Feature",
      "properties": {
        "fid": 2728,
        "AreaOnRegistry": "3012",
        "Address": "千葉県横芝光町新島一反田5262",
        "Tiban": "5262",
        "SectionOfPolygonCodeName": "その他",
        "大字小字": "横芝光町新島一反田",
        "大字": "新島",
        "面積": 30,
        "㎡面積": 2995.47,
        "name": "エリア #35"
      },
      "geometry": {
        "type": "Polygon",
        "coordinates": [
          [
            [
              140.505237705,
              35.621176258
            ],
            [
              140.506181872,
              35.621671674
            ],
            [
              140.506273163,
              35.621541042
            ],
            [
              140.506327676,
              35.62143136
            ],
            [
              140.505427549,
              35.620954558
            ],
            [
              140.505411366,
              35.620952762
            ],
            [
              140.505237705,
              35.621176258
            ]
          ]
        ]
      }
    },
    {
      "type": "Feature",
      "properties": {
        "fid": 2768,
        "AreaOnRegistry": "922",
        "Address": "千葉県横芝光町北清水三軒뀞前9316",
        "Tiban": "9316",
        "SectionOfPolygonCodeName": "その他",
        "大字小字": "横芝光町北清水三軒뀞前",
        "大字": "北清水",
        "面積": 19,
        "㎡面積": 1885.6,
        "name": "エリア #36"
      },
      "geometry": {
        "type": "Polygon",
        "coordinates": [
          [
            [
              140.505931588,
              35.62382456
            ],
            [
              140.506236487,
              35.6241589
            ],
            [
              140.506310389,
              35.624160211
            ],
            [
              140.506429919,
              35.624089312
            ],
            [
              140.505746227,
              35.62334632
            ],
            [
              140.50558831,
              35.623449623
            ],
            [
              140.505931588,
              35.62382456
            ]
          ]
        ]
      }
    },
    {
      "type": "Feature",
      "properties": {
        "fid": 2857,
        "AreaOnRegistry": "3270",
        "Address": "千葉県横芝光町新島茶畑5053",
        "Tiban": "5053",
        "SectionOfPolygonCodeName": "その他",
        "大字小字": "横芝光町新島茶畑",
        "大字": "新島",
        "面積": 33,
        "㎡面積": 3252.14,
        "name": "エリア #37"
      },
      "geometry": {
        "type": "Polygon",
        "coordinates": [
          [
            [
              140.502514971,
              35.6154969
            ],
            [
              140.50272354,
              35.61528435
            ],
            [
              140.501812503,
              35.614688261
            ],
            [
              140.501767955,
              35.614681903
            ],
            [
              140.501579444,
              35.614874522
            ],
            [
              140.502514971,
              35.6154969
            ]
          ]
        ]
      }
    },
    {
      "type": "Feature",
      "properties": {
        "fid": 2881,
        "AreaOnRegistry": "453",
        "Address": "千葉県横芝光町新島本郷5171-2",
        "Tiban": "5171-2",
        "SectionOfPolygonCodeName": "その他",
        "大字小字": "横芝光町新島本郷",
        "大字": "新島",
        "面積": 36,
        "㎡面積": 3583.42,
        "name": "エリア #38"
      },
      "geometry": {
        "type": "Polygon",
        "coordinates": [
          [
            [
              140.498707359,
              35.619830045
            ],
            [
              140.499733328,
              35.620361347
            ],
            [
              140.499908391,
              35.620139027
            ],
            [
              140.499896,
              35.620099691
            ],
            [
              140.498902406,
              35.619581114
            ],
            [
              140.498707359,
              35.619830045
            ]
          ]
        ]
      }
    },
    {
      "type": "Feature",
      "properties": {
        "fid": 3038,
        "AreaOnRegistry": "3270",
        "Address": "千葉県横芝光町新島荒場5119",
        "Tiban": "5119",
        "SectionOfPolygonCodeName": "その他",
        "大字小字": "横芝光町新島荒場",
        "大字": "新島",
        "面積": 33,
        "㎡面積": 3329.09,
        "name": "エリア #39"
      },
      "geometry": {
        "type": "Polygon",
        "coordinates": [
          [
            [
              140.498342192,
              35.613104816
            ],
            [
              140.498553096,
              35.612893265
            ],
            [
              140.49761038,
              35.612265718
            ],
            [
              140.497401805,
              35.61247826
            ],
            [
              140.498342192,
              35.613104816
            ]
          ]
        ]
      }
    },
    {
      "type": "Feature",
      "properties": {
        "fid": 3049,
        "AreaOnRegistry": "1033",
        "Address": "千葉県横芝光町新島山王5146-1",
        "Tiban": "5146-1",
        "SectionOfPolygonCodeName": "その他",
        "大字小字": "横芝光町新島山王",
        "大字": "新島",
        "面積": 11,
        "㎡面積": 1054.14,
        "name": "エリア #40"
      },
      "geometry": {
        "type": "Polygon",
        "coordinates": [
          [
            [
              140.496165996,
              35.610974466
            ],
            [
              140.496577732,
              35.610547214
            ],
            [
              140.496439364,
              35.610444482
            ],
            [
              140.49641781,
              35.610446802
            ],
            [
              140.496254839,
              35.610630465
            ],
            [
              140.496022306,
              35.610880571
            ],
            [
              140.496165996,
              35.610974466
            ]
          ]
        ]
      }
    },
    {
      "type": "Feature",
      "properties": {
        "fid": 3137,
        "AreaOnRegistry": "494",
        "Address": "千葉県山武市松尾町武野里旧中里辻野69-1",
        "Tiban": "69-1",
        "SectionOfPolygonCodeName": "農業委員会管理のポリゴン",
        "大字小字": "山武市松尾町武野里旧中里辻野",
        "大字": "武野里",
        "面積": 5,
        "㎡面積": 540.03,
        "name": "エリア #41"
      },
      "geometry": {
        "type": "Polygon",
        "coordinates": [
          [
            [
              140.499929367,
              35.624493614
            ],
            [
              140.499859199,
              35.624428822
            ],
            [
              140.499467265,
              35.624705467
            ],
            [
              140.49954104,
              35.624769842
            ],
            [
              140.499574525,
              35.62475969
            ],
            [
              140.499948227,
              35.624513198
            ],
            [
              140.499929367,
              35.624493614
            ]
          ]
        ]
      }
    },
    {
      "type": "Feature",
      "properties": {
        "fid": 3320,
        "AreaOnRegistry": "1476",
        "Address": "千葉県横芝光町新島新田前5017-2",
        "Tiban": "5017-2",
        "SectionOfPolygonCodeName": "その他",
        "大字小字": "横芝光町新島新田前",
        "大字": "新島",
        "面積": 48,
        "㎡面積": 4779.9,
        "name": "エリア #42"
      },
      "geometry": {
        "type": "Polygon",
        "coordinates": [
          [
            [
              140.506672565,
              35.617885658
            ],
            [
              140.506977431,
              35.617580078
            ],
            [
              140.506025638,
              35.616954523
            ],
            [
              140.505726072,
              35.617249061
            ],
            [
              140.506672565,
              35.617885658
            ]
          ]
        ]
      }
    },
    {
      "type": "Feature",
      "properties": {
        "fid": 3487,
        "AreaOnRegistry": "3270",
        "Address": "千葉県横芝光町新島一反田5248",
        "Tiban": "5248",
        "SectionOfPolygonCodeName": "その他",
        "大字小字": "横芝光町新島一反田",
        "大字": "新島",
        "面積": 34,
        "㎡面積": 3419.77,
        "name": "エリア #43"
      },
      "geometry": {
        "type": "Polygon",
        "coordinates": [
          [
            [
              140.50413395,
              35.620612665
            ],
            [
              140.505096667,
              35.621118359
            ],
            [
              140.505177343,
              35.62109905
            ],
            [
              140.505312152,
              35.620924803
            ],
            [
              140.505300368,
              35.620896581
            ],
            [
              140.505170405,
              35.620821874
            ],
            [
              140.504318972,
              35.620366478
            ],
            [
              140.50413395,
              35.620612665
            ]
          ]
        ]
      }
    },
    {
      "type": "Feature",
      "properties": {
        "fid": 3608,
        "AreaOnRegistry": "846",
        "Address": "千葉県横芝光町新島上人꽳5180-1",
        "Tiban": "5180-1",
        "SectionOfPolygonCodeName": "その他",
        "大字小字": "横芝光町新島上人꽳",
        "大字": "新島",
        "面積": 21,
        "㎡面積": 2125.76,
        "name": "エリア #44"
      },
      "geometry": {
        "type": "Polygon",
        "coordinates": [
          [
            [
              140.499307168,
              35.620913787
            ],
            [
              140.498301904,
              35.620388622
            ],
            [
              140.498286729,
              35.620398672
            ],
            [
              140.49828708,
              35.620441028
            ],
            [
              140.498345809,
              35.620619501
            ],
            [
              140.498347329,
              35.620639426
            ],
            [
              140.498372008,
              35.620651531
            ],
            [
              140.499128248,
              35.621049325
            ],
            [
              140.499164845,
              35.621046631
            ],
            [
              140.499198494,
              35.621056412
            ],
            [
              140.499307168,
              35.620913787
            ]
          ]
        ]
      }
    },
    {
      "type": "Feature",
      "properties": {
        "fid": 3646,
        "AreaOnRegistry": "3270",
        "Address": "千葉県横芝光町新島荒場5110",
        "Tiban": "5110",
        "SectionOfPolygonCodeName": "その他",
        "大字小字": "横芝光町新島荒場",
        "大字": "新島",
        "面積": 33,
        "㎡面積": 3286.39,
        "name": "エリア #45"
      },
      "geometry": {
        "type": "Polygon",
        "coordinates": [
          [
            [
              140.497967999,
              35.613526698
            ],
            [
              140.49798426,
              35.613536517
            ],
            [
              140.497984533,
              35.613569546
            ],
            [
              140.498618928,
              35.61397892
            ],
            [
              140.498883259,
              35.614149216
            ],
            [
              140.498915672,
              35.614155644
            ],
            [
              140.49910815,
              35.613953097
            ],
            [
              140.498160588,
              35.613337364
            ],
            [
              140.497967999,
              35.613526698
            ]
          ]
        ]
      }
    },
    {
      "type": "Feature",
      "properties": {
        "fid": 3647,
        "AreaOnRegistry": "3270",
        "Address": "千葉県横芝光町新島新田5221",
        "Tiban": "5221",
        "SectionOfPolygonCodeName": "その他",
        "大字小字": "横芝光町新島新田",
        "大字": "新島",
        "面積": 34,
        "㎡面積": 3432.27,
        "name": "エリア #46"
      },
      "geometry": {
        "type": "Polygon",
        "coordinates": [
          [
            [
              140.502397899,
              35.620765239
            ],
            [
              140.502411569,
              35.620757687
            ],
            [
              140.502436758,
              35.620759417
            ],
            [
              140.502606563,
              35.620537964
            ],
            [
              140.502041096,
              35.620243041
            ],
            [
              140.501576787,
              35.620002683
            ],
            [
              140.501400238,
              35.620239122
            ],
            [
              140.502397899,
              35.620765239
            ]
          ]
        ]
      }
    },
    {
      "type": "Feature",
      "properties": {
        "fid": 3652,
        "AreaOnRegistry": "1708",
        "Address": "千葉県横芝光町新島一反田5258-2",
        "Tiban": "5258-2",
        "SectionOfPolygonCodeName": "その他",
        "大字小字": "横芝光町新島一反田",
        "大字": "新島",
        "面積": 35,
        "㎡面積": 3524.02,
        "name": "エリア #47"
      },
      "geometry": {
        "type": "Polygon",
        "coordinates": [
          [
            [
              140.504416205,
              35.62221321
            ],
            [
              140.504562392,
              35.62229443
            ],
            [
              140.50525825,
              35.622648385
            ],
            [
              140.505389257,
              35.622571278
            ],
            [
              140.505513445,
              35.622470424
            ],
            [
              140.505541691,
              35.622407597
            ],
            [
              140.504680853,
              35.621959979
            ],
            [
              140.504625259,
              35.621940488
            ],
            [
              140.504416205,
              35.62221321
            ]
          ]
        ]
      }
    },
    {
      "type": "Feature",
      "properties": {
        "fid": 3653,
        "AreaOnRegistry": "3143",
        "Address": "千葉県横芝光町新島上人꽳5182-1",
        "Tiban": "5182-1",
        "SectionOfPolygonCodeName": "その他",
        "大字小字": "横芝光町新島上人꽳",
        "大字": "新島",
        "面積": 30,
        "㎡面積": 3027.61,
        "name": "エリア #48"
      },
      "geometry": {
        "type": "Polygon",
        "coordinates": [
          [
            [
              140.499416263,
              35.620879618
            ],
            [
              140.500413943,
              35.621408554
            ],
            [
              140.500579224,
              35.621192734
            ],
            [
              140.499629808,
              35.620687827
            ],
            [
              140.499568094,
              35.620697512
            ],
            [
              140.499416263,
              35.620879618
            ]
          ]
        ]
      }
    },
    {
      "type": "Feature",
      "properties": {
        "fid": 3654,
        "AreaOnRegistry": "1419",
        "Address": "千葉県横芝光町新島茶畑5042-1",
        "Tiban": "5042-1",
        "SectionOfPolygonCodeName": "その他",
        "大字小字": null,
        "大字": null,
        "面積": 14,
        "㎡面積": 1383.21,
        "name": "エリア #49"
      },
      "geometry": {
        "type": "Polygon",
        "coordinates": [
          [
            [
              140.501993014,
              35.617660571
            ],
            [
              140.502075876,
              35.617572031
            ],
            [
              140.502056927,
              35.617563328
            ],
            [
              140.50206221,
              35.617550086
            ],
            [
              140.50114031,
              35.616947448
            ],
            [
              140.501060107,
              35.617031569
            ],
            [
              140.501993014,
              35.617660571
            ]
          ]
        ]
      }
    },
    {
      "type": "Feature",
      "properties": {
        "fid": 3656,
        "AreaOnRegistry": "1094",
        "Address": "千葉県横芝光町北清水一本松9292",
        "Tiban": "9292",
        "SectionOfPolygonCodeName": "その他",
        "大字小字": null,
        "大字": null,
        "面積": 11,
        "㎡面積": 1061.94,
        "name": "エリア #50"
      },
      "geometry": {
        "type": "Polygon",
        "coordinates": [
          [
            [
              140.508003087,
              35.623217176
            ],
            [
              140.507998648,
              35.623238573
            ],
            [
              140.508018823,
              35.623257318
            ],
            [
              140.508427083,
              35.623466243
            ],
            [
              140.508454819,
              35.623468602
            ],
            [
              140.50848556,
              35.623462144
            ],
            [
              140.508557579,
              35.623420252
            ],
            [
              140.5085605,
              35.623401378
            ],
            [
              140.50828073,
              35.623091157
            ],
            [
              140.508259216,
              35.623096306
            ],
            [
              140.508231406,
              35.623085146
            ],
            [
              140.508203702,
              35.623086559
            ],
            [
              140.508003087,
              35.623217176
            ]
          ]
        ]
      }
    }
  ],
  "meta": {
    "displayName": "こし",
    "color": "#33e6aa",
    "opacity": 0.55,
    "visible": true
  }
}