{
  "type": "FeatureCollection",
  "features": [
    {
      "type": "Feature",
      "properties": {
        "fid": 20,
        "AreaOnRegistry": "3161",
        "Address": "千葉県横芝光町新島荒場5100",
        "Tiban": "5100",
        "SectionOfPolygonCodeName": "その他",
        "大字小字": "横芝光町新島荒場",
        "大字": "新島",
        "面積": 33,
        "㎡面積": 3296.68,
        "name": "エリア #1"
      },
      "geometry": {
        "type": "Polygon",
        "coordinates": [
          [
            [
              140.49576823,
              35.615782453
            ],
            [
              140.496251268,
              35.616095658
            ],
            [
              140.496663493,
              35.616364813
            ],
            [
              140.496758219,
              35.616289322
            ],
            [
              140.496916498,
              35.616189361
            ],
            [
              140.49690287,
              35.616171819
            ],
            [
              140.496005311,
              35.615571209
            ],
            [
              140.495978255,
              35.615560348
            ],
            [
              140.49576823,
              35.615782453
            ]
          ]
        ]
      }
    },
    {
      "type": "Feature",
      "properties": {
        "fid": 101,
        "AreaOnRegistry": "1020",
        "Address": "千葉県山武市松尾町武野里旧中里辻野61",
        "Tiban": "61",
        "SectionOfPolygonCodeName": "農業委員会管理のポリゴン",
        "大字小字": "山武市松尾町武野里旧中里辻野",
        "大字": "武野里",
        "面積": 10,
        "㎡面積": 995.26,
        "name": "エリア #2"
      },
      "geometry": {
        "type": "Polygon",
        "coordinates": [
          [
            [
              140.500791868,
              35.62482386
            ],
            [
              140.50101543,
              35.625041637
            ],
            [
              140.501067282,
              35.625041349
            ],
            [
              140.501258699,
              35.62483736
            ],
            [
              140.501063956,
              35.624641352
            ],
            [
              140.500791868,
              35.62482386
            ]
          ]
        ]
      }
    },
    {
      "type": "Feature",
      "properties": {
        "fid": 200,
        "AreaOnRegistry": "725",
        "Address": "千葉県横芝光町新島一反田5276-2",
        "Tiban": "5276-2",
        "SectionOfPolygonCodeName": "その他",
        "大字小字": "横芝光町新島一反田",
        "大字": "新島",
        "面積": 25,
        "㎡面積": 2542.48,
        "name": "エリア #3"
      },
      "geometry": {
        "type": "Polygon",
        "coordinates": [
          [
            [
              140.506253539,
              35.621706871
            ],
            [
              140.506057463,
              35.622011583
            ],
            [
              140.506444594,
              35.622181031
            ],
            [
              140.506474681,
              35.622188405
            ],
            [
              140.50655542,
              35.62217664
            ],
            [
              140.506767583,
              35.622137738
            ],
            [
              140.507025951,
              35.622100462
            ],
            [
              140.50707665,
              35.622086978
            ],
            [
              140.507094609,
              35.622061122
            ],
            [
              140.506253539,
              35.621706871
            ]
          ]
        ]
      }
    },
    {
      "type": "Feature",
      "properties": {
        "fid": 206,
        "AreaOnRegistry": "3200",
        "Address": "千葉県横芝光町新島茶畑5059-1",
        "Tiban": "5059-1",
        "SectionOfPolygonCodeName": "その他",
        "大字小字": "横芝光町新島茶畑",
        "大字": "新島",
        "面積": 34,
        "㎡面積": 3449.26,
        "name": "エリア #4"
      },
      "geometry": {
        "type": "Polygon",
        "coordinates": [
          [
            [
              140.501226871,
              35.616809793
            ],
            [
              140.501448875,
              35.616590565
            ],
            [
              140.501432586,
              35.616577442
            ],
            [
              140.500516076,
              35.615972567
            ],
            [
              140.500291357,
              35.616189607
            ],
            [
              140.501226871,
              35.616809793
            ]
          ]
        ]
      }
    },
    {
      "type": "Feature",
      "properties": {
        "fid": 296,
        "AreaOnRegistry": "2116",
        "Address": "千葉県横芝光町新島上人꽳5186-1",
        "Tiban": "5186-1",
        "SectionOfPolygonCodeName": "その他",
        "大字小字": "横芝光町新島上人꽳",
        "大字": "新島",
        "面積": 12,
        "㎡面積": 1193.76,
        "name": "エリア #5"
      },
      "geometry": {
        "type": "Polygon",
        "coordinates": [
          [
            [
              140.499911482,
              35.622086879
            ],
            [
              140.49941955,
              35.621827979
            ],
            [
              140.499366696,
              35.621802109
            ],
            [
              140.499339232,
              35.62180226
            ],
            [
              140.499293894,
              35.621854835
            ],
            [
              140.499275942,
              35.621897915
            ],
            [
              140.499274211,
              35.621965199
            ],
            [
              140.499798323,
              35.622240741
            ],
            [
              140.499911482,
              35.622086879
            ]
          ]
        ]
      }
    },
    {
      "type": "Feature",
      "properties": {
        "fid": 335,
        "AreaOnRegistry": "4005",
        "Address": "千葉県横芝光町新島荒場5104",
        "Tiban": "5104",
        "SectionOfPolygonCodeName": "その他",
        "大字小字": "横芝光町新島荒場",
        "大字": "新島",
        "面積": 40,
        "㎡面積": 4001.82,
        "name": "エリア #6"
      },
      "geometry": {
        "type": "Polygon",
        "coordinates": [
          [
            [
              140.497828305,
              35.615250686
            ],
            [
              140.4968848,
              35.614637124
            ],
            [
              140.496660238,
              35.614873975
            ],
            [
              140.496644223,
              35.614893881
            ],
            [
              140.496679496,
              35.614920111
            ],
            [
              140.497357394,
              35.615372191
            ],
            [
              140.49754985,
              35.61549224
            ],
            [
              140.497574064,
              35.615485501
            ],
            [
              140.497603763,
              35.615489741
            ],
            [
              140.497828305,
              35.615250686
            ]
          ]
        ]
      }
    },
    {
      "type": "Feature",
      "properties": {
        "fid": 391,
        "AreaOnRegistry": "2209",
        "Address": "千葉県横芝光町新島上人꽳5185-1",
        "Tiban": "5185-1",
        "SectionOfPolygonCodeName": "その他",
        "大字小字": "横芝光町新島上人꽳",
        "大字": "新島",
        "面積": 19,
        "㎡面積": 1880.19,
        "name": "エリア #7"
      },
      "geometry": {
        "type": "Polygon",
        "coordinates": [
          [
            [
              140.500119777,
              35.621813827
            ],
            [
              140.4996136,
              35.621556316
            ],
            [
              140.499496541,
              35.62172851
            ],
            [
              140.49941955,
              35.621827979
            ],
            [
              140.499911482,
              35.622086879
            ],
            [
              140.500119777,
              35.621813827
            ]
          ]
        ]
      }
    },
    {
      "type": "Feature",
      "properties": {
        "fid": 402,
        "AreaOnRegistry": "3270",
        "Address": "千葉県横芝光町新島茶畑5061(１)",
        "Tiban": "5061(１)",
        "SectionOfPolygonCodeName": "その他",
        "大字小字": "横芝光町新島茶畑",
        "大字": "新島",
        "面積": 8,
        "㎡面積": 838.94,
        "name": "エリア #8"
      },
      "geometry": {
        "type": "Polygon",
        "coordinates": [
          [
            [
              140.499986452,
              35.616492969
            ],
            [
              140.500496242,
              35.616831457
            ],
            [
              140.500592478,
              35.616729632
            ],
            [
              140.500090832,
              35.616397705
            ],
            [
              140.499986452,
              35.616492969
            ]
          ]
        ]
      }
    },
    {
      "type": "Feature",
      "properties": {
        "fid": 449,
        "AreaOnRegistry": "437",
        "Address": "千葉県横芝光町新島上人꽳5206-1",
        "Tiban": "5206-1",
        "SectionOfPolygonCodeName": "その他",
        "大字小字": "横芝光町新島上人꽳",
        "大字": "新島",
        "面積": 4,
        "㎡面積": 422.64,
        "name": "エリア #9"
      },
      "geometry": {
        "type": "Polygon",
        "coordinates": [
          [
            [
              140.501100262,
              35.624027322
            ],
            [
              140.500550366,
              35.623747021
            ],
            [
              140.500774599,
              35.623999458
            ],
            [
              140.500806874,
              35.624010229
            ],
            [
              140.500820448,
              35.624029863
            ],
            [
              140.501100262,
              35.624027322
            ]
          ]
        ]
      }
    },
    {
      "type": "Feature",
      "properties": {
        "fid": 452,
        "AreaOnRegistry": "1562",
        "Address": "千葉県山武市松尾町武野里旧中里辻野60",
        "Tiban": "60",
        "SectionOfPolygonCodeName": "農業委員会管理のポリゴン",
        "大字小字": "山武市松尾町武野里旧中里辻野",
        "大字": "武野里",
        "面積": 15,
        "㎡面積": 1490.85,
        "name": "エリア #10"
      },
      "geometry": {
        "type": "Polygon",
        "coordinates": [
          [
            [
              140.500816056,
              35.625363921
            ],
            [
              140.500833572,
              35.625320027
            ],
            [
              140.500870695,
              35.625268725
            ],
            [
              140.500953809,
              35.625157311
            ],
            [
              140.501017655,
              35.625094181
            ],
            [
              140.50101543,
              35.625041637
            ],
            [
              140.500791868,
              35.62482386
            ],
            [
              140.500473604,
              35.625037339
            ],
            [
              140.500816056,
              35.625363921
            ]
          ]
        ]
      }
    },
    {
      "type": "Feature",
      "properties": {
        "fid": 487,
        "AreaOnRegistry": "907",
        "Address": "千葉県横芝光町新島荒場5130-3",
        "Tiban": "5130-3",
        "SectionOfPolygonCodeName": "その他",
        "大字小字": "横芝光町新島荒場",
        "大字": "新島",
        "面積": 41,
        "㎡面積": 4065.78,
        "name": "エリア #11"
      },
      "geometry": {
        "type": "Polygon",
        "coordinates": [
          [
            [
              140.495527825,
              35.61597914
            ],
            [
              140.495941878,
              35.615541808
            ],
            [
              140.495375325,
              35.615172976
            ],
            [
              140.494948821,
              35.615596689
            ],
            [
              140.495527825,
              35.61597914
            ]
          ]
        ]
      }
    },
    {
      "type": "Feature",
      "properties": {
        "fid": 523,
        "AreaOnRegistry": "3270",
        "Address": "千葉県横芝光町新島新田5228",
        "Tiban": "5228",
        "SectionOfPolygonCodeName": "その他",
        "大字小字": "横芝光町新島新田",
        "大字": "新島",
        "面積": 32,
        "㎡面積": 3241.57,
        "name": "エリア #12"
      },
      "geometry": {
        "type": "Polygon",
        "coordinates": [
          [
            [
              140.500999087,
              35.620681639
            ],
            [
              140.501184885,
              35.620456361
            ],
            [
              140.500184963,
              35.619932116
            ],
            [
              140.500166647,
              35.619931283
            ],
            [
              140.500010474,
              35.620141445
            ],
            [
              140.500012918,
              35.620160119
            ],
            [
              140.500999087,
              35.620681639
            ]
          ]
        ]
      }
    },
    {
      "type": "Feature",
      "properties": {
        "fid": 560,
        "AreaOnRegistry": "3223",
        "Address": "千葉県山武市松尾町武野里旧中里辻野59-1",
        "Tiban": "59-1",
        "SectionOfPolygonCodeName": "農業委員会管理のポリゴン",
        "大字小字": "山武市松尾町武野里旧中里辻野",
        "大字": "武野里",
        "面積": 22,
        "㎡面積": 2204.44,
        "name": "エリア #13"
      },
      "geometry": {
        "type": "Polygon",
        "coordinates": [
          [
            [
              140.500738056,
              35.625510057
            ],
            [
              140.500337623,
              35.625130081
            ],
            [
              140.500117193,
              35.625287196
            ],
            [
              140.500101962,
              35.625307395
            ],
            [
              140.50011759,
              35.625334968
            ],
            [
              140.500185986,
              35.625412536
            ],
            [
              140.500670257,
              35.625875024
            ],
            [
              140.500691625,
              35.625852276
            ],
            [
              140.500718672,
              35.625771664
            ],
            [
              140.500748151,
              35.625613092
            ],
            [
              140.500750604,
              35.625537645
            ],
            [
              140.500738056,
              35.625510057
            ]
          ]
        ]
      }
    },
    {
      "type": "Feature",
      "properties": {
        "fid": 618,
        "AreaOnRegistry": "3270",
        "Address": "千葉県横芝光町新島茶畑5061(２)",
        "Tiban": "5061(２)",
        "SectionOfPolygonCodeName": "その他",
        "大字小字": "横芝光町新島茶畑",
        "大字": "新島",
        "面積": 25,
        "㎡面積": 2515.72,
        "name": "エリア #14"
      },
      "geometry": {
        "type": "Polygon",
        "coordinates": [
          [
            [
              140.499866711,
              35.616606357
            ],
            [
              140.500198959,
              35.616816224
            ],
            [
              140.500811804,
              35.617235477
            ],
            [
              140.501029008,
              35.617013474
            ],
            [
              140.500592478,
              35.616729632
            ],
            [
              140.500496242,
              35.616831457
            ],
            [
              140.499986452,
              35.616492969
            ],
            [
              140.499866711,
              35.616606357
            ]
          ]
        ]
      }
    },
    {
      "type": "Feature",
      "properties": {
        "fid": 630,
        "AreaOnRegistry": "2581",
        "Address": "千葉県横芝光町新島道貫4992-1",
        "Tiban": "4992-1",
        "SectionOfPolygonCodeName": "その他",
        "大字小字": "横芝光町新島道貫",
        "大字": "新島",
        "面積": 41,
        "㎡面積": 4132.26,
        "name": "エリア #15"
      },
      "geometry": {
        "type": "Polygon",
        "coordinates": [
          [
            [
              140.509422794,
              35.616573223
            ],
            [
              140.509377002,
              35.616649573
            ],
            [
              140.50923968,
              35.616973526
            ],
            [
              140.509192035,
              35.617100581
            ],
            [
              140.509148781,
              35.617155479
            ],
            [
              140.509371278,
              35.617305049
            ],
            [
              140.509383972,
              35.617310695
            ],
            [
              140.509485369,
              35.617355787
            ],
            [
              140.50961163,
              35.617164483
            ],
            [
              140.509625823,
              35.617162746
            ],
            [
              140.509803365,
              35.617237779
            ],
            [
              140.510065972,
              35.616850475
            ],
            [
              140.510083526,
              35.616825899
            ],
            [
              140.510009283,
              35.616788587
            ],
            [
              140.50994305,
              35.616763838
            ],
            [
              140.50982475,
              35.616709555
            ],
            [
              140.509829816,
              35.616701868
            ],
            [
              140.509422794,
              35.616573223
            ]
          ]
        ]
      }
    },
    {
      "type": "Feature",
      "properties": {
        "fid": 670,
        "AreaOnRegistry": "2261",
        "Address": "千葉県横芝光町新島荒場5092",
        "Tiban": "5092",
        "SectionOfPolygonCodeName": "その他",
        "大字小字": "横芝光町新島荒場",
        "大字": "新島",
        "面積": 23,
        "㎡面積": 2264.55,
        "name": "エリア #16"
      },
      "geometry": {
        "type": "Polygon",
        "coordinates": [
          [
            [
              140.497910857,
              35.616487649
            ],
            [
              140.497914683,
              35.616431587
            ],
            [
              140.49799178,
              35.616193904
            ],
            [
              140.497379695,
              35.615797421
            ],
            [
              140.497180895,
              35.616006744
            ],
            [
              140.497702685,
              35.616341864
            ],
            [
              140.497910857,
              35.616487649
            ]
          ]
        ]
      }
    },
    {
      "type": "Feature",
      "properties": {
        "fid": 731,
        "AreaOnRegistry": "12",
        "Address": "千葉県横芝光町新島道貫4992-2",
        "Tiban": "4992-2",
        "SectionOfPolygonCodeName": "その他",
        "大字小字": "横芝光町新島道貫",
        "大字": "新島",
        "面積": 15,
        "㎡面積": 1477.9,
        "name": "エリア #17"
      },
      "geometry": {
        "type": "Polygon",
        "coordinates": [
          [
            [
              140.509148781,
              35.617155479
            ],
            [
              140.50878334,
              35.617517688
            ],
            [
              140.508772979,
              35.617568393
            ],
            [
              140.508944644,
              35.617680591
            ],
            [
              140.508989887,
              35.61771016
            ],
            [
              140.509054191,
              35.61762487
            ],
            [
              140.50908522,
              35.617561885
            ],
            [
              140.509149541,
              35.617486944
            ],
            [
              140.509212124,
              35.617446817
            ],
            [
              140.509326908,
              35.617386762
            ],
            [
              140.509331863,
              35.617383859
            ],
            [
              140.509383972,
              35.617310695
            ],
            [
              140.509371278,
              35.617305049
            ],
            [
              140.509148781,
              35.617155479
            ]
          ]
        ]
      }
    },
    {
      "type": "Feature",
      "properties": {
        "fid": 838,
        "AreaOnRegistry": "3270",
        "Address": "千葉県横芝光町新島上人꽳5183",
        "Tiban": "5183",
        "SectionOfPolygonCodeName": "その他",
        "大字小字": "横芝光町新島上人꽳",
        "大字": "新島",
        "面積": 32,
        "㎡面積": 3186.81,
        "name": "エリア #18"
      },
      "geometry": {
        "type": "Polygon",
        "coordinates": [
          [
            [
              140.499244152,
              35.621100145
            ],
            [
              140.500241918,
              35.621639359
            ],
            [
              140.500413943,
              35.621408554
            ],
            [
              140.499416263,
              35.620879618
            ],
            [
              140.499244152,
              35.621100145
            ]
          ]
        ]
      }
    },
    {
      "type": "Feature",
      "properties": {
        "fid": 855,
        "AreaOnRegistry": "2085",
        "Address": "千葉県横芝光町新島新田前5032-1",
        "Tiban": "5032-1",
        "SectionOfPolygonCodeName": "その他",
        "大字小字": "横芝光町新島新田前",
        "大字": "新島",
        "面積": 34,
        "㎡面積": 3396.71,
        "name": "エリア #19"
      },
      "geometry": {
        "type": "Polygon",
        "coordinates": [
          [
            [
              140.504896072,
              35.616373889
            ],
            [
              140.505108571,
              35.6161481
            ],
            [
              140.505096298,
              35.616131654
            ],
            [
              140.504233964,
              35.615558433
            ],
            [
              140.504185427,
              35.615558704
            ],
            [
              140.503980768,
              35.61575472
            ],
            [
              140.504896072,
              35.616373889
            ]
          ]
        ]
      }
    },
    {
      "type": "Feature",
      "properties": {
        "fid": 864,
        "AreaOnRegistry": "330",
        "Address": "千葉県横芝光町新島茶畑5063-7",
        "Tiban": "5063-7",
        "SectionOfPolygonCodeName": "その他",
        "大字小字": "横芝光町新島茶畑",
        "大字": "新島",
        "面積": 22,
        "㎡面積": 2190.82,
        "name": "エリア #20"
      },
      "geometry": {
        "type": "Polygon",
        "coordinates": [
          [
            [
              140.499769431,
              35.617378292
            ],
            [
              140.500027223,
              35.617110615
            ],
            [
              140.49962966,
              35.616840096
            ],
            [
              140.499592522,
              35.616876714
            ],
            [
              140.499412995,
              35.617067623
            ],
            [
              140.499259871,
              35.61722414
            ],
            [
              140.499252349,
              35.617236635
            ],
            [
              140.499531322,
              35.617312927
            ],
            [
              140.499769431,
              35.617378292
            ]
          ]
        ]
      }
    },
    {
      "type": "Feature",
      "properties": {
        "fid": 973,
        "AreaOnRegistry": "2004",
        "Address": "千葉県横芝光町新島本郷5167",
        "Tiban": "5167",
        "SectionOfPolygonCodeName": "その他",
        "大字小字": "横芝光町新島本郷",
        "大字": "新島",
        "面積": 28,
        "㎡面積": 2820.75,
        "name": "エリア #21"
      },
      "geometry": {
        "type": "Polygon",
        "coordinates": [
          [
            [
              140.499533049,
              35.619595867
            ],
            [
              140.500109125,
              35.619897581
            ],
            [
              140.500378578,
              35.619549729
            ],
            [
              140.499803227,
              35.619250488
            ],
            [
              140.499533049,
              35.619595867
            ]
          ]
        ]
      }
    },
    {
      "type": "Feature",
      "properties": {
        "fid": 1137,
        "AreaOnRegistry": "2594",
        "Address": "千葉県横芝光町新島一反田5274",
        "Tiban": "5274",
        "SectionOfPolygonCodeName": "その他",
        "大字小字": "横芝光町新島一反田",
        "大字": "新島",
        "面積": 26,
        "㎡面積": 2595.06,
        "name": "エリア #22"
      },
      "geometry": {
        "type": "Polygon",
        "coordinates": [
          [
            [
              140.507414119,
              35.621842763
            ],
            [
              140.507599671,
              35.621660686
            ],
            [
              140.506584477,
              35.62123451
            ],
            [
              140.506543048,
              35.621251714
            ],
            [
              140.50644755,
              35.6214314
            ],
            [
              140.507414119,
              35.621842763
            ]
          ]
        ]
      }
    },
    {
      "type": "Feature",
      "properties": {
        "fid": 1315,
        "AreaOnRegistry": "900",
        "Address": "千葉県横芝光町新島道貫4991-2",
        "Tiban": "4991-2",
        "SectionOfPolygonCodeName": "その他",
        "大字小字": "横芝光町新島道貫",
        "大字": "新島",
        "面積": 19,
        "㎡面積": 1936.36,
        "name": "エリア #23"
      },
      "geometry": {
        "type": "Polygon",
        "coordinates": [
          [
            [
              140.509422794,
              35.616573223
            ],
            [
              140.509829816,
              35.616701868
            ],
            [
              140.509955081,
              35.616604065
            ],
            [
              140.509963879,
              35.61656424
            ],
            [
              140.509969507,
              35.616509515
            ],
            [
              140.509963167,
              35.616479719
            ],
            [
              140.509978242,
              35.616462232
            ],
            [
              140.510163151,
              35.616381321
            ],
            [
              140.509628807,
              35.616202049
            ],
            [
              140.509503235,
              35.616454955
            ],
            [
              140.509437137,
              35.616559738
            ],
            [
              140.509422794,
              35.616573223
            ]
          ]
        ]
      }
    },
    {
      "type": "Feature",
      "properties": {
        "fid": 1404,
        "AreaOnRegistry": "1274",
        "Address": "千葉県横芝光町新島上人꽳5201-3",
        "Tiban": "5201-3",
        "SectionOfPolygonCodeName": "その他",
        "大字小字": "横芝光町新島上人꽳",
        "大字": "新島",
        "面積": 32,
        "㎡面積": 3151.23,
        "name": "エリア #24"
      },
      "geometry": {
        "type": "Polygon",
        "coordinates": [
          [
            [
              140.502032709,
              35.623202032
            ],
            [
              140.502199616,
              35.622985377
            ],
            [
              140.501181554,
              35.622448352
            ],
            [
              140.501013426,
              35.622671714
            ],
            [
              140.501040616,
              35.62268586
            ],
            [
              140.502032709,
              35.623202032
            ]
          ]
        ]
      }
    },
    {
      "type": "Feature",
      "properties": {
        "fid": 1434,
        "AreaOnRegistry": "1576",
        "Address": "千葉県横芝光町新島上人꽳5204-1",
        "Tiban": "5204-1",
        "SectionOfPolygonCodeName": "その他",
        "大字小字": "横芝光町新島上人꽳",
        "大字": "新島",
        "面積": 48,
        "㎡面積": 4790.86,
        "name": "エリア #25"
      },
      "geometry": {
        "type": "Polygon",
        "coordinates": [
          [
            [
              140.501589004,
              35.623777158
            ],
            [
              140.501848928,
              35.623443562
            ],
            [
              140.500849556,
              35.622923535
            ],
            [
              140.500825619,
              35.622947757
            ],
            [
              140.50080139,
              35.622936942
            ],
            [
              140.500570591,
              35.623242611
            ],
            [
              140.500591561,
              35.623253503
            ],
            [
              140.501589004,
              35.623777158
            ]
          ]
        ]
      }
    },
    {
      "type": "Feature",
      "properties": {
        "fid": 1830,
        "AreaOnRegistry": "2636",
        "Address": "千葉県横芝光町新島荒場5133-2",
        "Tiban": "5133-2",
        "SectionOfPolygonCodeName": "その他",
        "大字小字": "横芝光町新島荒場",
        "大字": "新島",
        "面積": 33,
        "㎡面積": 3326.01,
        "name": "エリア #26"
      },
      "geometry": {
        "type": "Polygon",
        "coordinates": [
          [
            [
              140.495142517,
              35.614679207
            ],
            [
              140.495350718,
              35.614473101
            ],
            [
              140.494419075,
              35.613851981
            ],
            [
              140.494174006,
              35.61404229
            ],
            [
              140.495142517,
              35.614679207
            ]
          ]
        ]
      }
    },
    {
      "type": "Feature",
      "properties": {
        "fid": 1837,
        "AreaOnRegistry": "1534",
        "Address": "千葉県横芝光町新島山王5155-1",
        "Tiban": "5155-1",
        "SectionOfPolygonCodeName": "その他",
        "大字小字": "横芝光町新島山王",
        "大字": "新島",
        "面積": 17,
        "㎡面積": 1705.1,
        "name": "エリア #27"
      },
      "geometry": {
        "type": "Polygon",
        "coordinates": [
          [
            [
              140.494963724,
              35.613170073
            ],
            [
              140.495039286,
              35.613111846
            ],
            [
              140.494109194,
              35.612286583
            ],
            [
              140.493989629,
              35.612363756
            ],
            [
              140.49491544,
              35.613182609
            ],
            [
              140.494926424,
              35.613179757
            ],
            [
              140.494963724,
              35.613170073
            ]
          ]
        ]
      }
    },
    {
      "type": "Feature",
      "properties": {
        "fid": 1846,
        "AreaOnRegistry": "5665",
        "Address": "千葉県横芝光町新島山王5149",
        "Tiban": "5149",
        "SectionOfPolygonCodeName": "その他",
        "大字小字": "横芝光町新島山王",
        "大字": "新島",
        "面積": 57,
        "㎡面積": 5664.5,
        "name": "エリア #28"
      },
      "geometry": {
        "type": "Polygon",
        "coordinates": [
          [
            [
              140.495593589,
              35.611197613
            ],
            [
              140.495215334,
              35.611488329
            ],
            [
              140.496115982,
              35.61227204
            ],
            [
              140.496489736,
              35.611979319
            ],
            [
              140.496481456,
              35.611956244
            ],
            [
              140.495593589,
              35.611197613
            ]
          ]
        ]
      }
    },
    {
      "type": "Feature",
      "properties": {
        "fid": 1935,
        "AreaOnRegistry": "3707",
        "Address": "千葉県横芝光町新島荒場5135",
        "Tiban": "5135",
        "SectionOfPolygonCodeName": "その他",
        "大字小字": "横芝光町新島荒場",
        "大字": "新島",
        "面積": 47,
        "㎡面積": 4730.08,
        "name": "エリア #29"
      },
      "geometry": {
        "type": "Polygon",
        "coordinates": [
          [
            [
              140.495584687,
              35.614224308
            ],
            [
              140.495907603,
              35.613896372
            ],
            [
              140.495069313,
              35.613345065
            ],
            [
              140.494686775,
              35.61363963
            ],
            [
              140.495584687,
              35.614224308
            ]
          ]
        ]
      }
    },
    {
      "type": "Feature",
      "properties": {
        "fid": 2132,
        "AreaOnRegistry": "3270",
        "Address": "千葉県横芝光町新島茶畑5069(１)",
        "Tiban": "5069(１)",
        "SectionOfPolygonCodeName": "その他",
        "大字小字": "横芝光町新島茶畑",
        "大字": "新島",
        "面積": 13,
        "㎡面積": 1254.61,
        "name": "エリア #30"
      },
      "geometry": {
        "type": "Polygon",
        "coordinates": [
          [
            [
              140.500311288,
              35.616085494
            ],
            [
              140.500455641,
              35.615932756
            ],
            [
              140.50007927,
              35.615692723
            ],
            [
              140.499947322,
              35.615608572
            ],
            [
              140.499798897,
              35.615758029
            ],
            [
              140.500311288,
              35.616085494
            ]
          ]
        ]
      }
    },
    {
      "type": "Feature",
      "properties": {
        "fid": 2184,
        "AreaOnRegistry": "3270",
        "Address": "千葉県横芝光町新島茶畑5080",
        "Tiban": "5080",
        "SectionOfPolygonCodeName": "その他",
        "大字小字": "横芝光町新島茶畑",
        "大字": "新島",
        "面積": 33,
        "㎡面積": 3303.79,
        "name": "エリア #31"
      },
      "geometry": {
        "type": "Polygon",
        "coordinates": [
          [
            [
              140.500330989,
              35.614411062
            ],
            [
              140.500545938,
              35.614200631
            ],
            [
              140.499627183,
              35.613587254
            ],
            [
              140.499611444,
              35.613576589
            ],
            [
              140.499430935,
              35.613754444
            ],
            [
              140.499436216,
              35.613775186
            ],
            [
              140.499414538,
              35.613796519
            ],
            [
              140.499427797,
              35.61380541
            ],
            [
              140.500330989,
              35.614411062
            ]
          ]
        ]
      }
    },
    {
      "type": "Feature",
      "properties": {
        "fid": 2213,
        "AreaOnRegistry": "3270",
        "Address": "千葉県横芝光町新島茶畑5069(２)",
        "Tiban": "5069(２)",
        "SectionOfPolygonCodeName": "その他",
        "大字小字": "横芝光町新島茶畑",
        "大字": "新島",
        "面積": 22,
        "㎡面積": 2214.91,
        "name": "エリア #32"
      },
      "geometry": {
        "type": "Polygon",
        "coordinates": [
          [
            [
              140.499278307,
              35.615528046
            ],
            [
              140.500234804,
              35.616158258
            ],
            [
              140.500311288,
              35.616085494
            ],
            [
              140.499798897,
              35.615758029
            ],
            [
              140.499947322,
              35.615608572
            ],
            [
              140.499828523,
              35.615532553
            ],
            [
              140.499491865,
              35.615317124
            ],
            [
              140.499278307,
              35.615528046
            ]
          ]
        ]
      }
    },
    {
      "type": "Feature",
      "properties": {
        "fid": 2264,
        "AreaOnRegistry": "994",
        "Address": "千葉県横芝光町新島荒場5115-2",
        "Tiban": "5115-2",
        "SectionOfPolygonCodeName": "その他",
        "大字小字": "横芝光町新島荒場",
        "大字": "新島",
        "面積": 29,
        "㎡面積": 2909.28,
        "name": "エリア #33"
      },
      "geometry": {
        "type": "Polygon",
        "coordinates": [
          [
            [
              140.499938341,
              35.613096331
            ],
            [
              140.500118817,
              35.612910365
            ],
            [
              140.49950869,
              35.612500864
            ],
            [
              140.499195582,
              35.612301112
            ],
            [
              140.499175358,
              35.612301224
            ],
            [
              140.498998844,
              35.612477258
            ],
            [
              140.499938341,
              35.613096331
            ]
          ]
        ]
      }
    },
    {
      "type": "Feature",
      "properties": {
        "fid": 2270,
        "AreaOnRegistry": "2945",
        "Address": "千葉県横芝光町新島山王5155-2",
        "Tiban": "5155-2",
        "SectionOfPolygonCodeName": "その他",
        "大字小字": "横芝光町新島山王",
        "大字": "新島",
        "面積": 30,
        "㎡面積": 2971.39,
        "name": "エリア #34"
      },
      "geometry": {
        "type": "Polygon",
        "coordinates": [
          [
            [
              140.49491544,
              35.613182609
            ],
            [
              140.493989629,
              35.612363756
            ],
            [
              140.49379801,
              35.612487438
            ],
            [
              140.493971482,
              35.612641908
            ],
            [
              140.493956579,
              35.612666659
            ],
            [
              140.494063393,
              35.612757981
            ],
            [
              140.494075004,
              35.612767908
            ],
            [
              140.494269955,
              35.612934583
            ],
            [
              140.49428806,
              35.612932016
            ],
            [
              140.49453333,
              35.613149117
            ],
            [
              140.494750636,
              35.613341466
            ],
            [
              140.494939779,
              35.613197341
            ],
            [
              140.49491544,
              35.613182609
            ]
          ]
        ]
      }
    },
    {
      "type": "Feature",
      "properties": {
        "fid": 2280,
        "AreaOnRegistry": "2739",
        "Address": "千葉県横芝光町新島荒場5106",
        "Tiban": "5106",
        "SectionOfPolygonCodeName": "その他",
        "大字小字": "横芝光町新島荒場",
        "大字": "新島",
        "面積": 28,
        "㎡面積": 2776.62,
        "name": "エリア #35"
      },
      "geometry": {
        "type": "Polygon",
        "coordinates": [
          [
            [
              140.498033469,
              35.615053427
            ],
            [
              140.498237877,
              35.614841262
            ],
            [
              140.49728535,
              35.614218799
            ],
            [
              140.497250491,
              35.614254257
            ],
            [
              140.497323927,
              35.614316899
            ],
            [
              140.49736305,
              35.614379729
            ],
            [
              140.497402376,
              35.614467076
            ],
            [
              140.497278729,
              35.614557073
            ],
            [
              140.498033469,
              35.615053427
            ]
          ]
        ]
      }
    },
    {
      "type": "Feature",
      "properties": {
        "fid": 2289,
        "AreaOnRegistry": "2617",
        "Address": "千葉県横芝光町新島荒場5138",
        "Tiban": "5138",
        "SectionOfPolygonCodeName": "その他",
        "大字小字": "横芝光町新島荒場",
        "大字": "新島",
        "面積": 26,
        "㎡面積": 2619.5,
        "name": "エリア #36"
      },
      "geometry": {
        "type": "Polygon",
        "coordinates": [
          [
            [
              140.495725782,
              35.612850399
            ],
            [
              140.495480643,
              35.613031428
            ],
            [
              140.496250615,
              35.613548023
            ],
            [
              140.496457941,
              35.61333747
            ],
            [
              140.495725782,
              35.612850399
            ]
          ]
        ]
      }
    },
    {
      "type": "Feature",
      "properties": {
        "fid": 2303,
        "AreaOnRegistry": "1900",
        "Address": "千葉県横芝光町新島荒場5136-2",
        "Tiban": "5136-2",
        "SectionOfPolygonCodeName": "その他",
        "大字小字": "横芝光町新島荒場",
        "大字": "新島",
        "面積": 19,
        "㎡面積": 1934.65,
        "name": "エリア #37"
      },
      "geometry": {
        "type": "Polygon",
        "coordinates": [
          [
            [
              140.495907603,
              35.613896372
            ],
            [
              140.496046318,
              35.613755499
            ],
            [
              140.495239869,
              35.613221889
            ],
            [
              140.495069313,
              35.613345065
            ],
            [
              140.495907603,
              35.613896372
            ]
          ]
        ]
      }
    },
    {
      "type": "Feature",
      "properties": {
        "fid": 2357,
        "AreaOnRegistry": "2908",
        "Address": "千葉県横芝光町新島荒場5105",
        "Tiban": "5105",
        "SectionOfPolygonCodeName": "その他",
        "大字小字": "横芝光町新島荒場",
        "大字": "新島",
        "面積": 28,
        "㎡面積": 2784.79,
        "name": "エリア #38"
      },
      "geometry": {
        "type": "Polygon",
        "coordinates": [
          [
            [
              140.498033469,
              35.615053427
            ],
            [
              140.497278729,
              35.614557073
            ],
            [
              140.497210905,
              35.614614409
            ],
            [
              140.49713564,
              35.614643449
            ],
            [
              140.497062871,
              35.614648254
            ],
            [
              140.497003347,
              35.61462436
            ],
            [
              140.496962299,
              35.61455192
            ],
            [
              140.4968848,
              35.614637124
            ],
            [
              140.497828305,
              35.615250686
            ],
            [
              140.498033469,
              35.615053427
            ]
          ]
        ]
      }
    },
    {
      "type": "Feature",
      "properties": {
        "fid": 2426,
        "AreaOnRegistry": "70",
        "Address": "千葉県横芝光町新島上人꽳5188-4",
        "Tiban": "5188-4",
        "SectionOfPolygonCodeName": "その他",
        "大字小字": "横芝光町新島上人꽳",
        "大字": "新島",
        "面積": 17,
        "㎡面積": 1685.64,
        "name": "エリア #39"
      },
      "geometry": {
        "type": "Polygon",
        "coordinates": [
          [
            [
              140.498770757,
              35.623541581
            ],
            [
              140.499199644,
              35.623004755
            ],
            [
              140.498936068,
              35.622867926
            ],
            [
              140.498911718,
              35.622875536
            ],
            [
              140.498770361,
              35.62312548
            ],
            [
              140.498653313,
              35.623362832
            ],
            [
              140.498641498,
              35.623410238
            ],
            [
              140.49865719,
              35.623462476
            ],
            [
              140.498770757,
              35.623541581
            ]
          ]
        ]
      }
    },
    {
      "type": "Feature",
      "properties": {
        "fid": 2518,
        "AreaOnRegistry": "1983",
        "Address": "千葉県横芝光町新島山王5146-3",
        "Tiban": "5146-3",
        "SectionOfPolygonCodeName": "その他",
        "大字小字": "横芝光町新島山王",
        "大字": "新島",
        "面積": 30,
        "㎡面積": 3018.56,
        "name": "エリア #40"
      },
      "geometry": {
        "type": "Polygon",
        "coordinates": [
          [
            [
              140.496502202,
              35.611197221
            ],
            [
              140.496924409,
              35.611475646
            ],
            [
              140.496968789,
              35.611429141
            ],
            [
              140.497221432,
              35.611169314
            ],
            [
              140.497344057,
              35.61103909
            ],
            [
              140.496924669,
              35.610763302
            ],
            [
              140.496502202,
              35.611197221
            ]
          ]
        ]
      }
    },
    {
      "type": "Feature",
      "properties": {
        "fid": 2521,
        "AreaOnRegistry": "743",
        "Address": "千葉県横芝光町新島荒場5137-1",
        "Tiban": "5137-1",
        "SectionOfPolygonCodeName": "その他",
        "大字小字": "横芝光町新島荒場",
        "大字": "新島",
        "面積": 28,
        "㎡面積": 2751.18,
        "name": "エリア #41"
      },
      "geometry": {
        "type": "Polygon",
        "coordinates": [
          [
            [
              140.495480643,
              35.613031428
            ],
            [
              140.495239869,
              35.613221889
            ],
            [
              140.496046318,
              35.613755499
            ],
            [
              140.496250615,
              35.613548023
            ],
            [
              140.495480643,
              35.613031428
            ]
          ]
        ]
      }
    },
    {
      "type": "Feature",
      "properties": {
        "fid": 2541,
        "AreaOnRegistry": "1875",
        "Address": "千葉県横芝光町新島茶畑5077-1",
        "Tiban": "5077-1",
        "SectionOfPolygonCodeName": "その他",
        "大字小字": "横芝光町新島茶畑",
        "大字": "新島",
        "面積": 20,
        "㎡面積": 1951.27,
        "name": "エリア #42"
      },
      "geometry": {
        "type": "Polygon",
        "coordinates": [
          [
            [
              140.501046949,
              35.613694225
            ],
            [
              140.50116308,
              35.613578632
            ],
            [
              140.501158565,
              35.61356256
            ],
            [
              140.500220334,
              35.612945309
            ],
            [
              140.50010736,
              35.613056831
            ],
            [
              140.500104886,
              35.613072829
            ],
            [
              140.501046949,
              35.613694225
            ]
          ]
        ]
      }
    },
    {
      "type": "Feature",
      "properties": {
        "fid": 2621,
        "AreaOnRegistry": "3488",
        "Address": "千葉県横芝光町新島新田前5031",
        "Tiban": "5031",
        "SectionOfPolygonCodeName": "その他",
        "大字小字": "横芝光町新島新田前",
        "大字": "新島",
        "面積": 33,
        "㎡面積": 3261.66,
        "name": "エリア #43"
      },
      "geometry": {
        "type": "Polygon",
        "coordinates": [
          [
            [
              140.505164684,
              35.616161101
            ],
            [
              140.504966868,
              35.616369193
            ],
            [
              140.50588637,
              35.617004845
            ],
            [
              140.506073527,
              35.616812227
            ],
            [
              140.506051807,
              35.616794732
            ],
            [
              140.506073195,
              35.616772593
            ],
            [
              140.505164684,
              35.616161101
            ]
          ]
        ]
      }
    },
    {
      "type": "Feature",
      "properties": {
        "fid": 2687,
        "AreaOnRegistry": "3363",
        "Address": "千葉県横芝光町新島一反田5275",
        "Tiban": "5275",
        "SectionOfPolygonCodeName": "その他",
        "大字小字": "横芝光町新島一反田",
        "大字": "新島",
        "面積": 34,
        "㎡面積": 3402.5,
        "name": "エリア #44"
      },
      "geometry": {
        "type": "Polygon",
        "coordinates": [
          [
            [
              140.507414119,
              35.621842763
            ],
            [
              140.50644755,
              35.6214314
            ],
            [
              140.506415351,
              35.62144761
            ],
            [
              140.506253539,
              35.621706871
            ],
            [
              140.507094609,
              35.622061122
            ],
            [
              140.507150539,
              35.622084679
            ],
            [
              140.507212627,
              35.622052273
            ],
            [
              140.507272249,
              35.622001023
            ],
            [
              140.507414119,
              35.621842763
            ]
          ]
        ]
      }
    },
    {
      "type": "Feature",
      "properties": {
        "fid": 2840,
        "AreaOnRegistry": "1094",
        "Address": "千葉県横芝光町新島上人꽳5206-3",
        "Tiban": "5206-3",
        "SectionOfPolygonCodeName": "その他",
        "大字小字": "横芝光町新島上人꽳",
        "大字": "新島",
        "面積": 11,
        "㎡面積": 1056.63,
        "name": "エリア #45"
      },
      "geometry": {
        "type": "Polygon",
        "coordinates": [
          [
            [
              140.500021039,
              35.624012391
            ],
            [
              140.500077625,
              35.624022863
            ],
            [
              140.500262616,
              35.624035142
            ],
            [
              140.500571097,
              35.624040003
            ],
            [
              140.500248924,
              35.62367827
            ],
            [
              140.499996719,
              35.623990626
            ],
            [
              140.500021039,
              35.624012391
            ]
          ]
        ]
      }
    },
    {
      "type": "Feature",
      "properties": {
        "fid": 2930,
        "AreaOnRegistry": "90",
        "Address": "千葉県横芝光町新島本郷5170-3",
        "Tiban": "5170-3",
        "SectionOfPolygonCodeName": "その他",
        "大字小字": "横芝光町新島本郷",
        "大字": "新島",
        "面積": 15,
        "㎡面積": 1485,
        "name": "エリア #46"
      },
      "geometry": {
        "type": "Polygon",
        "coordinates": [
          [
            [
              140.499393824,
              35.619773842
            ],
            [
              140.499948885,
              35.620075757
            ],
            [
              140.499970585,
              35.620073667
            ],
            [
              140.500061326,
              35.619959287
            ],
            [
              140.500109125,
              35.619897581
            ],
            [
              140.499533049,
              35.619595867
            ],
            [
              140.499393824,
              35.619773842
            ]
          ]
        ]
      }
    },
    {
      "type": "Feature",
      "properties": {
        "fid": 2985,
        "AreaOnRegistry": "3270",
        "Address": "千葉県横芝光町新島上人꽳5202",
        "Tiban": "5202",
        "SectionOfPolygonCodeName": "その他",
        "大字小字": "横芝光町新島上人꽳",
        "大字": "新島",
        "面積": 34,
        "㎡面積": 3440.36,
        "name": "エリア #47"
      },
      "geometry": {
        "type": "Polygon",
        "coordinates": [
          [
            [
              140.501848928,
              35.623443562
            ],
            [
              140.502032709,
              35.623202032
            ],
            [
              140.501040616,
              35.62268586
            ],
            [
              140.501022115,
              35.622710162
            ],
            [
              140.500993325,
              35.622698418
            ],
            [
              140.500838664,
              35.622903887
            ],
            [
              140.500849556,
              35.622923535
            ],
            [
              140.501848928,
              35.623443562
            ]
          ]
        ]
      }
    },
    {
      "type": "Feature",
      "properties": {
        "fid": 3082,
        "AreaOnRegistry": "1915",
        "Address": "千葉県横芝光町新島茶畑5073-1",
        "Tiban": "5073-1",
        "SectionOfPolygonCodeName": "その他",
        "大字小字": "横芝光町新島茶畑",
        "大字": "新島",
        "面積": 20,
        "㎡面積": 1982.16,
        "name": "エリア #48"
      },
      "geometry": {
        "type": "Polygon",
        "coordinates": [
          [
            [
              140.501309899,
              35.615051076
            ],
            [
              140.501434244,
              35.614924873
            ],
            [
              140.500510838,
              35.614299115
            ],
            [
              140.500382476,
              35.614428644
            ],
            [
              140.501309899,
              35.615051076
            ]
          ]
        ]
      }
    },
    {
      "type": "Feature",
      "properties": {
        "fid": 3127,
        "AreaOnRegistry": "3270",
        "Address": "千葉県横芝光町新島茶畑5079",
        "Tiban": "5079",
        "SectionOfPolygonCodeName": "その他",
        "大字小字": "横芝光町新島茶畑",
        "大字": "新島",
        "面積": 33,
        "㎡面積": 3276.94,
        "name": "エリア #49"
      },
      "geometry": {
        "type": "Polygon",
        "coordinates": [
          [
            [
              140.499611444,
              35.613576589
            ],
            [
              140.499627183,
              35.613587254
            ],
            [
              140.500545938,
              35.614200631
            ],
            [
              140.50075416,
              35.613982239
            ],
            [
              140.499837518,
              35.613384025
            ],
            [
              140.499811872,
              35.613379107
            ],
            [
              140.499611444,
              35.613576589
            ]
          ]
        ]
      }
    },
    {
      "type": "Feature",
      "properties": {
        "fid": 3416,
        "AreaOnRegistry": "800",
        "Address": "千葉県横芝光町新島茶畑5072-3",
        "Tiban": "5072-3",
        "SectionOfPolygonCodeName": "その他",
        "大字小字": "横芝光町新島茶畑",
        "大字": "新島",
        "面積": 33,
        "㎡面積": 3322.44,
        "name": "エリア #50"
      },
      "geometry": {
        "type": "Polygon",
        "coordinates": [
          [
            [
              140.501101355,
              35.615266927
            ],
            [
              140.501309899,
              35.615051076
            ],
            [
              140.500382476,
              35.614428644
            ],
            [
              140.500169858,
              35.614641213
            ],
            [
              140.501101355,
              35.615266927
            ]
          ]
        ]
      }
    },
    {
      "type": "Feature",
      "properties": {
        "fid": 3493,
        "AreaOnRegistry": "3270",
        "Address": "千葉県横芝光町新島上人꽳5193",
        "Tiban": "5193",
        "SectionOfPolygonCodeName": "その他",
        "大字小字": "横芝光町新島上人꽳",
        "大字": "新島",
        "面積": 33,
        "㎡面積": 3288.1,
        "name": "エリア #51"
      },
      "geometry": {
        "type": "Polygon",
        "coordinates": [
          [
            [
              140.500764516,
              35.622875808
            ],
            [
              140.499749394,
              35.622340002
            ],
            [
              140.499567952,
              35.622570543
            ],
            [
              140.500561029,
              35.623087695
            ],
            [
              140.500578813,
              35.623075918
            ],
            [
              140.500602117,
              35.623083088
            ],
            [
              140.500764516,
              35.622875808
            ]
          ]
        ]
      }
    },
    {
      "type": "Feature",
      "properties": {
        "fid": 3511,
        "AreaOnRegistry": "880",
        "Address": "千葉県横芝光町新島荒場5134-3",
        "Tiban": "5134-3",
        "SectionOfPolygonCodeName": "その他",
        "大字小字": "横芝光町新島荒場",
        "大字": "新島",
        "面積": 31,
        "㎡面積": 3074.94,
        "name": "エリア #52"
      },
      "geometry": {
        "type": "Polygon",
        "coordinates": [
          [
            [
              140.495350718,
              35.614473101
            ],
            [
              140.495546329,
              35.614279456
            ],
            [
              140.495548329,
              35.614261933
            ],
            [
              140.494634219,
              35.613673922
            ],
            [
              140.494419075,
              35.613851981
            ],
            [
              140.495350718,
              35.614473101
            ]
          ]
        ]
      }
    },
    {
      "type": "Feature",
      "properties": {
        "fid": 3546,
        "AreaOnRegistry": "1085",
        "Address": "千葉県横芝光町新島道貫5015",
        "Tiban": "5015",
        "SectionOfPolygonCodeName": "その他",
        "大字小字": "横芝光町新島道貫",
        "大字": "新島",
        "面積": 58,
        "㎡面積": 5814.89,
        "name": "エリア #53"
      },
      "geometry": {
        "type": "Polygon",
        "coordinates": [
          [
            [
              140.508725576,
              35.617436946
            ],
            [
              140.509011857,
              35.617140408
            ],
            [
              140.509054047,
              35.617088794
            ],
            [
              140.509109914,
              35.616974124
            ],
            [
              140.509199392,
              35.616753194
            ],
            [
              140.509254564,
              35.616604444
            ],
            [
              140.509208145,
              35.616587411
            ],
            [
              140.509145423,
              35.616610966
            ],
            [
              140.509070509,
              35.616632931
            ],
            [
              140.508957006,
              35.616651798
            ],
            [
              140.508604357,
              35.61671344
            ],
            [
              140.507838832,
              35.616851778
            ],
            [
              140.508725576,
              35.617436946
            ]
          ]
        ]
      }
    },
    {
      "type": "Feature",
      "properties": {
        "fid": 3619,
        "AreaOnRegistry": "3270",
        "Address": "千葉県横芝光町新島新田5227",
        "Tiban": "5227",
        "SectionOfPolygonCodeName": "その他",
        "大字小字": "横芝光町新島新田",
        "大字": "新島",
        "面積": 32,
        "㎡面積": 3202.39,
        "name": "エリア #54"
      },
      "geometry": {
        "type": "Polygon",
        "coordinates": [
          [
            [
              140.500833901,
              35.62090867
            ],
            [
              140.500999087,
              35.620681639
            ],
            [
              140.500012918,
              35.620160119
            ],
            [
              140.499994718,
              35.620173301
            ],
            [
              140.499969575,
              35.620177178
            ],
            [
              140.499827086,
              35.620381657
            ],
            [
              140.500833901,
              35.62090867
            ]
          ]
        ]
      }
    },
    {
      "type": "Feature",
      "properties": {
        "fid": 3636,
        "AreaOnRegistry": "1535",
        "Address": "千葉県横芝光町新島山王5152-2",
        "Tiban": "5152-2",
        "SectionOfPolygonCodeName": "その他",
        "大字小字": "横芝光町新島山王",
        "大字": "新島",
        "面積": 16,
        "㎡面積": 1566.65,
        "name": "エリア #55"
      },
      "geometry": {
        "type": "Polygon",
        "coordinates": [
          [
            [
              140.495486077,
              35.612767551
            ],
            [
              140.495573189,
              35.612696293
            ],
            [
              140.494822288,
              35.612038007
            ],
            [
              140.494663953,
              35.6118995
            ],
            [
              140.494556514,
              35.611981919
            ],
            [
              140.495460986,
              35.612763821
            ],
            [
              140.495486077,
              35.612767551
            ]
          ]
        ]
      }
    },
    {
      "type": "Feature",
      "properties": {
        "fid": 3643,
        "AreaOnRegistry": "885",
        "Address": "千葉県横芝光町新島本郷5166-1",
        "Tiban": "5166-1",
        "SectionOfPolygonCodeName": "その他",
        "大字小字": "横芝光町新島本郷",
        "大字": "新島",
        "面積": 10,
        "㎡面積": 994.73,
        "name": "エリア #56"
      },
      "geometry": {
        "type": "Polygon",
        "coordinates": [
          [
            [
              140.499803227,
              35.619250488
            ],
            [
              140.500378578,
              35.619549729
            ],
            [
              140.500455233,
              35.619450768
            ],
            [
              140.500450113,
              35.619415333
            ],
            [
              140.499899991,
              35.61912679
            ],
            [
              140.499803227,
              35.619250488
            ]
          ]
        ]
      }
    },
    {
      "type": "Feature",
      "properties": {
        "fid": 3646,
        "AreaOnRegistry": "2161",
        "Address": "千葉県横芝光町北清水杢ノ浦9214",
        "Tiban": "9214",
        "SectionOfPolygonCodeName": "その他",
        "大字小字": "横芝光町北清水杢ノ浦",
        "大字": "北清水",
        "面積": 21,
        "㎡面積": 2134.73,
        "name": "エリア #57"
      },
      "geometry": {
        "type": "Polygon",
        "coordinates": [
          [
            [
              140.513359597,
              35.624210258
            ],
            [
              140.513604613,
              35.624050467
            ],
            [
              140.513592018,
              35.62401785
            ],
            [
              140.513140391,
              35.623535599
            ],
            [
              140.513115699,
              35.623529033
            ],
            [
              140.513080926,
              35.623544316
            ],
            [
              140.512872609,
              35.623673727
            ],
            [
              140.513125412,
              35.623948888
            ],
            [
              140.513359597,
              35.624210258
            ]
          ]
        ]
      }
    },
    {
      "type": "Feature",
      "properties": {
        "fid": 3647,
        "AreaOnRegistry": "971",
        "Address": "千葉県横芝光町北清水三軒뀞後9377",
        "Tiban": "9377",
        "SectionOfPolygonCodeName": "その他",
        "大字小字": "横芝光町北清水三軒뀞後",
        "大字": "北清水",
        "面積": 9,
        "㎡面積": 936.06,
        "name": "エリア #58"
      },
      "geometry": {
        "type": "Polygon",
        "coordinates": [
          [
            [
              140.501942561,
              35.626257814
            ],
            [
              140.501776683,
              35.626364409
            ],
            [
              140.502090391,
              35.626704586
            ],
            [
              140.502109889,
              35.626701648
            ],
            [
              140.502138298,
              35.626706133
            ],
            [
              140.50226988,
              35.626622326
            ],
            [
              140.501942561,
              35.626257814
            ]
          ]
        ]
      }
    },
    {
      "type": "Feature",
      "properties": {
        "fid": 3648,
        "AreaOnRegistry": "417",
        "Address": "千葉県横芝光町新島上人꽳5191-1",
        "Tiban": "5191-1",
        "SectionOfPolygonCodeName": "その他",
        "大字小字": "横芝光町新島上人꽳",
        "大字": "新島",
        "面積": 4,
        "㎡面積": 377.72,
        "name": "エリア #59"
      },
      "geometry": {
        "type": "Polygon",
        "coordinates": [
          [
            [
              140.500288623,
              35.62345146
            ],
            [
              140.500304522,
              35.623437076
            ],
            [
              140.500326051,
              35.623445717
            ],
            [
              140.500412018,
              35.623331383
            ],
            [
              140.500023513,
              35.623127404
            ],
            [
              140.500288623,
              35.62345146
            ]
          ]
        ]
      }
    },
    {
      "type": "Feature",
      "properties": {
        "fid": 3649,
        "AreaOnRegistry": "1611",
        "Address": "千葉県横芝光町新島旧三島早川1408-1",
        "Tiban": "1408-1",
        "SectionOfPolygonCodeName": "その他",
        "大字小字": "横芝光町新島旧三島早川",
        "大字": "新島",
        "面積": 16,
        "㎡面積": 1649.23,
        "name": "エリア #60"
      },
      "geometry": {
        "type": "Polygon",
        "coordinates": [
          [
            [
              140.494086219,
              35.61530699
            ],
            [
              140.494177679,
              35.615196373
            ],
            [
              140.493365507,
              35.614660788
            ],
            [
              140.493355247,
              35.614674169
            ],
            [
              140.493256252,
              35.614740827
            ],
            [
              140.49327182,
              35.614825741
            ],
            [
              140.494086219,
              35.61530699
            ]
          ]
        ]
      }
    },
    {
      "type": "Feature",
      "properties": {
        "fid": 3651,
        "AreaOnRegistry": "1396",
        "Address": "千葉県横芝光町新島旧三島早川1403",
        "Tiban": "1403",
        "SectionOfPolygonCodeName": "その他",
        "大字小字": "横芝光町新島旧三島早川",
        "大字": "新島",
        "面積": 17,
        "㎡面積": 1739.57,
        "name": "エリア #61"
      },
      "geometry": {
        "type": "Polygon",
        "coordinates": [
          [
            [
              140.491068052,
              35.616315689
            ],
            [
              140.49151862,
              35.6165798
            ],
            [
              140.491752935,
              35.616322101
            ],
            [
              140.491765477,
              35.616307586
            ],
            [
              140.4913837,
              35.616085508
            ],
            [
              140.491370621,
              35.616094672
            ],
            [
              140.491068052,
              35.616315689
            ]
          ]
        ]
      }
    },
    {
      "type": "Feature",
      "properties": {
        "fid": 3652,
        "AreaOnRegistry": "2984",
        "Address": "千葉県横芝光町屋形外沼5952",
        "Tiban": "5952",
        "SectionOfPolygonCodeName": "その他",
        "大字小字": null,
        "大字": null,
        "面積": 30,
        "㎡面積": 2978.51,
        "name": "エリア #62"
      },
      "geometry": {
        "type": "Polygon",
        "coordinates": [
          [
            [
              140.517036456,
              35.613929203
            ],
            [
              140.517333961,
              35.613666083
            ],
            [
              140.51691181,
              35.61333788
            ],
            [
              140.516879802,
              35.613344608
            ],
            [
              140.516350546,
              35.613796018
            ],
            [
              140.516358785,
              35.613822156
            ],
            [
              140.516507001,
              35.613952371
            ],
            [
              140.516659938,
              35.613778711
            ],
            [
              140.516761417,
              35.613774632
            ],
            [
              140.517036456,
              35.613929203
            ]
          ]
        ]
      }
    },
    {
      "type": "Feature",
      "properties": {
        "fid": 3653,
        "AreaOnRegistry": "459",
        "Address": "千葉県横芝光町屋形当新田6227-2",
        "Tiban": "6227-2",
        "SectionOfPolygonCodeName": "その他",
        "大字小字": null,
        "大字": null,
        "面積": 18,
        "㎡面積": 1775.77,
        "name": "エリア #63"
      },
      "geometry": {
        "type": "Polygon",
        "coordinates": [
          [
            [
              140.5191774777622,
              35.61139319869324
            ],
            [
              140.51973250578237,
              35.6117243959781
            ],
            [
              140.51993073007526,
              35.611499893270306
            ],
            [
              140.51948370011814,
              35.61124149209648
            ],
            [
              140.51939894214465,
              35.6112309337512
            ],
            [
              140.5191774777622,
              35.61139319869324
            ]
          ]
        ]
      }
    },
    {
      "type": "Feature",
      "properties": {
        "fid": 3654,
        "AreaOnRegistry": "2924",
        "Address": "千葉県横芝光町屋形当新田6227-1",
        "Tiban": "6227-1",
        "SectionOfPolygonCodeName": "その他",
        "大字小字": null,
        "大字": null,
        "面積": 17,
        "㎡面積": 1668.67,
        "name": "エリア #64"
      },
      "geometry": {
        "type": "Polygon",
        "coordinates": [
          [
            [
              140.51899702530247,
              35.61153323529645
            ],
            [
              140.519024333,
              35.6115514
            ],
            [
              140.519013982,
              35.611579568
            ],
            [
              140.519570258,
              35.611915876
            ],
            [
              140.51973250578237,
              35.6117243959781
            ],
            [
              140.5191774777622,
              35.61139319869324
            ],
            [
              140.51907631501962,
              35.61145210300859
            ],
            [
              140.51899702530247,
              35.61153323529645
            ]
          ]
        ]
      }
    },
    {
      "type": "Feature",
      "properties": {
        "fid": 3655,
        "AreaOnRegistry": "1050",
        "Address": "千葉県横芝光町新島旧三島早川1411-1",
        "Tiban": "1411-1",
        "SectionOfPolygonCodeName": "その他",
        "大字小字": null,
        "大字": null,
        "面積": 12,
        "㎡面積": 1160.67,
        "name": "エリア #65"
      },
      "geometry": {
        "type": "Polygon",
        "coordinates": [
          [
            [
              140.493888938,
              35.615526439
            ],
            [
              140.49300659,
              35.615003549
            ],
            [
              140.492998769,
              35.615010188
            ],
            [
              140.492914759,
              35.615081503
            ],
            [
              140.492926946,
              35.615088684
            ],
            [
              140.493230167,
              35.615267326
            ],
            [
              140.493814896,
              35.615608799
            ],
            [
              140.493877231,
              35.61553946
            ],
            [
              140.493888938,
              35.615526439
            ]
          ]
        ]
      }
    },
    {
      "type": "Feature",
      "properties": {
        "fid": 3656,
        "AreaOnRegistry": "579",
        "Address": "千葉県横芝光町新島茶畑5040-3",
        "Tiban": "5040-3",
        "SectionOfPolygonCodeName": "その他",
        "大字小字": null,
        "大字": null,
        "面積": 7,
        "㎡面積": 677.3,
        "name": "エリア #66"
      },
      "geometry": {
        "type": "Polygon",
        "coordinates": [
          [
            [
              140.50133792,
              35.617686225
            ],
            [
              140.50136219,
              35.61768609
            ],
            [
              140.501397099,
              35.617668281
            ],
            [
              140.501426469,
              35.617632886
            ],
            [
              140.500851511,
              35.617241915
            ],
            [
              140.500782022,
              35.617317167
            ],
            [
              140.50133792,
              35.617686225
            ]
          ]
        ]
      }
    },
    {
      "type": "Feature",
      "properties": {
        "fid": 3657,
        "AreaOnRegistry": "810",
        "Address": "千葉県横芝光町屋形当新田6217-1",
        "Tiban": "6217-1",
        "SectionOfPolygonCodeName": "その他",
        "大字小字": null,
        "大字": null,
        "面積": 4,
        "㎡面積": 407.86,
        "name": "エリア #67"
      },
      "geometry": {
        "type": "Polygon",
        "coordinates": [
          [
            [
              140.521634078,
              35.613104733
            ],
            [
              140.52171005,
              35.613020174
            ],
            [
              140.52145939887035,
              35.6128694537372
            ],
            [
              140.52136264175442,
              35.61296977447944
            ],
            [
              140.521482517,
              35.613047344
            ],
            [
              140.521625847,
              35.613123627
            ],
            [
              140.521634078,
              35.613104733
            ]
          ]
        ]
      }
    },
    {
      "type": "Feature",
      "properties": {
        "fid": 3658,
        "AreaOnRegistry": "38",
        "Address": "千葉県横芝光町屋形当新田6217-2",
        "Tiban": "6217-2",
        "SectionOfPolygonCodeName": "その他",
        "大字小字": null,
        "大字": null,
        "面積": 4,
        "㎡面積": 376.03,
        "name": "エリア #68"
      },
      "geometry": {
        "type": "Polygon",
        "coordinates": [
          [
            [
              140.52136264175442,
              35.61296977447944
            ],
            [
              140.52145939887035,
              35.6128694537372
            ],
            [
              140.521230144,
              35.612733526
            ],
            [
              140.521211393,
              35.612749054
            ],
            [
              140.521190295,
              35.612735467
            ],
            [
              140.521144724,
              35.612804261
            ],
            [
              140.521136566,
              35.612831722
            ],
            [
              140.521260999,
              35.6129064
            ],
            [
              140.52136264175442,
              35.61296977447944
            ]
          ]
        ]
      }
    },
    {
      "type": "Feature",
      "properties": {
        "fid": 3659,
        "AreaOnRegistry": null,
        "Address": "千葉県山武市松尾町武野里旧中里辻野59-2",
        "Tiban": "59-2",
        "SectionOfPolygonCodeName": null,
        "大字小字": "千葉県山武市松尾町武野里旧中里辻野",
        "大字": "武野里",
        "面積": 8,
        "㎡面積": 845.84,
        "name": "エリア #69"
      },
      "geometry": {
        "type": "Polygon",
        "coordinates": [
          [
            [
              140.500750604,
              35.625537645
            ],
            [
              140.50081605599996,
              35.625363921
            ],
            [
              140.500473604,
              35.625037339
            ],
            [
              140.50033762299998,
              35.625130081
            ],
            [
              140.50073805599996,
              35.625510057
            ],
            [
              140.500750604,
              35.625537645
            ]
          ]
        ]
      }
    },
    {
      "type": "Feature",
      "properties": {
        "fid": 3660,
        "AreaOnRegistry": "485",
        "Address": "千葉県横芝光町新島上人꽳5186-2",
        "Tiban": "5186-2",
        "SectionOfPolygonCodeName": "その他",
        "大字小字": null,
        "大字": null,
        "面積": 14,
        "㎡面積": 1447,
        "name": "エリア #70"
      },
      "geometry": {
        "type": "Polygon",
        "coordinates": [
          [
            [
              140.499798323,
              35.622240741
            ],
            [
              140.499274211,
              35.621965199
            ],
            [
              140.499299174,
              35.62221547
            ],
            [
              140.499539871,
              35.62253743
            ],
            [
              140.499551376,
              35.62254484
            ],
            [
              140.499569622,
              35.622537265
            ],
            [
              140.499798323,
              35.622240741
            ]
          ]
        ]
      }
    },
    {
      "type": "Feature",
      "properties": {
        "fid": 3661,
        "AreaOnRegistry": "970",
        "Address": "千葉県横芝光町新島旧三島蛇川1264-1",
        "Tiban": "1264-1",
        "SectionOfPolygonCodeName": "その他",
        "大字小字": null,
        "大字": null,
        "面積": 11,
        "㎡面積": 1056.46,
        "name": "エリア #71"
      },
      "geometry": {
        "type": "Polygon",
        "coordinates": [
          [
            [
              140.499037162,
              35.622190339
            ],
            [
              140.499024646,
              35.622153033
            ],
            [
              140.498894978,
              35.62197186
            ],
            [
              140.498728092,
              35.621718636
            ],
            [
              140.49868799,
              35.621666532
            ],
            [
              140.498648156,
              35.621646819
            ],
            [
              140.498608652,
              35.62166697
            ],
            [
              140.498454574,
              35.621854694
            ],
            [
              140.499037162,
              35.622190339
            ]
          ]
        ]
      }
    },
    {
      "type": "Feature",
      "properties": {
        "fid": 3662,
        "AreaOnRegistry": "1106",
        "Address": "千葉県横芝光町新島旧三島蛇川1269",
        "Tiban": "1269",
        "SectionOfPolygonCodeName": "その他",
        "大字小字": null,
        "大字": null,
        "面積": 35,
        "㎡面積": 3457.87,
        "name": "エリア #72"
      },
      "geometry": {
        "type": "Polygon",
        "coordinates": [
          [
            [
              140.498927809,
              35.622619504
            ],
            [
              140.499105225,
              35.622302086
            ],
            [
              140.499092585,
              35.622249832
            ],
            [
              140.499061657,
              35.62220017
            ],
            [
              140.499037162,
              35.622190339
            ],
            [
              140.498454574,
              35.621854694
            ],
            [
              140.498258024,
              35.622072551
            ],
            [
              140.498273487,
              35.622097382
            ],
            [
              140.49821019,
              35.622192414
            ],
            [
              140.498927809,
              35.622619504
            ]
          ]
        ]
      }
    },
    {
      "type": "Feature",
      "properties": {
        "fid": 3663,
        "AreaOnRegistry": "2390",
        "Address": "千葉県横芝光町新島旧三島蛇川1268-1",
        "Tiban": "1268-1",
        "SectionOfPolygonCodeName": "その他",
        "大字小字": null,
        "大字": null,
        "面積": 35,
        "㎡面積": 3457.87,
        "name": "エリア #73"
      },
      "geometry": {
        "type": "Polygon",
        "coordinates": [
          [
            [
              140.498927809,
              35.622619504
            ],
            [
              140.499105225,
              35.622302086
            ],
            [
              140.499092585,
              35.622249832
            ],
            [
              140.499061657,
              35.62220017
            ],
            [
              140.499037162,
              35.622190339
            ],
            [
              140.498454574,
              35.621854694
            ],
            [
              140.498258024,
              35.622072551
            ],
            [
              140.498273487,
              35.622097382
            ],
            [
              140.49821019,
              35.622192414
            ],
            [
              140.498927809,
              35.622619504
            ]
          ]
        ]
      }
    },
    {
      "type": "Feature",
      "properties": {
        "fid": 3664,
        "AreaOnRegistry": "2221",
        "Address": "千葉県横芝光町新島一反田5273-1",
        "Tiban": "5273-1",
        "SectionOfPolygonCodeName": "その他",
        "大字小字": null,
        "大字": null,
        "面積": 29,
        "㎡面積": 2868.86,
        "name": "エリア #74"
      },
      "geometry": {
        "type": "Polygon",
        "coordinates": [
          [
            [
              140.507599671,
              35.621660686
            ],
            [
              140.507775905,
              35.621469231
            ],
            [
              140.506700374,
              35.621008507
            ],
            [
              140.506577296,
              35.621204377
            ],
            [
              140.506588364,
              35.621220102
            ],
            [
              140.506584477,
              35.62123451
            ],
            [
              140.507599671,
              35.621660686
            ]
          ]
        ]
      }
    },
    {
      "type": "Feature",
      "properties": {
        "fid": 3665,
        "AreaOnRegistry": "600",
        "Address": "千葉県横芝光町新島一反田5273-2",
        "Tiban": "5273-2",
        "SectionOfPolygonCodeName": "その他",
        "大字小字": null,
        "大字": null,
        "面積": 29,
        "㎡面積": 2868.86,
        "name": "エリア #75"
      },
      "geometry": {
        "type": "Polygon",
        "coordinates": [
          [
            [
              140.507599671,
              35.621660686
            ],
            [
              140.507775905,
              35.621469231
            ],
            [
              140.506700374,
              35.621008507
            ],
            [
              140.506577296,
              35.621204377
            ],
            [
              140.506588364,
              35.621220102
            ],
            [
              140.506584477,
              35.62123451
            ],
            [
              140.507599671,
              35.621660686
            ]
          ]
        ]
      }
    }
  ],
  "meta": {
    "displayName": "わせ",
    "color": "#e6ce33",
    "opacity": 0.55,
    "visible": true,
    "strokeColor": "#a3123a",
    "strokeWeight": 1.5,
    "strokeOpacity": 0.19
  }
}