{
"type": "FeatureCollection",
"name": "【今上】2班",
"crs": { "type": "name", "properties": { "name": "urn:ogc:def:crs:OGC:1.3:CRS84" } },
"features": [
{ "type": "Feature", "properties": { "fid": 50, "polygon_uuid": "bec4d64e-328c-44e9-915c-01c4bec25a6f", "daicho_shubetsu_cd": "FUD25" }, "geometry": { "type": "Polygon", "coordinates": [ [ [ 139.873589009999989, 35.91996882 ], [ 139.873844405999989, 35.920226152 ], [ 139.874094459, 35.92006432 ], [ 139.874318569, 35.920273186 ], [ 139.874772944999989, 35.919639684 ], [ 139.874497078, 35.919362018 ], [ 139.873983283, 35.919709624 ], [ 139.873589009999989, 35.91996882 ] ] ] } },
{ "type": "Feature", "properties": { "fid": 171, "polygon_uuid": "7933ee45-7ab6-40a4-8fac-07b1d32caba0", "daicho_shubetsu_cd": "FUD25" }, "geometry": { "type": "Polygon", "coordinates": [ [ [ 139.867027482, 35.931542582 ], [ 139.867194613, 35.931414422 ], [ 139.866864641, 35.931072796 ], [ 139.866686818, 35.931187518 ], [ 139.867027482, 35.931542582 ] ] ] } },
{ "type": "Feature", "properties": { "fid": 247, "polygon_uuid": "ac85062e-1bfc-45b5-ae57-0b2ea978747f", "daicho_shubetsu_cd": "FUD25" }, "geometry": { "type": "Polygon", "coordinates": [ [ [ 139.869140354, 35.929299107 ], [ 139.869149142999987, 35.929320525 ], [ 139.869152086000014, 35.929356226 ], [ 139.869231138, 35.929441888 ], [ 139.870102949999989, 35.928860872 ], [ 139.869987920999989, 35.928744559 ], [ 139.869140354, 35.929299107 ] ] ] } },
{ "type": "Feature", "properties": { "fid": 324, "polygon_uuid": "69f5e0bf-88db-4df3-8cf4-0dcb34e12f23", "daicho_shubetsu_cd": "FUD25" }, "geometry": { "type": "Polygon", "coordinates": [ [ [ 139.87881811, 35.914909228 ], [ 139.878711243, 35.914864002 ], [ 139.878819991, 35.914719331 ], [ 139.87872356, 35.914677674 ], [ 139.87848167300001, 35.915023913 ], [ 139.878359101, 35.915199364 ], [ 139.878561566, 35.915288554 ], [ 139.878714038999988, 35.915063107 ], [ 139.87881811, 35.914909228 ] ] ] } },
{ "type": "Feature", "properties": { "fid": 452, "polygon_uuid": "c1fa1b33-bfbf-4946-b630-13d597174822", "daicho_shubetsu_cd": "FUD25" }, "geometry": { "type": "Polygon", "coordinates": [ [ [ 139.868980990000011, 35.929183601 ], [ 139.869852173999988, 35.928607295 ], [ 139.869755642, 35.928509685 ], [ 139.868914909000011, 35.9290564 ], [ 139.868912008, 35.929113524 ], [ 139.868980990000011, 35.929183601 ] ] ] } },
{ "type": "Feature", "properties": { "fid": 493, "polygon_uuid": "664876e6-de8f-4b10-92c4-1637ec00d2f8", "daicho_shubetsu_cd": "FUD25" }, "geometry": { "type": "Polygon", "coordinates": [ [ [ 139.873564407, 35.92294506 ], [ 139.873798676, 35.923181576 ], [ 139.874660324, 35.922615562 ], [ 139.874428054, 35.922377333 ], [ 139.873564407, 35.92294506 ] ] ] } },
{ "type": "Feature", "properties": { "fid": 500, "polygon_uuid": "9740961c-da3c-4224-b5a9-165e42d9584c", "daicho_shubetsu_cd": "FUD25" }, "geometry": { "type": "Polygon", "coordinates": [ [ [ 139.87115656, 35.926858265 ], [ 139.871952499, 35.926334386 ], [ 139.871866639, 35.926289985 ], [ 139.871808109999989, 35.92628683 ], [ 139.871069248, 35.926770373 ], [ 139.87115656, 35.926858265 ] ] ] } },
{ "type": "Feature", "properties": { "fid": 505, "polygon_uuid": "f1a300c8-ffa0-4206-bd7c-16829f12cb7b", "daicho_shubetsu_cd": "FUD25" }, "geometry": { "type": "Polygon", "coordinates": [ [ [ 139.872295204000011, 35.925303455 ], [ 139.872340051, 35.925256711 ], [ 139.872381952000012, 35.925171806 ], [ 139.872571044000011, 35.924884541 ], [ 139.872572002, 35.924847649 ], [ 139.872565157999986, 35.924815916 ], [ 139.872489036, 35.924737396 ], [ 139.872407065, 35.924666019 ], [ 139.872392438, 35.924673957 ], [ 139.871958561000014, 35.92495943 ], [ 139.872295204000011, 35.925303455 ] ] ] } },
{ "type": "Feature", "properties": { "fid": 507, "polygon_uuid": "3c095fbb-cd7f-4252-98b1-1696eedb72e5", "daicho_shubetsu_cd": "FUD25" }, "geometry": { "type": "Polygon", "coordinates": [ [ [ 139.871570044, 35.925597926 ], [ 139.872171135, 35.925196738 ], [ 139.872063247, 35.925087147 ], [ 139.871478301, 35.925469435 ], [ 139.871479301, 35.925521004 ], [ 139.871570044, 35.925597926 ] ] ] } },
{ "type": "Feature", "properties": { "fid": 569, "polygon_uuid": "147460fe-fe2c-4b8a-8418-1922090bc89f", "daicho_shubetsu_cd": "FUD25" }, "geometry": { "type": "Polygon", "coordinates": [ [ [ 139.867934741, 35.929927022 ], [ 139.868110955, 35.930103696 ], [ 139.868568133999986, 35.929807117 ], [ 139.868405408, 35.929639038 ], [ 139.867934741, 35.929927022 ] ] ] } },
{ "type": "Feature", "properties": { "fid": 794, "polygon_uuid": "e3dfc2df-2bc9-40b0-b6d4-22a950af5ffb", "daicho_shubetsu_cd": "FUD25" }, "geometry": { "type": "Polygon", "coordinates": [ [ [ 139.875429428, 35.915010276 ], [ 139.87620182500001, 35.914507933 ], [ 139.876171725, 35.914497636 ], [ 139.875984018, 35.914428007 ], [ 139.87587792, 35.914384901 ], [ 139.875755499, 35.914331844 ], [ 139.875429428, 35.915010276 ] ] ] } },
{ "type": "Feature", "properties": { "fid": 815, "polygon_uuid": "fbd5505f-ed4e-48cc-a1d0-237fda4cae16", "daicho_shubetsu_cd": "FUD25" }, "geometry": { "type": "Polygon", "coordinates": [ [ [ 139.879962881000012, 35.917598171 ], [ 139.880237361000013, 35.917210194 ], [ 139.880015538, 35.917105364 ], [ 139.87955754, 35.917742627 ], [ 139.879743620999989, 35.917924334 ], [ 139.879962881000012, 35.917598171 ] ] ] } },
{ "type": "Feature", "properties": { "fid": 860, "polygon_uuid": "f0440a2a-5cd5-4c00-a088-25674c749ae1", "daicho_shubetsu_cd": "FUD25" }, "geometry": { "type": "Polygon", "coordinates": [ [ [ 139.872274985, 35.924441449 ], [ 139.872746404999987, 35.924144029 ], [ 139.872757051, 35.924137312 ], [ 139.872951772, 35.924325712 ], [ 139.872981027, 35.924311422 ], [ 139.873059017, 35.924224918 ], [ 139.873167237, 35.92412095 ], [ 139.87290178500001, 35.923844148 ], [ 139.872144131, 35.92433867 ], [ 139.872246696, 35.924437571 ], [ 139.872274985, 35.924441449 ] ] ] } },
{ "type": "Feature", "properties": { "fid": 949, "polygon_uuid": "b2e25ec2-015d-4e0e-95ca-29531971f48c", "daicho_shubetsu_cd": "FUD25" }, "geometry": { "type": "Polygon", "coordinates": [ [ [ 139.873702688, 35.92155532 ], [ 139.874568608, 35.920990053 ], [ 139.874183257999988, 35.92059842 ], [ 139.873590695, 35.921440528 ], [ 139.873702688, 35.92155532 ] ] ] } },
{ "type": "Feature", "properties": { "fid": 1121, "polygon_uuid": "f6dabd0c-776d-4e62-a3a1-31139565c6c6", "daicho_shubetsu_cd": "FUD25" }, "geometry": { "type": "Polygon", "coordinates": [ [ [ 139.868456022, 35.927192024 ], [ 139.868087417, 35.927414502 ], [ 139.867968432, 35.927486316 ], [ 139.86802443, 35.927555666 ], [ 139.868181263, 35.927712413 ], [ 139.868664409, 35.92740391 ], [ 139.868456022, 35.927192024 ] ] ] } },
{ "type": "Feature", "properties": { "fid": 1147, "polygon_uuid": "2cbfef46-ee38-4fdc-83dd-3235f70d02a0", "daicho_shubetsu_cd": "FUD25" }, "geometry": { "type": "Polygon", "coordinates": [ [ [ 139.874639777, 35.922514481 ], [ 139.874890601, 35.922792838 ], [ 139.874912161999987, 35.922786252 ], [ 139.875009165, 35.922722638 ], [ 139.874758353, 35.922468398 ], [ 139.874736786999989, 35.922461828 ], [ 139.874717921000013, 35.92246622 ], [ 139.874639777, 35.922514481 ] ] ] } },
{ "type": "Feature", "properties": { "fid": 1153, "polygon_uuid": "62165232-8e50-40f9-bf39-3265a72ad95c", "daicho_shubetsu_cd": "FUD25" }, "geometry": { "type": "Polygon", "coordinates": [ [ [ 139.870410188, 35.926128846 ], [ 139.870161382, 35.92587855 ], [ 139.869336869, 35.926411564 ], [ 139.869378829999988, 35.92645534 ], [ 139.869500592, 35.926577012 ], [ 139.869546503, 35.926625681 ], [ 139.869570466, 35.926669489 ], [ 139.870410188, 35.926128846 ] ] ] } },
{ "type": "Feature", "properties": { "fid": 1250, "polygon_uuid": "8f128961-f6c0-489e-8d8b-35f611e6f30b", "daicho_shubetsu_cd": "FUD25" }, "geometry": { "type": "Polygon", "coordinates": [ [ [ 139.880083246999988, 35.918278843 ], [ 139.880124195, 35.918250265 ], [ 139.880419475999986, 35.917831246 ], [ 139.880237575, 35.917749568 ], [ 139.879945643000013, 35.918146117 ], [ 139.880083246999988, 35.918278843 ] ] ] } },
{ "type": "Feature", "properties": { "fid": 1366, "polygon_uuid": "a8f3c966-f8ef-4402-b635-3ae277497e53", "daicho_shubetsu_cd": "FUD25" }, "geometry": { "type": "Polygon", "coordinates": [ [ [ 139.875236917, 35.916913923 ], [ 139.87617292600001, 35.916312851 ], [ 139.875961905, 35.916122522 ], [ 139.875032512, 35.916707067 ], [ 139.875139108000013, 35.916814942 ], [ 139.875236917, 35.916913923 ] ] ] } },
{ "type": "Feature", "properties": { "fid": 1397, "polygon_uuid": "c9494b30-6c7a-4692-92a4-3c3b58bbdd3d", "daicho_shubetsu_cd": "FUD25" }, "geometry": { "type": "Polygon", "coordinates": [ [ [ 139.877383724999987, 35.919101811 ], [ 139.877122121000014, 35.918835614 ], [ 139.876267002, 35.919409349 ], [ 139.876525824, 35.919672083 ], [ 139.877383724999987, 35.919101811 ] ] ] } },
{ "type": "Feature", "properties": { "fid": 1407, "polygon_uuid": "d5628ed2-3550-4af3-b394-3ca30a4dddb0", "daicho_shubetsu_cd": "FUD25" }, "geometry": { "type": "Polygon", "coordinates": [ [ [ 139.87548584000001, 35.92192222 ], [ 139.875388776, 35.921823578 ], [ 139.874517835, 35.922390835 ], [ 139.874612809000013, 35.92248818 ], [ 139.87548584000001, 35.92192222 ] ] ] } },
{ "type": "Feature", "properties": { "fid": 1413, "polygon_uuid": "2f6c0d2d-f18a-4940-8b27-3cf66ba8b091", "daicho_shubetsu_cd": "FUD25" }, "geometry": { "type": "Polygon", "coordinates": [ [ [ 139.874934456, 35.919532405 ], [ 139.874981295, 35.919575113 ], [ 139.874931587, 35.919642964 ], [ 139.875111637, 35.919823791 ], [ 139.875996467, 35.919242965 ], [ 139.875989133, 35.919207266 ], [ 139.875544129, 35.918752817 ], [ 139.875509007, 35.918734978 ], [ 139.875492920999989, 35.918749265 ], [ 139.874934456, 35.919532405 ] ] ] } },
{ "type": "Feature", "properties": { "fid": 1473, "polygon_uuid": "ab0c7c37-43b7-417a-a213-3fb4b8451a03", "daicho_shubetsu_cd": "FUD25" }, "geometry": { "type": "Polygon", "coordinates": [ [ [ 139.871924283999988, 35.925902159 ], [ 139.872086773, 35.925806416 ], [ 139.872184557999987, 35.925544264 ], [ 139.871831173, 35.925781937 ], [ 139.871849127, 35.925800631 ], [ 139.871830601, 35.925818091 ], [ 139.871924283999988, 35.925902159 ] ] ] } },
{ "type": "Feature", "properties": { "fid": 1532, "polygon_uuid": "e42d2447-da10-4f65-a1aa-41d3301afae0", "daicho_shubetsu_cd": "FUD25" }, "geometry": { "type": "Polygon", "coordinates": [ [ [ 139.874741250999989, 35.921136439 ], [ 139.875615622, 35.920568248 ], [ 139.875492313, 35.920442391 ], [ 139.874616436999986, 35.921010245 ], [ 139.874741250999989, 35.921136439 ] ] ] } },
{ "type": "Feature", "properties": { "fid": 1626, "polygon_uuid": "948f2560-8359-4b66-8c13-457ecfde1a4f", "daicho_shubetsu_cd": "FUD25" }, "geometry": { "type": "Polygon", "coordinates": [ [ [ 139.878296056000011, 35.915411421 ], [ 139.878206023, 35.91554167 ], [ 139.878176773, 35.915582733 ], [ 139.878440915999988, 35.915721128 ], [ 139.878479162, 35.915766336 ], [ 139.878487408000012, 35.915824706 ], [ 139.878648792, 35.915584131 ], [ 139.878296056000011, 35.915411421 ] ] ] } },
{ "type": "Feature", "properties": { "fid": 1663, "polygon_uuid": "f2539200-f68a-4d8a-a608-46de124c0584", "daicho_shubetsu_cd": "FUD25" }, "geometry": { "type": "Polygon", "coordinates": [ [ [ 139.878508597, 35.918807641 ], [ 139.878567481, 35.918730926 ], [ 139.878532038, 35.918690841 ], [ 139.87760770700001, 35.919294215 ], [ 139.877669702, 35.919356919 ], [ 139.878508597, 35.918807641 ] ] ] } },
{ "type": "Feature", "properties": { "fid": 1690, "polygon_uuid": "1919cb9c-e9d1-4097-994f-483c1b873767", "daicho_shubetsu_cd": "FUD25" }, "geometry": { "type": "Polygon", "coordinates": [ [ [ 139.875655271, 35.917337289 ], [ 139.875880002, 35.917564709 ], [ 139.876008131, 35.91769437 ], [ 139.876095977, 35.917783266 ], [ 139.876108213, 35.917776624 ], [ 139.876736008, 35.916830543 ], [ 139.87661355, 35.916717749 ], [ 139.875655271, 35.917337289 ] ] ] } },
{ "type": "Feature", "properties": { "fid": 1696, "polygon_uuid": "2d397a88-b530-4186-95cd-48a6df1dcbd2", "daicho_shubetsu_cd": "FUD25" }, "geometry": { "type": "Polygon", "coordinates": [ [ [ 139.869125258, 35.92783562 ], [ 139.870009821999986, 35.927263092 ], [ 139.869785382, 35.927037617 ], [ 139.868906, 35.927610646 ], [ 139.869125258, 35.92783562 ] ] ] } },
{ "type": "Feature", "properties": { "fid": 1755, "polygon_uuid": "0333b967-60a1-48a1-8478-4b865fe3b5ce", "daicho_shubetsu_cd": "FUD25" }, "geometry": { "type": "Polygon", "coordinates": [ [ [ 139.877457948999989, 35.917222021 ], [ 139.87834001600001, 35.916638242 ], [ 139.878197482, 35.916494984 ], [ 139.877312608000011, 35.91707522 ], [ 139.877457948999989, 35.917222021 ] ] ] } },
{ "type": "Feature", "properties": { "fid": 1929, "polygon_uuid": "a7abc6b2-8a59-4e82-9f4a-5330278ae2f0", "daicho_shubetsu_cd": "FUD25" }, "geometry": { "type": "Polygon", "coordinates": [ [ [ 139.867908000999989, 35.928280309 ], [ 139.868070126, 35.928442224 ], [ 139.868299267999987, 35.928301259 ], [ 139.868307268, 35.928312095 ], [ 139.868328592000012, 35.928316425 ], [ 139.869082612999989, 35.92782913 ], [ 139.868891905999988, 35.927635224 ], [ 139.867908000999989, 35.928280309 ] ] ] } },
{ "type": "Feature", "properties": { "fid": 1934, "polygon_uuid": "380f1cbd-949d-40f1-9310-535dcde024ba", "daicho_shubetsu_cd": "FUD25" }, "geometry": { "type": "Polygon", "coordinates": [ [ [ 139.87548584000001, 35.92192222 ], [ 139.874612809000013, 35.92248818 ], [ 139.874639777, 35.922514481 ], [ 139.874717921000013, 35.92246622 ], [ 139.874736786999989, 35.922461828 ], [ 139.874758353, 35.922468398 ], [ 139.875009165, 35.922722638 ], [ 139.875785193000013, 35.922218098 ], [ 139.87548584000001, 35.92192222 ] ] ] } },
{ "type": "Feature", "properties": { "fid": 1985, "polygon_uuid": "7aa37e2f-f2d4-4646-8c43-55cc252644fd", "daicho_shubetsu_cd": "FUD25" }, "geometry": { "type": "Polygon", "coordinates": [ [ [ 139.873844405999989, 35.920226152 ], [ 139.874139235, 35.920523214 ], [ 139.874318569, 35.920273186 ], [ 139.874094459, 35.92006432 ], [ 139.873844405999989, 35.920226152 ] ] ] } },
{ "type": "Feature", "properties": { "fid": 2023, "polygon_uuid": "6796cce4-7d98-40bd-9898-572d72500859", "daicho_shubetsu_cd": "FUD25" }, "geometry": { "type": "Polygon", "coordinates": [ [ [ 139.877099238, 35.920321169 ], [ 139.876645552000014, 35.920616286 ], [ 139.876716674, 35.920689081 ], [ 139.877161834, 35.920381017 ], [ 139.877099238, 35.920321169 ] ] ] } },
{ "type": "Feature", "properties": { "fid": 2040, "polygon_uuid": "4a6d145f-1107-40ad-9815-57cf8012a1ad", "daicho_shubetsu_cd": "FUD25" }, "geometry": { "type": "Polygon", "coordinates": [ [ [ 139.86868654700001, 35.928830355 ], [ 139.869528493, 35.928279998 ], [ 139.869427645, 35.928178023 ], [ 139.868642587000011, 35.92868518 ], [ 139.868566528, 35.928749465 ], [ 139.868639721, 35.928823229 ], [ 139.86868654700001, 35.928830355 ] ] ] } },
{ "type": "Feature", "properties": { "fid": 2084, "polygon_uuid": "ad3d1cdd-c836-4a60-b30a-5a2609389753", "daicho_shubetsu_cd": "FUD25" }, "geometry": { "type": "Polygon", "coordinates": [ [ [ 139.867379241, 35.931272846 ], [ 139.86747702, 35.931197866 ], [ 139.867198771, 35.930914663 ], [ 139.867170175000012, 35.930906215 ], [ 139.867136383, 35.930906225 ], [ 139.867112993, 35.930912573 ], [ 139.867049723, 35.930953392 ], [ 139.867379241, 35.931272846 ] ] ] } },
{ "type": "Feature", "properties": { "fid": 2110, "polygon_uuid": "64874eaf-fb03-4698-9a99-5b6ab430dd15", "daicho_shubetsu_cd": "FUD25" }, "geometry": { "type": "Polygon", "coordinates": [ [ [ 139.866979553, 35.929982244 ], [ 139.867157996, 35.929847199 ], [ 139.866837946, 35.929503992 ], [ 139.866632239000012, 35.929645964 ], [ 139.866979553, 35.929982244 ] ] ] } },
{ "type": "Feature", "properties": { "fid": 2127, "polygon_uuid": "2feba7d6-b580-4106-99a7-5c132ddea7e1", "daicho_shubetsu_cd": "FUD25" }, "geometry": { "type": "Polygon", "coordinates": [ [ [ 139.877312608000011, 35.91707522 ], [ 139.878197482, 35.916494984 ], [ 139.877959, 35.916239973 ], [ 139.877366996, 35.91662402 ], [ 139.877068659, 35.916828821 ], [ 139.877312608000011, 35.91707522 ] ] ] } },
{ "type": "Feature", "properties": { "fid": 2191, "polygon_uuid": "9a807fbb-2d86-4dd7-857f-5e863ff719ad", "daicho_shubetsu_cd": "FUD25" }, "geometry": { "type": "Polygon", "coordinates": [ [ [ 139.866614607, 35.930351877 ], [ 139.86620894, 35.930631835 ], [ 139.866411219000014, 35.93083922 ], [ 139.866811160999987, 35.930580241 ], [ 139.866811985999988, 35.930540928 ], [ 139.866614607, 35.930351877 ] ] ] } },
{ "type": "Feature", "properties": { "fid": 2205, "polygon_uuid": "ec1df2d9-43dc-41b8-9c0f-5f13a9e44ff0", "daicho_shubetsu_cd": "FUD25" }, "geometry": { "type": "Polygon", "coordinates": [ [ [ 139.873808812, 35.921022131 ], [ 139.874134715, 35.920548447 ], [ 139.87393493, 35.920345199 ], [ 139.873456885, 35.920663555 ], [ 139.873808812, 35.921022131 ] ] ] } },
{ "type": "Feature", "properties": { "fid": 2296, "polygon_uuid": "b6f4e066-8525-41e8-aeb1-6385dccf42a1", "daicho_shubetsu_cd": "FUD25" }, "geometry": { "type": "Polygon", "coordinates": [ [ [ 139.874354978000014, 35.918333565 ], [ 139.874216307000012, 35.918428751 ], [ 139.874050445, 35.918539434 ], [ 139.874240996, 35.918833635 ], [ 139.874477561, 35.91868974 ], [ 139.874548318, 35.918760516 ], [ 139.874670673, 35.918674186 ], [ 139.874354978000014, 35.918333565 ] ] ] } },
{ "type": "Feature", "properties": { "fid": 2317, "polygon_uuid": "06a38b2f-ed78-465b-84b5-641e4c03e92f", "daicho_shubetsu_cd": "FUD25" }, "geometry": { "type": "Polygon", "coordinates": [ [ [ 139.866883519999988, 35.931435194 ], [ 139.866446337000014, 35.931708061 ], [ 139.866471302, 35.931735114 ], [ 139.866444845, 35.931757904 ], [ 139.866593543, 35.931906317 ], [ 139.867004095999988, 35.931561614 ], [ 139.866883519999988, 35.931435194 ] ] ] } },
{ "type": "Feature", "properties": { "fid": 2328, "polygon_uuid": "86dc7fa2-7a20-436d-aa67-648fdda7b276", "daicho_shubetsu_cd": "FUD25" }, "geometry": { "type": "Polygon", "coordinates": [ [ [ 139.873798676, 35.923181576 ], [ 139.874006791, 35.923391684 ], [ 139.874860966, 35.92282135 ], [ 139.874660324, 35.922615562 ], [ 139.873798676, 35.923181576 ] ] ] } },
{ "type": "Feature", "properties": { "fid": 2343, "polygon_uuid": "4b9a5961-0370-47ec-90c6-651a8f22c489", "daicho_shubetsu_cd": "FUD25" }, "geometry": { "type": "Polygon", "coordinates": [ [ [ 139.87713813900001, 35.917546309 ], [ 139.87729718, 35.917438402 ], [ 139.877198271999987, 35.917333289 ], [ 139.876263345000012, 35.91793442 ], [ 139.876368594000013, 35.918040879 ], [ 139.87713813900001, 35.917546309 ] ] ] } },
{ "type": "Feature", "properties": { "fid": 2350, "polygon_uuid": "4818a488-5130-44d6-bbd9-654c1f1b2151", "daicho_shubetsu_cd": "FUD25" }, "geometry": { "type": "Polygon", "coordinates": [ [ [ 139.877984858, 35.918114161 ], [ 139.877796612, 35.91792802 ], [ 139.876866312, 35.918544317 ], [ 139.877052303999989, 35.918732442 ], [ 139.877984858, 35.918114161 ] ] ] } },
{ "type": "Feature", "properties": { "fid": 2423, "polygon_uuid": "86cb6105-0451-4bb5-862e-67f01f1327c6", "daicho_shubetsu_cd": "FUD25" }, "geometry": { "type": "Polygon", "coordinates": [ [ [ 139.869950448, 35.92867614 ], [ 139.870837304, 35.928097161 ], [ 139.870720646, 35.927979344 ], [ 139.8698384, 35.928562443 ], [ 139.869950448, 35.92867614 ] ] ] } },
{ "type": "Feature", "properties": { "fid": 2457, "polygon_uuid": "c7f67b8c-bb90-4e74-87a6-6952c20bb022", "daicho_shubetsu_cd": "FUD25" }, "geometry": { "type": "Polygon", "coordinates": [ [ [ 139.878281501, 35.918407485 ], [ 139.878093906, 35.918221989 ], [ 139.877155832999989, 35.918837159 ], [ 139.877342688, 35.919026158 ], [ 139.878281501, 35.918407485 ] ] ] } },
{ "type": "Feature", "properties": { "fid": 2504, "polygon_uuid": "9b02f17d-f042-49d4-b27f-6b7da5d19402", "daicho_shubetsu_cd": "FUD25" }, "geometry": { "type": "Polygon", "coordinates": [ [ [ 139.870161382, 35.92587855 ], [ 139.870087518, 35.925804242 ], [ 139.869271129, 35.926342985 ], [ 139.869336869, 35.926411564 ], [ 139.870161382, 35.92587855 ] ] ] } },
{ "type": "Feature", "properties": { "fid": 2563, "polygon_uuid": "594f8feb-50a1-4b49-9810-6da29aed1265", "daicho_shubetsu_cd": "FUD25" }, "geometry": { "type": "Polygon", "coordinates": [ [ [ 139.877961559999989, 35.917730684 ], [ 139.878846562, 35.917147361 ], [ 139.878733051000012, 35.917033275 ], [ 139.877851472, 35.917619492 ], [ 139.877961559999989, 35.917730684 ] ] ] } },
{ "type": "Feature", "properties": { "fid": 2615, "polygon_uuid": "84bb4f27-c8cb-4535-9e88-6f91ca66af0c", "daicho_shubetsu_cd": "FUD25" }, "geometry": { "type": "Polygon", "coordinates": [ [ [ 139.878383615, 35.918522975 ], [ 139.878281501, 35.918407485 ], [ 139.877342688, 35.919026158 ], [ 139.87745141, 35.919136126 ], [ 139.878383615, 35.918522975 ] ] ] } },
{ "type": "Feature", "properties": { "fid": 2657, "polygon_uuid": "9e12a31d-9e4a-4f1e-b01a-7105875f771a", "daicho_shubetsu_cd": "FUD25" }, "geometry": { "type": "Polygon", "coordinates": [ [ [ 139.870259291, 35.925953377 ], [ 139.87044891, 35.926145909 ], [ 139.87084825, 35.9258888 ], [ 139.871400421, 35.925521104 ], [ 139.871214167, 35.92535806 ], [ 139.871191257, 35.925371623 ], [ 139.871169257, 35.925357165 ], [ 139.870259291, 35.925953377 ] ] ] } },
{ "type": "Feature", "properties": { "fid": 2665, "polygon_uuid": "2d4d2982-1f1a-4c96-945a-71bd6bdf9f2e", "daicho_shubetsu_cd": "FUD25" }, "geometry": { "type": "Polygon", "coordinates": [ [ [ 139.875514763000012, 35.917195098 ], [ 139.876476968, 35.916587077 ], [ 139.876345357, 35.916468373 ], [ 139.875398986, 35.917077934 ], [ 139.875514763000012, 35.917195098 ] ] ] } },
{ "type": "Feature", "properties": { "fid": 2697, "polygon_uuid": "91ff25da-2593-4fc9-bad9-72f91c3c74b3", "daicho_shubetsu_cd": "FUD25" }, "geometry": { "type": "Polygon", "coordinates": [ [ [ 139.878778705, 35.915415119 ], [ 139.878648792, 35.915584131 ], [ 139.878487408000012, 35.915824706 ], [ 139.878238668, 35.916195499 ], [ 139.878265017, 35.916221671 ], [ 139.878566256, 35.916362211 ], [ 139.879125665, 35.915578935 ], [ 139.878778705, 35.915415119 ] ] ] } },
{ "type": "Feature", "properties": { "fid": 2796, "polygon_uuid": "aaa008b0-90f6-428e-bc2a-77ced77cb6ec", "daicho_shubetsu_cd": "FUD25" }, "geometry": { "type": "Polygon", "coordinates": [ [ [ 139.870959934000012, 35.926660336 ], [ 139.871069248, 35.926770373 ], [ 139.871808109999989, 35.92628683 ], [ 139.87181784, 35.926234781 ], [ 139.871802218, 35.926204639 ], [ 139.871789607000011, 35.926118163 ], [ 139.870959934000012, 35.926660336 ] ] ] } },
{ "type": "Feature", "properties": { "fid": 2836, "polygon_uuid": "afd90dc7-06db-4ad5-84a1-79fcef426edb", "daicho_shubetsu_cd": "FUD25" }, "geometry": { "type": "Polygon", "coordinates": [ [ [ 139.870661125999987, 35.927818234 ], [ 139.871522361, 35.927252191 ], [ 139.871327275999988, 35.927056639 ], [ 139.87044276, 35.927633877 ], [ 139.870616845, 35.927806152 ], [ 139.870637652, 35.927798741 ], [ 139.870661125999987, 35.927818234 ] ] ] } },
{ "type": "Feature", "properties": { "fid": 2920, "polygon_uuid": "b93e8b64-22d7-473d-8116-7d75ea6e9e7e", "daicho_shubetsu_cd": "FUD25" }, "geometry": { "type": "Polygon", "coordinates": [ [ [ 139.866572563, 35.931004637 ], [ 139.866687627, 35.931122605 ], [ 139.867102349, 35.930861864 ], [ 139.86710233, 35.930819022 ], [ 139.867000803, 35.930721778 ], [ 139.866572563, 35.931004637 ] ] ] } },
{ "type": "Feature", "properties": { "fid": 2926, "polygon_uuid": "136a9dbf-f55c-486e-93f6-7dd1e699f736", "daicho_shubetsu_cd": "FUD25" }, "geometry": { "type": "Polygon", "coordinates": [ [ [ 139.870044054, 35.925741168 ], [ 139.870598217, 35.925377632 ], [ 139.87058628, 35.925360207 ], [ 139.870604703, 35.925342049 ], [ 139.870496437000014, 35.925232034 ], [ 139.870436598999987, 35.925267755 ], [ 139.870408771, 35.925278417 ], [ 139.870391037, 35.925278422 ], [ 139.86991010700001, 35.925602281 ], [ 139.870044054, 35.925741168 ] ] ] } },
{ "type": "Feature", "properties": { "fid": 2967, "polygon_uuid": "00df16b1-b604-43a8-b625-7fa3ef31420b", "daicho_shubetsu_cd": "FUD25" }, "geometry": { "type": "Polygon", "coordinates": [ [ [ 139.871130356, 35.924136614 ], [ 139.871403463, 35.924421095 ], [ 139.871610186, 35.924124731 ], [ 139.871179283, 35.923673353 ], [ 139.870888572000013, 35.923865578 ], [ 139.870884417000013, 35.923888172 ], [ 139.871130356, 35.924136614 ] ] ] } },
{ "type": "Feature", "properties": { "fid": 3015, "polygon_uuid": "017c24b2-c41f-4e20-b8ce-818c5c641146", "daicho_shubetsu_cd": "FUD25" }, "geometry": { "type": "Polygon", "coordinates": [ [ [ 139.880268795, 35.917156486 ], [ 139.880400097, 35.917217739 ], [ 139.880948141, 35.916439376 ], [ 139.880819164, 35.916378484 ], [ 139.880268795, 35.917156486 ] ] ] } },
{ "type": "Feature", "properties": { "fid": 3031, "polygon_uuid": "5926f4c6-0790-47a5-b45d-8274cd4e9614", "daicho_shubetsu_cd": "FUD25" }, "geometry": { "type": "Polygon", "coordinates": [ [ [ 139.879945643000013, 35.918146117 ], [ 139.880237575, 35.917749568 ], [ 139.880154736, 35.917712372 ], [ 139.879883065, 35.918085759 ], [ 139.879945643000013, 35.918146117 ] ] ] } },
{ "type": "Feature", "properties": { "fid": 3191, "polygon_uuid": "1c9046d7-f903-4bca-9649-8914a633d134", "daicho_shubetsu_cd": "FUD25" }, "geometry": { "type": "Polygon", "coordinates": [ [ [ 139.865989406000011, 35.932416993 ], [ 139.865528869, 35.931947538 ], [ 139.865265354, 35.932113853 ], [ 139.865252367000011, 35.932137112 ], [ 139.865254977, 35.932162479 ], [ 139.865707449000013, 35.93260842 ], [ 139.86572045, 35.932618987 ], [ 139.865749043, 35.932618979 ], [ 139.865989406000011, 35.932416993 ] ] ] } },
{ "type": "Feature", "properties": { "fid": 3195, "polygon_uuid": "9c55dae2-02fe-48f4-97a4-893e965735e6", "daicho_shubetsu_cd": "FUD25" }, "geometry": { "type": "Polygon", "coordinates": [ [ [ 139.875343894999986, 35.915188237 ], [ 139.875462272, 35.915307672 ], [ 139.876412375, 35.914687451 ], [ 139.876249255, 35.914524158 ], [ 139.87620182500001, 35.914507933 ], [ 139.875429428, 35.915010276 ], [ 139.875343894999986, 35.915188237 ] ] ] } },
{ "type": "Feature", "properties": { "fid": 3290, "polygon_uuid": "b555cb3d-b388-4d0f-a914-8d3c5f860f4a", "daicho_shubetsu_cd": "FUD25" }, "geometry": { "type": "Polygon", "coordinates": [ [ [ 139.877796612, 35.91792802 ], [ 139.877676097, 35.917808851 ], [ 139.876741734, 35.918418308 ], [ 139.876866312, 35.918544317 ], [ 139.877796612, 35.91792802 ] ] ] } },
{ "type": "Feature", "properties": { "fid": 3299, "polygon_uuid": "7b34c368-6c9e-42f5-bd7d-8dc82020784a", "daicho_shubetsu_cd": "FUD25" }, "geometry": { "type": "Polygon", "coordinates": [ [ [ 139.870593174, 35.924762148 ], [ 139.870925244, 35.925054281 ], [ 139.870947465, 35.925054273 ], [ 139.870969681, 35.92504297 ], [ 139.871200732, 35.924711735 ], [ 139.87099442600001, 35.924506725 ], [ 139.870902789000013, 35.924559847 ], [ 139.870593174, 35.924762148 ] ] ] } },
{ "type": "Feature", "properties": { "fid": 3316, "polygon_uuid": "dcd22539-bc52-4f7c-a2fb-8e5c0399ba3e", "daicho_shubetsu_cd": "FUD25" }, "geometry": { "type": "Polygon", "coordinates": [ [ [ 139.879310802, 35.916709564 ], [ 139.879498111, 35.916796948 ], [ 139.880047912, 35.916014359 ], [ 139.879861752000011, 35.915926468 ], [ 139.879310802, 35.916709564 ] ] ] } },
{ "type": "Feature", "properties": { "fid": 3320, "polygon_uuid": "d7470bc1-8565-478b-94a9-8e7eedf8027e", "daicho_shubetsu_cd": "FUD25" }, "geometry": { "type": "Polygon", "coordinates": [ [ [ 139.880067014, 35.917062352 ], [ 139.880268795, 35.917156486 ], [ 139.880819164, 35.916378484 ], [ 139.880618249, 35.916283629 ], [ 139.880067014, 35.917062352 ] ] ] } },
{ "type": "Feature", "properties": { "fid": 3375, "polygon_uuid": "dd446fe8-a72d-45fd-a240-9059c16ea1be", "daicho_shubetsu_cd": "FUD25" }, "geometry": { "type": "Polygon", "coordinates": [ [ [ 139.877787733, 35.916065096 ], [ 139.877553643999988, 35.91583199 ], [ 139.877514174999988, 35.915888236 ], [ 139.877723302, 35.916075594 ], [ 139.877752924, 35.916085968 ], [ 139.877787733, 35.916065096 ] ] ] } },
{ "type": "Feature", "properties": { "fid": 3423, "polygon_uuid": "2597f53d-d05c-498d-987d-92f7d8aec00f", "daicho_shubetsu_cd": "FUD25" }, "geometry": { "type": "Polygon", "coordinates": [ [ [ 139.871804472, 35.923962443 ], [ 139.872152333, 35.924307431 ], [ 139.872652112, 35.923980969 ], [ 139.872149344, 35.923470885 ], [ 139.871804472, 35.923962443 ] ] ] } },
{ "type": "Feature", "properties": { "fid": 3453, "polygon_uuid": "ff137871-3dbe-463a-bfe5-94d4becf7a81", "daicho_shubetsu_cd": "FUD25" }, "geometry": { "type": "Polygon", "coordinates": [ [ [ 139.877176827, 35.915384646 ], [ 139.877271588000013, 35.915314753 ], [ 139.877425429999988, 35.915201284 ], [ 139.877147367, 35.915020495 ], [ 139.877018717999988, 35.915187152 ], [ 139.877012888, 35.915225236 ], [ 139.877176827, 35.915384646 ] ] ] } },
{ "type": "Feature", "properties": { "fid": 3465, "polygon_uuid": "64350117-01ac-4b4d-873a-957da804b24e", "daicho_shubetsu_cd": "FUD25" }, "geometry": { "type": "Polygon", "coordinates": [ [ [ 139.867526484, 35.92868547 ], [ 139.867273053, 35.928848878 ], [ 139.867368569, 35.928946586 ], [ 139.867125018, 35.929119363 ], [ 139.867453655, 35.929452319 ], [ 139.867964543, 35.929128495 ], [ 139.867526484, 35.92868547 ] ] ] } },
{ "type": "Feature", "properties": { "fid": 3520, "polygon_uuid": "3f1fa04c-c904-4487-9848-97b1a0cbaf66", "daicho_shubetsu_cd": "FUD25" }, "geometry": { "type": "Polygon", "coordinates": [ [ [ 139.877808728, 35.91953427 ], [ 139.877585894, 35.919307527 ], [ 139.876727421999988, 35.919876726 ], [ 139.876942249, 35.920094797 ], [ 139.877808728, 35.91953427 ] ] ] } },
{ "type": "Feature", "properties": { "fid": 3568, "polygon_uuid": "065c7290-f1a2-4aff-b230-99c2b30feadf", "daicho_shubetsu_cd": "FUD25" }, "geometry": { "type": "Polygon", "coordinates": [ [ [ 139.873307969, 35.922686162 ], [ 139.87343790700001, 35.922817347 ], [ 139.874304069, 35.922250167 ], [ 139.874175105, 35.922117893 ], [ 139.873307969, 35.922686162 ] ] ] } },
{ "type": "Feature", "properties": { "fid": 3632, "polygon_uuid": "8ed13fec-c9a9-46e4-8113-9c833aad28e3", "daicho_shubetsu_cd": "FUD25" }, "geometry": { "type": "Polygon", "coordinates": [ [ [ 139.873305357, 35.919681733 ], [ 139.873589009999989, 35.91996882 ], [ 139.873983283, 35.919709624 ], [ 139.873959201, 35.919690051 ], [ 139.873981415, 35.919676489 ], [ 139.873916573, 35.919613251 ], [ 139.873879534, 35.919599708 ], [ 139.873855465, 35.919604234 ], [ 139.873812888, 35.919626842 ], [ 139.873677767, 35.919726295 ], [ 139.873497281999988, 35.919558265 ], [ 139.873305357, 35.919681733 ] ] ] } },
{ "type": "Feature", "properties": { "fid": 3646, "polygon_uuid": "c7062b14-17ca-4987-a4d6-9d0a9f1be029", "daicho_shubetsu_cd": "FUD25" }, "geometry": { "type": "Polygon", "coordinates": [ [ [ 139.880434091000012, 35.917805059 ], [ 139.880454562000011, 35.917786009 ], [ 139.880700135000012, 35.917428892 ], [ 139.880237361000013, 35.917210194 ], [ 139.879962881000012, 35.917598171 ], [ 139.880434091000012, 35.917805059 ] ] ] } },
{ "type": "Feature", "properties": { "fid": 3676, "polygon_uuid": "4175553e-ba41-4659-8108-9e6d832fbc30", "daicho_shubetsu_cd": "FUD25" }, "geometry": { "type": "Polygon", "coordinates": [ [ [ 139.876779258, 35.920015227 ], [ 139.876340459, 35.920304014 ], [ 139.876645552000014, 35.920616286 ], [ 139.877099238, 35.920321169 ], [ 139.876779258, 35.920015227 ] ] ] } },
{ "type": "Feature", "properties": { "fid": 3696, "polygon_uuid": "f8214c86-1c19-47da-ae75-9f5ecaaabb06", "daicho_shubetsu_cd": "FUD25" }, "geometry": { "type": "Polygon", "coordinates": [ [ [ 139.86461426, 35.931492855 ], [ 139.864625253000014, 35.931541051 ], [ 139.864785847, 35.931705042 ], [ 139.865272689, 35.931399857 ], [ 139.865371495, 35.931489086 ], [ 139.865600144000013, 35.931343595 ], [ 139.865308836999986, 35.931046156 ], [ 139.86461426, 35.931492855 ] ] ] } },
{ "type": "Feature", "properties": { "fid": 3706, "polygon_uuid": "af73f725-7573-4c4c-abf1-9fa61c8abfe0", "daicho_shubetsu_cd": "FUD25" }, "geometry": { "type": "Polygon", "coordinates": [ [ [ 139.878820336, 35.916480747 ], [ 139.879014858, 35.916571497 ], [ 139.879574502, 35.915790847 ], [ 139.879378321, 35.915698223 ], [ 139.878820336, 35.916480747 ] ] ] } },
{ "type": "Feature", "properties": { "fid": 3732, "polygon_uuid": "d5a60424-bbbf-4d1a-9af4-a0b6bbef05b1", "daicho_shubetsu_cd": "FUD25" }, "geometry": { "type": "Polygon", "coordinates": [ [ [ 139.870259291, 35.925953377 ], [ 139.871169257, 35.925357165 ], [ 139.87115165, 35.925345594 ], [ 139.871171951, 35.925322712 ], [ 139.871021891999987, 35.925189321 ], [ 139.870954725, 35.925227468 ], [ 139.870901578, 35.925177921 ], [ 139.870598217, 35.925377632 ], [ 139.870044054, 35.925741168 ], [ 139.870259291, 35.925953377 ] ] ] } },
{ "type": "Feature", "properties": { "fid": 3737, "polygon_uuid": "401def7b-13ce-4581-b67a-a0fe0722722d", "daicho_shubetsu_cd": "FUD25" }, "geometry": { "type": "Polygon", "coordinates": [ [ [ 139.876601103000013, 35.916336093 ], [ 139.876886874, 35.916664549 ], [ 139.877355707, 35.916023852 ], [ 139.877255865, 35.915918079 ], [ 139.876601103000013, 35.916336093 ] ] ] } },
{ "type": "Feature", "properties": { "fid": 3740, "polygon_uuid": "0fd61ac4-1b1e-4037-a97b-a1194e0b497c", "daicho_shubetsu_cd": "FUD25" }, "geometry": { "type": "Polygon", "coordinates": [ [ [ 139.875805125, 35.915583011 ], [ 139.876009176999986, 35.915695777 ], [ 139.876417030999988, 35.915456679 ], [ 139.876445608000012, 35.915489857 ], [ 139.876918706999987, 35.915194313 ], [ 139.876717019000012, 35.914992416 ], [ 139.875805125, 35.915583011 ] ] ] } },
{ "type": "Feature", "properties": { "fid": 3965, "polygon_uuid": "71219065-60eb-4f47-a3d9-aafa181654b5", "daicho_shubetsu_cd": "FUD25" }, "geometry": { "type": "Polygon", "coordinates": [ [ [ 139.877967813, 35.919696145 ], [ 139.877808728, 35.91953427 ], [ 139.876942249, 35.920094797 ], [ 139.877099272, 35.920254191 ], [ 139.877967813, 35.919696145 ] ] ] } },
{ "type": "Feature", "properties": { "fid": 3974, "polygon_uuid": "dc122957-c1ed-4af0-bae8-ab5b3043bbcb", "daicho_shubetsu_cd": "FUD25" }, "geometry": { "type": "Polygon", "coordinates": [ [ [ 139.877584915, 35.917350262 ], [ 139.87846741300001, 35.916766288 ], [ 139.87834001600001, 35.916638242 ], [ 139.877457948999989, 35.917222021 ], [ 139.877584915, 35.917350262 ] ] ] } },
{ "type": "Feature", "properties": { "fid": 3991, "polygon_uuid": "d3e92194-7111-4e74-bb52-abfdf38a6606", "daicho_shubetsu_cd": "FUD25" }, "geometry": { "type": "Polygon", "coordinates": [ [ [ 139.874207201, 35.922072443 ], [ 139.875073649, 35.921503321 ], [ 139.874971851, 35.921399866 ], [ 139.87410829, 35.92197106 ], [ 139.874207201, 35.922072443 ] ] ] } },
{ "type": "Feature", "properties": { "fid": 3995, "polygon_uuid": "e0dd58fd-f8a4-464e-a842-ac14c3e7824d", "daicho_shubetsu_cd": "FUD25" }, "geometry": { "type": "Polygon", "coordinates": [ [ [ 139.878655922, 35.918819569 ], [ 139.878614647, 35.918774048 ], [ 139.878508597, 35.918807641 ], [ 139.877669702, 35.919356919 ], [ 139.877734293, 35.91942225 ], [ 139.878655922, 35.918819569 ] ] ] } },
{ "type": "Feature", "properties": { "fid": 4031, "polygon_uuid": "24d4243a-a26a-4d74-8d8b-ad62f1af8e3c", "daicho_shubetsu_cd": "FUD25" }, "geometry": { "type": "Polygon", "coordinates": [ [ [ 139.875584706000012, 35.915380642 ], [ 139.875743908, 35.915546526 ], [ 139.87577656, 35.915573065 ], [ 139.875805125, 35.915583011 ], [ 139.876717019000012, 35.914992416 ], [ 139.876501983999987, 35.914777155 ], [ 139.875584706000012, 35.915380642 ] ] ] } },
{ "type": "Feature", "properties": { "fid": 4099, "polygon_uuid": "1c424f17-6a46-4fb8-a53d-b05addb99278", "daicho_shubetsu_cd": "FUD25" }, "geometry": { "type": "Polygon", "coordinates": [ [ [ 139.872652112, 35.923980969 ], [ 139.87289809, 35.923820291 ], [ 139.872370114, 35.923253913 ], [ 139.872329144, 35.923248372 ], [ 139.872288188999988, 35.92327298 ], [ 139.872149344, 35.923470885 ], [ 139.872652112, 35.923980969 ] ] ] } },
{ "type": "Feature", "properties": { "fid": 4208, "polygon_uuid": "553a4bf9-7b6a-4bdb-af5d-b462d81ae536", "daicho_shubetsu_cd": "FUD25" }, "geometry": { "type": "Polygon", "coordinates": [ [ [ 139.873124134, 35.920324511 ], [ 139.873611861, 35.920016526 ], [ 139.873373068, 35.919771551 ], [ 139.873322163000012, 35.919803198 ], [ 139.872894601000013, 35.920090636 ], [ 139.873124134, 35.920324511 ] ] ] } },
{ "type": "Feature", "properties": { "fid": 4218, "polygon_uuid": "866d1c2b-b30d-4df2-bd1b-b4b28d2acdd2", "daicho_shubetsu_cd": "FUD25" }, "geometry": { "type": "Polygon", "coordinates": [ [ [ 139.868418757, 35.92886997 ], [ 139.868007407, 35.929142927 ], [ 139.868127566999988, 35.929262331 ], [ 139.868655816, 35.928911405 ], [ 139.868527366, 35.928792287 ], [ 139.868418757, 35.92886997 ] ] ] } },
{ "type": "Feature", "properties": { "fid": 4249, "polygon_uuid": "204e1bf9-8662-4cdf-a3b3-b5a32d9d2bda", "daicho_shubetsu_cd": "FUD25" }, "geometry": { "type": "Polygon", "coordinates": [ [ [ 139.871812, 35.924809653 ], [ 139.872245075, 35.924523184 ], [ 139.872233353000013, 35.924489152 ], [ 139.872108436, 35.924359079 ], [ 139.871659885000014, 35.9246542 ], [ 139.871812, 35.924809653 ] ] ] } },
{ "type": "Feature", "properties": { "fid": 4261, "polygon_uuid": "059a5743-7e1a-4320-ad03-b6531c7be680", "daicho_shubetsu_cd": "FUD25" }, "geometry": { "type": "Polygon", "coordinates": [ [ [ 139.875049424, 35.919015882 ], [ 139.87463236, 35.919272909 ], [ 139.874621487000013, 35.919286188 ], [ 139.874605172, 35.919295044 ], [ 139.874665056, 35.919379099 ], [ 139.874784803000011, 35.919507385 ], [ 139.874822895, 35.919529496 ], [ 139.874847368, 35.919516213 ], [ 139.875141461, 35.919109448 ], [ 139.875049424, 35.919015882 ] ] ] } },
{ "type": "Feature", "properties": { "fid": 4312, "polygon_uuid": "09eb8f69-6002-4b14-a20b-b8badda2ceaa", "daicho_shubetsu_cd": "FUD25" }, "geometry": { "type": "Polygon", "coordinates": [ [ [ 139.879498111, 35.916796948 ], [ 139.879822061999988, 35.916948078 ], [ 139.880375613000012, 35.916169075 ], [ 139.880047912, 35.916014359 ], [ 139.879498111, 35.916796948 ] ] ] } },
{ "type": "Feature", "properties": { "fid": 4353, "polygon_uuid": "b97a3bd1-d2ae-47aa-b477-ba5c99c7dddf", "daicho_shubetsu_cd": "FUD25" }, "geometry": { "type": "Polygon", "coordinates": [ [ [ 139.870087518, 35.925804242 ], [ 139.869972518, 35.925688552 ], [ 139.8691571, 35.926229945 ], [ 139.86924509, 35.926315821 ], [ 139.869271129, 35.926342985 ], [ 139.870087518, 35.925804242 ] ] ] } },
{ "type": "Feature", "properties": { "fid": 4367, "polygon_uuid": "d350525e-5ac5-41e9-a8cd-bac4b37fe59d", "daicho_shubetsu_cd": "FUD25" }, "geometry": { "type": "Polygon", "coordinates": [ [ [ 139.87410829, 35.92197106 ], [ 139.874971851, 35.921399866 ], [ 139.874840856, 35.921266737 ], [ 139.873973527, 35.921832929 ], [ 139.87410829, 35.92197106 ] ] ] } },
{ "type": "Feature", "properties": { "fid": 4380, "polygon_uuid": "1d5b04c4-7cae-40cd-be53-bb3562689500", "daicho_shubetsu_cd": "FUD25" }, "geometry": { "type": "Polygon", "coordinates": [ [ [ 139.871831173, 35.925781937 ], [ 139.872184557999987, 35.925544264 ], [ 139.872186371999987, 35.925539402 ], [ 139.87228188200001, 35.925309231 ], [ 139.872171135, 35.925196738 ], [ 139.871570044, 35.925597926 ], [ 139.871787665, 35.925782402 ], [ 139.871817897, 35.925768112 ], [ 139.871831173, 35.925781937 ] ] ] } },
{ "type": "Feature", "properties": { "fid": 4492, "polygon_uuid": "bae7505e-8116-4ebf-9a04-bfb225ca750b", "daicho_shubetsu_cd": "FUD25" }, "geometry": { "type": "Polygon", "coordinates": [ [ [ 139.8698384, 35.928562443 ], [ 139.870720646, 35.927979344 ], [ 139.870574449, 35.927831696 ], [ 139.869687191, 35.928409011 ], [ 139.8698384, 35.928562443 ] ] ] } },
{ "type": "Feature", "properties": { "fid": 4510, "polygon_uuid": "a2606f10-e1af-4520-8e8a-c05187637c10", "daicho_shubetsu_cd": "FUD25" }, "geometry": { "type": "Polygon", "coordinates": [ [ [ 139.87343790700001, 35.922817347 ], [ 139.873564407, 35.92294506 ], [ 139.874428054, 35.922377333 ], [ 139.874304069, 35.922250167 ], [ 139.87343790700001, 35.922817347 ] ] ] } },
{ "type": "Feature", "properties": { "fid": 4619, "polygon_uuid": "b3df2507-d056-4024-ac9f-c5691851585f", "daicho_shubetsu_cd": "FUD25" }, "geometry": { "type": "Polygon", "coordinates": [ [ [ 139.874341195999989, 35.922209785 ], [ 139.875206749, 35.921638588 ], [ 139.875073649, 35.921503321 ], [ 139.874207201, 35.922072443 ], [ 139.874341195999989, 35.922209785 ] ] ] } },
{ "type": "Feature", "properties": { "fid": 4637, "polygon_uuid": "58cd59fe-175f-402e-9566-c630ded6549b", "daicho_shubetsu_cd": "FUD25" }, "geometry": { "type": "Polygon", "coordinates": [ [ [ 139.863632186, 35.932785411 ], [ 139.863935391000012, 35.932586398 ], [ 139.863713171, 35.932363575 ], [ 139.863393975, 35.932576172 ], [ 139.863579804000011, 35.932764867 ], [ 139.863600171, 35.932753566 ], [ 139.863632186, 35.932785411 ] ] ] } },
{ "type": "Feature", "properties": { "fid": 4661, "polygon_uuid": "c4f52750-2bc7-46ad-941e-c76cca01c097", "daicho_shubetsu_cd": "FUD25" }, "geometry": { "type": "Polygon", "coordinates": [ [ [ 139.867964543, 35.929128495 ], [ 139.867453655, 35.929452319 ], [ 139.867605895, 35.929606559 ], [ 139.868116047, 35.929269028 ], [ 139.867964543, 35.929128495 ] ] ] } },
{ "type": "Feature", "properties": { "fid": 4687, "polygon_uuid": "3a654b24-0b93-4036-ae0d-c8a053b1539a", "daicho_shubetsu_cd": "FUD25" }, "geometry": { "type": "Polygon", "coordinates": [ [ [ 139.865989406000011, 35.932416993 ], [ 139.86616842, 35.932266559 ], [ 139.865726977, 35.931822503 ], [ 139.865528869, 35.931947538 ], [ 139.865989406000011, 35.932416993 ] ] ] } },
{ "type": "Feature", "properties": { "fid": 4754, "polygon_uuid": "4dc71e31-d6c7-4189-b56a-cb7159e7d45e", "daicho_shubetsu_cd": "FUD25" }, "geometry": { "type": "Polygon", "coordinates": [ [ [ 139.871752781, 35.923930408 ], [ 139.8720697, 35.923471906 ], [ 139.871844063, 35.923234888 ], [ 139.871454696, 35.923495195 ], [ 139.871352812, 35.92355068 ], [ 139.871689498, 35.923900452 ], [ 139.871752781, 35.923930408 ] ] ] } },
{ "type": "Feature", "properties": { "fid": 4781, "polygon_uuid": "1f347bbd-a3b7-4278-822c-cc450a8b63de", "daicho_shubetsu_cd": "FUD25" }, "geometry": { "type": "Polygon", "coordinates": [ [ [ 139.870709428999987, 35.927903621 ], [ 139.871344158999989, 35.927485462 ], [ 139.871591126999988, 35.927322758 ], [ 139.871522361, 35.927252191 ], [ 139.870661125999987, 35.927818234 ], [ 139.870671227, 35.927826622 ], [ 139.870665952, 35.92785655 ], [ 139.870709428999987, 35.927903621 ] ] ] } },
{ "type": "Feature", "properties": { "fid": 4874, "polygon_uuid": "fe7cc648-7141-469e-96a2-d03ee94ed619", "daicho_shubetsu_cd": "FUD25" }, "geometry": { "type": "Polygon", "coordinates": [ [ [ 139.871478301, 35.925469435 ], [ 139.872063247, 35.925087147 ], [ 139.871909901, 35.924931381 ], [ 139.871283, 35.925345321 ], [ 139.871425627, 35.925468658 ], [ 139.871478301, 35.925469435 ] ] ] } },
{ "type": "Feature", "properties": { "fid": 4876, "polygon_uuid": "84093bdc-72ff-47a5-a796-d05efad3e960", "daicho_shubetsu_cd": "FUD25" }, "geometry": { "type": "Polygon", "coordinates": [ [ [ 139.878078484000014, 35.915310195 ], [ 139.877958885999988, 35.915253199 ], [ 139.877878148, 35.915352061 ], [ 139.877850422, 35.915381325 ], [ 139.877855574, 35.915407233 ], [ 139.87804490900001, 35.915503829 ], [ 139.878067269000013, 35.915465662 ], [ 139.878158762999988, 35.915346965 ], [ 139.878078484000014, 35.915310195 ] ] ] } },
{ "type": "Feature", "properties": { "fid": 4899, "polygon_uuid": "c75780a0-ea43-406a-b866-d15f75efa620", "daicho_shubetsu_cd": "FUD25" }, "geometry": { "type": "Polygon", "coordinates": [ [ [ 139.871878841000012, 35.924489189 ], [ 139.872081665, 35.924359803 ], [ 139.872064081, 35.924305066 ], [ 139.871912818, 35.924155245 ], [ 139.871701594, 35.924300645 ], [ 139.871878841000012, 35.924489189 ] ] ] } },
{ "type": "Feature", "properties": { "fid": 4936, "polygon_uuid": "1fedadd7-e5cf-402d-a4c0-d3650981e9b2", "daicho_shubetsu_cd": "FUD25" }, "geometry": { "type": "Polygon", "coordinates": [ [ [ 139.86461426, 35.931492855 ], [ 139.865308836999986, 35.931046156 ], [ 139.865114081, 35.930841313 ], [ 139.864396077, 35.931308215 ], [ 139.864561576, 35.931478589 ], [ 139.86461426, 35.931492855 ] ] ] } },
{ "type": "Feature", "properties": { "fid": 4950, "polygon_uuid": "e0ce8407-d7ef-49a0-9c29-d3d05cdfc492", "daicho_shubetsu_cd": "FUD25" }, "geometry": { "type": "Polygon", "coordinates": [ [ [ 139.878566256, 35.916362211 ], [ 139.878820336, 35.916480747 ], [ 139.879378321, 35.915698223 ], [ 139.879125665, 35.915578935 ], [ 139.878566256, 35.916362211 ] ] ] } },
{ "type": "Feature", "properties": { "fid": 4952, "polygon_uuid": "e67f0c44-53fa-419e-9c53-d3d70cf326bc", "daicho_shubetsu_cd": "FUD25" }, "geometry": { "type": "Polygon", "coordinates": [ [ [ 139.870344286, 35.927494474 ], [ 139.871199757, 35.926930797 ], [ 139.870978421, 35.926704385 ], [ 139.87012064000001, 35.927266117 ], [ 139.870138206, 35.927282773 ], [ 139.870122227, 35.927305543 ], [ 139.87029865, 35.92747918 ], [ 139.870313063999987, 35.927479675 ], [ 139.870344286, 35.927494474 ] ] ] } },
{ "type": "Feature", "properties": { "fid": 4961, "polygon_uuid": "84a9eb88-dbdc-4c8a-8e65-d445316f8b9d", "daicho_shubetsu_cd": "FUD25" }, "geometry": { "type": "Polygon", "coordinates": [ [ [ 139.877366996, 35.91662402 ], [ 139.877959, 35.916239973 ], [ 139.877787733, 35.916065096 ], [ 139.877752924, 35.916085968 ], [ 139.877723302, 35.916075594 ], [ 139.877514174999988, 35.915888236 ], [ 139.877147435000012, 35.916401141 ], [ 139.877366996, 35.91662402 ] ] ] } },
{ "type": "Feature", "properties": { "fid": 4975, "polygon_uuid": "062fe4df-e1c6-4646-8ea3-d4be422cc663", "daicho_shubetsu_cd": "FUD25" }, "geometry": { "type": "Polygon", "coordinates": [ [ [ 139.877232709999987, 35.920389643 ], [ 139.877259213, 35.920389633 ], [ 139.87810995800001, 35.919840782 ], [ 139.877967813, 35.919696145 ], [ 139.877099272, 35.920254191 ], [ 139.877232709999987, 35.920389643 ] ] ] } },
{ "type": "Feature", "properties": { "fid": 4976, "polygon_uuid": "eb3e7468-f99a-4db2-a80d-d4c19925368f", "daicho_shubetsu_cd": "FUD25" }, "geometry": { "type": "Polygon", "coordinates": [ [ [ 139.877161834, 35.920381017 ], [ 139.876716674, 35.920689081 ], [ 139.876901227, 35.920877975 ], [ 139.877180990999989, 35.920505226 ], [ 139.877190512, 35.920463816 ], [ 139.87717776, 35.920414652 ], [ 139.877161834, 35.920381017 ] ] ] } },
{ "type": "Feature", "properties": { "fid": 4986, "polygon_uuid": "f9a4bdb7-2d92-4292-83cc-d52f780798a8", "daicho_shubetsu_cd": "FUD25" }, "geometry": { "type": "Polygon", "coordinates": [ [ [ 139.871283, 35.925345321 ], [ 139.871909901, 35.924931381 ], [ 139.871669108, 35.924686785 ], [ 139.871662854, 35.924690841 ], [ 139.871315557, 35.9249161 ], [ 139.871304413, 35.924923329 ], [ 139.871394197, 35.925018505 ], [ 139.871256679999988, 35.925113468 ], [ 139.871149185, 35.925187698 ], [ 139.87112224, 35.925206304 ], [ 139.871283, 35.925345321 ] ] ] } },
{ "type": "Feature", "properties": { "fid": 5057, "polygon_uuid": "4af7e5f4-fcaa-4bcd-bb69-d7dd65c32177", "daicho_shubetsu_cd": "FUD25" }, "geometry": { "type": "Polygon", "coordinates": [ [ [ 139.874797358, 35.91973306 ], [ 139.874625224, 35.919975576 ], [ 139.874910879999987, 35.920268754 ], [ 139.875163316, 35.920106591 ], [ 139.874797358, 35.91973306 ] ] ] } },
{ "type": "Feature", "properties": { "fid": 5073, "polygon_uuid": "8e2c9266-0368-46cb-ac0d-d883d58af069", "daicho_shubetsu_cd": "FUD25" }, "geometry": { "type": "Polygon", "coordinates": [ [ [ 139.866411219000014, 35.93083922 ], [ 139.866572563, 35.931004637 ], [ 139.867000803, 35.930721778 ], [ 139.866843302, 35.930570924 ], [ 139.866811160999987, 35.930580241 ], [ 139.866411219000014, 35.93083922 ] ] ] } },
{ "type": "Feature", "properties": { "fid": 5090, "polygon_uuid": "db255df3-c56c-43dd-b83f-d9554d1789bc", "daicho_shubetsu_cd": "FUD25" }, "geometry": { "type": "Polygon", "coordinates": [ [ [ 139.872274985, 35.924441449 ], [ 139.872271094000013, 35.924462079 ], [ 139.872493598, 35.924681692 ], [ 139.872956152, 35.92436812 ], [ 139.872746404999987, 35.924144029 ], [ 139.872274985, 35.924441449 ] ] ] } },
{ "type": "Feature", "properties": { "fid": 5131, "polygon_uuid": "1802e52d-1ea6-4071-b547-db32cc0ef975", "daicho_shubetsu_cd": "FUD25" }, "geometry": { "type": "Polygon", "coordinates": [ [ [ 139.871797285000014, 35.927534309 ], [ 139.871591126999988, 35.927322758 ], [ 139.871344158999989, 35.927485462 ], [ 139.871616245000013, 35.927748817 ], [ 139.871686449, 35.92768691 ], [ 139.871797285000014, 35.927534309 ] ] ] } },
{ "type": "Feature", "properties": { "fid": 5191, "polygon_uuid": "ef7c385a-4360-4d4b-80df-de355de6980b", "daicho_shubetsu_cd": "FUD25" }, "geometry": { "type": "Polygon", "coordinates": [ [ [ 139.877198271999987, 35.917333289 ], [ 139.877067233, 35.917194027 ], [ 139.876961208000012, 35.917268362 ], [ 139.876822664, 35.917146183 ], [ 139.87663524300001, 35.91726826 ], [ 139.876626194000011, 35.917274154 ], [ 139.87660177, 35.917290062 ], [ 139.876542815, 35.917237357 ], [ 139.876145376000011, 35.917815093 ], [ 139.876263345000012, 35.91793442 ], [ 139.877198271999987, 35.917333289 ] ] ] } },
{ "type": "Feature", "properties": { "fid": 5226, "polygon_uuid": "b5726a88-3d80-4b0f-92b0-dfcb80d3eae8", "daicho_shubetsu_cd": "FUD25" }, "geometry": { "type": "Polygon", "coordinates": [ [ [ 139.872467562, 35.92291518 ], [ 139.872895384, 35.922300099 ], [ 139.872807989, 35.922212316 ], [ 139.872143888000011, 35.922647882 ], [ 139.872405139, 35.922919961 ], [ 139.872467562, 35.92291518 ] ] ] } },
{ "type": "Feature", "properties": { "fid": 5250, "polygon_uuid": "96663ef4-bc78-4d04-9ba4-e086114d5cb7", "daicho_shubetsu_cd": "FUD25" }, "geometry": { "type": "Polygon", "coordinates": [ [ [ 139.871523734, 35.927227867 ], [ 139.871834076, 35.927532425 ], [ 139.87186895, 35.927032586 ], [ 139.871843582, 35.9270199 ], [ 139.871523734, 35.927227867 ] ] ] } },
{ "type": "Feature", "properties": { "fid": 5292, "polygon_uuid": "68455f26-993c-42c2-848a-e1ef6f03fc6b", "daicho_shubetsu_cd": "FUD25" }, "geometry": { "type": "Polygon", "coordinates": [ [ [ 139.872467683, 35.923312465 ], [ 139.873329171, 35.922736502 ], [ 139.87294574500001, 35.92234952 ], [ 139.872353942, 35.923198601 ], [ 139.872467683, 35.923312465 ] ] ] } },
{ "type": "Feature", "properties": { "fid": 5395, "polygon_uuid": "1386a25e-6950-4416-819a-e65999f991fa", "daicho_shubetsu_cd": "FUD25" }, "geometry": { "type": "Polygon", "coordinates": [ [ [ 139.875723707, 35.915918238 ], [ 139.875426336, 35.916112813 ], [ 139.874830524, 35.916502657 ], [ 139.875032512, 35.916707067 ], [ 139.875961905, 35.916122522 ], [ 139.875842074, 35.916014441 ], [ 139.875723707, 35.915918238 ] ] ] } },
{ "type": "Feature", "properties": { "fid": 5397, "polygon_uuid": "a6e9ee17-5a3c-4b49-9d2e-e67639914613", "daicho_shubetsu_cd": "FUD25" }, "geometry": { "type": "Polygon", "coordinates": [ [ [ 139.868503379, 35.929718328 ], [ 139.869090226, 35.929351059 ], [ 139.86872466, 35.928971432 ], [ 139.868683682000011, 35.928954782 ], [ 139.868481817, 35.929085749 ], [ 139.868748249, 35.929368907 ], [ 139.868391328, 35.929607025 ], [ 139.868503379, 35.929718328 ] ] ] } },
{ "type": "Feature", "properties": { "fid": 5557, "polygon_uuid": "1bd31c5c-7c5e-4656-80c4-ecf5697a8d6f", "daicho_shubetsu_cd": "FUD25" }, "geometry": { "type": "Polygon", "coordinates": [ [ [ 139.877488272, 35.917623125 ], [ 139.877362032, 35.917498295 ], [ 139.877203176, 35.917608175 ], [ 139.87713813900001, 35.917546309 ], [ 139.876368594000013, 35.918040879 ], [ 139.876559199000013, 35.918233676 ], [ 139.877488272, 35.917623125 ] ] ] } },
{ "type": "Feature", "properties": { "fid": 5582, "polygon_uuid": "a152175b-b402-43b5-a00a-edca94a7b5a1", "daicho_shubetsu_cd": "FUD25" }, "geometry": { "type": "Polygon", "coordinates": [ [ [ 139.876076324, 35.921038468 ], [ 139.87595355, 35.920913158 ], [ 139.875490858, 35.921220628 ], [ 139.875605650000011, 35.921340549 ], [ 139.876076324, 35.921038468 ] ] ] } },
{ "type": "Feature", "properties": { "fid": 5583, "polygon_uuid": "18960d29-0d16-464a-bb7e-edd63c54fe49", "daicho_shubetsu_cd": "FUD25" }, "geometry": { "type": "Polygon", "coordinates": [ [ [ 139.875442686000014, 35.920157176 ], [ 139.875564465, 35.920279813 ], [ 139.876471085, 35.919692903 ], [ 139.876343758, 35.919563557 ], [ 139.875442686000014, 35.920157176 ] ] ] } },
{ "type": "Feature", "properties": { "fid": 5710, "polygon_uuid": "1a9bd08f-eafe-4017-8c16-f3451965d1f8", "daicho_shubetsu_cd": "FUD25" }, "geometry": { "type": "Polygon", "coordinates": [ [ [ 139.879003847, 35.918766008 ], [ 139.879878522000013, 35.91818669 ], [ 139.879754341, 35.918061386 ], [ 139.878898428000014, 35.918626097 ], [ 139.879003847, 35.918766008 ] ] ] } },
{ "type": "Feature", "properties": { "fid": 5754, "polygon_uuid": "486b1e74-f483-4158-b882-f531f4316264", "daicho_shubetsu_cd": "FUD25" }, "geometry": { "type": "Polygon", "coordinates": [ [ [ 139.873832472, 35.917807161 ], [ 139.873658457, 35.917931121 ], [ 139.873875495, 35.918275375 ], [ 139.874125889999988, 35.918106521 ], [ 139.873832472, 35.917807161 ] ] ] } },
{ "type": "Feature", "properties": { "fid": 5770, "polygon_uuid": "191814e1-b3d4-4994-86ee-f5cb3f571527", "daicho_shubetsu_cd": "FUD25" }, "geometry": { "type": "Polygon", "coordinates": [ [ [ 139.873875495, 35.918275375 ], [ 139.873941564, 35.918380169 ], [ 139.874216189, 35.918198649 ], [ 139.874125889999988, 35.918106521 ], [ 139.873875495, 35.918275375 ] ] ] } },
{ "type": "Feature", "properties": { "fid": 5805, "polygon_uuid": "0ab61c72-dfb4-411b-897d-f78a46b2960a", "daicho_shubetsu_cd": "FUD25" }, "geometry": { "type": "Polygon", "coordinates": [ [ [ 139.879883065, 35.918085759 ], [ 139.880154736, 35.917712372 ], [ 139.879974605, 35.917631488 ], [ 139.879769962000012, 35.917936225 ], [ 139.879769985, 35.917976687 ], [ 139.879883065, 35.918085759 ] ] ] } },
{ "type": "Feature", "properties": { "fid": 5819, "polygon_uuid": "a20c089b-19e2-4f5d-90bf-f84ef96dae0f", "daicho_shubetsu_cd": "FUD25" }, "geometry": { "type": "Polygon", "coordinates": [ [ [ 139.870391037, 35.925278422 ], [ 139.870350798, 35.925245062 ], [ 139.870302895, 35.92520613 ], [ 139.870274957, 35.925191533 ], [ 139.870243037, 35.925198035 ], [ 139.869792882000013, 35.925487284 ], [ 139.86991010700001, 35.925602281 ], [ 139.870391037, 35.925278422 ] ] ] } },
{ "type": "Feature", "properties": { "fid": 5841, "polygon_uuid": "2d7da6e3-802f-4e53-a1e4-f914b2a7bfec", "daicho_shubetsu_cd": "FUD25" }, "geometry": { "type": "Polygon", "coordinates": [ [ [ 139.876718863, 35.914897123 ], [ 139.877019929999989, 35.914474191 ], [ 139.876837446, 35.914388861 ], [ 139.876581382000012, 35.914748934 ], [ 139.876718863, 35.914897123 ] ] ] } },
{ "type": "Feature", "properties": { "fid": 5870, "polygon_uuid": "a9d34a8a-57d7-46ff-9cc3-fa95ade398e0", "daicho_shubetsu_cd": "FUD25" }, "geometry": { "type": "Polygon", "coordinates": [ [ [ 139.878093906, 35.918221989 ], [ 139.877984858, 35.918114161 ], [ 139.877052303999989, 35.918732442 ], [ 139.877155832999989, 35.918837159 ], [ 139.878093906, 35.918221989 ] ] ] } },
{ "type": "Feature", "properties": { "fid": 5871, "polygon_uuid": "b62fa6db-0714-4bad-a713-faab6154e902", "daicho_shubetsu_cd": "FUD25" }, "geometry": { "type": "Polygon", "coordinates": [ [ [ 139.86872552, 35.927425461 ], [ 139.869585353, 35.926865239 ], [ 139.869572554, 35.92685137 ], [ 139.869593031, 35.926805789 ], [ 139.869536224, 35.926684638 ], [ 139.869047591999987, 35.92699676 ], [ 139.868924949, 35.926892749 ], [ 139.868485333, 35.927179009 ], [ 139.86872552, 35.927425461 ] ] ] } },
{ "type": "Feature", "properties": { "fid": 5879, "polygon_uuid": "85d2b723-9056-4c34-87d1-fafc907e738c", "daicho_shubetsu_cd": "FUD25" }, "geometry": { "type": "Polygon", "coordinates": [ [ [ 139.870902789000013, 35.924559847 ], [ 139.87099442600001, 35.924506725 ], [ 139.871200732, 35.924711735 ], [ 139.871403463, 35.924421095 ], [ 139.871130356, 35.924136614 ], [ 139.870720778, 35.924404014 ], [ 139.870902789000013, 35.924559847 ] ] ] } },
{ "type": "Feature", "properties": { "fid": 5969, "polygon_uuid": "597cd069-8d0d-437f-baad-fefe2d9292d2", "daicho_shubetsu_cd": "FUD25" }, "geometry": { "type": "Polygon", "coordinates": [ [ [ 139.868097338000013, 35.930660896 ], [ 139.867950764999989, 35.930512329 ], [ 139.86727932, 35.930940945 ], [ 139.867504937, 35.931159109 ], [ 139.868097338000013, 35.930660896 ] ] ] } },
{ "type": "Feature", "properties": { "fid": 5998, "polygon_uuid": "643c4fec-5784-4357-98cc-fff9f3fa0f9c", "daicho_shubetsu_cd": "FUD25" }, "geometry": { "type": "Polygon", "coordinates": [ [ [ 139.869528799, 35.92824739 ], [ 139.870406178, 35.927661751 ], [ 139.870271457, 35.92752569 ], [ 139.869388936, 35.928104676 ], [ 139.869528799, 35.92824739 ] ] ] } },
{ "type": "Feature", "properties": { "fid": 6004, "polygon_uuid": "3581eb29-bd3e-46f1-9fe8-0177d82d7d9a", "daicho_shubetsu_cd": "FUD25" }, "geometry": { "type": "Polygon", "coordinates": [ [ [ 139.868914909000011, 35.9290564 ], [ 139.869755642, 35.928509685 ], [ 139.869528493, 35.928279998 ], [ 139.86868654700001, 35.928830355 ], [ 139.868677786, 35.92887082 ], [ 139.868885657, 35.92908259 ], [ 139.868914909000011, 35.9290564 ] ] ] } },
{ "type": "Feature", "properties": { "fid": 6016, "polygon_uuid": "b446759f-5022-4b0a-a37a-036a58b9259a", "daicho_shubetsu_cd": "FUD25" }, "geometry": { "type": "Polygon", "coordinates": [ [ [ 139.869140354, 35.929299107 ], [ 139.869987920999989, 35.928744559 ], [ 139.869852173999988, 35.928607295 ], [ 139.868980990000011, 35.929183601 ], [ 139.869111097, 35.929315777 ], [ 139.869140354, 35.929299107 ] ] ] } },
{ "type": "Feature", "properties": { "fid": 6028, "polygon_uuid": "27e986fb-f04d-4eeb-adfd-0510b45a61bc", "daicho_shubetsu_cd": "FUD25" }, "geometry": { "type": "Polygon", "coordinates": [ [ [ 139.869687191, 35.928409011 ], [ 139.870574449, 35.927831696 ], [ 139.870406178, 35.927661751 ], [ 139.869528799, 35.92824739 ], [ 139.869687191, 35.928409011 ] ] ] } },
{ "type": "Feature", "properties": { "fid": 6030, "polygon_uuid": "39c1deb0-3ec3-4665-b838-053c68657c1e", "daicho_shubetsu_cd": "FUD25" }, "geometry": { "type": "Polygon", "coordinates": [ [ [ 139.871315557, 35.9249161 ], [ 139.871662854, 35.924690841 ], [ 139.871619456, 35.924649534 ], [ 139.871878841000012, 35.924489189 ], [ 139.871701594, 35.924300645 ], [ 139.871626077, 35.924220315 ], [ 139.87137163, 35.924568837 ], [ 139.871214977, 35.924799424 ], [ 139.871226958, 35.924831624 ], [ 139.871315557, 35.9249161 ] ] ] } },
{ "type": "Feature", "properties": { "fid": 6044, "polygon_uuid": "af7e7ca0-92f0-4d70-bc62-064156c54597", "daicho_shubetsu_cd": "FUD25" }, "geometry": { "type": "Polygon", "coordinates": [ [ [ 139.868328592000012, 35.928316425 ], [ 139.868329316, 35.928359194 ], [ 139.868642587000011, 35.92868518 ], [ 139.869427645, 35.928178023 ], [ 139.869082612999989, 35.92782913 ], [ 139.868328592000012, 35.928316425 ] ] ] } },
{ "type": "Feature", "properties": { "fid": 6050, "polygon_uuid": "316c5a9c-dd64-46d1-addf-0702aea78f4c", "daicho_shubetsu_cd": "FUD25" }, "geometry": { "type": "Polygon", "coordinates": [ [ [ 139.872086974000013, 35.922544003 ], [ 139.872096736, 35.922559867 ], [ 139.872079187999987, 35.9225805 ], [ 139.872143888000011, 35.922647882 ], [ 139.872807989, 35.922212316 ], [ 139.872719171, 35.922123103 ], [ 139.872086974000013, 35.922544003 ] ] ] } },
{ "type": "Feature", "properties": { "fid": 6053, "polygon_uuid": "a9950d48-8277-455f-abe7-073c01ce5104", "daicho_shubetsu_cd": "FUD25" }, "geometry": { "type": "Polygon", "coordinates": [ [ [ 139.878246378, 35.915387097 ], [ 139.878158762999988, 35.915346965 ], [ 139.878067269000013, 35.915465662 ], [ 139.878153395999988, 35.915513501 ], [ 139.878206023, 35.91554167 ], [ 139.878296056000011, 35.915411421 ], [ 139.878246378, 35.915387097 ] ] ] } },
{ "type": "Feature", "properties": { "fid": 6129, "polygon_uuid": "95a18937-c1d4-45f3-addf-11ccc8455fe5", "daicho_shubetsu_cd": "FUD25" }, "geometry": { "type": "Polygon", "coordinates": [ [ [ 139.877001478000011, 35.915163406 ], [ 139.877373754, 35.91463964 ], [ 139.877019929999989, 35.914474191 ], [ 139.876718863, 35.914897123 ], [ 139.87695856, 35.915155488 ], [ 139.877001478000011, 35.915163406 ] ] ] } },
{ "type": "Feature", "properties": { "fid": 6152, "polygon_uuid": "198d333e-dd92-4820-953f-14d8d0d2fade", "daicho_shubetsu_cd": "FUD25" }, "geometry": { "type": "Polygon", "coordinates": [ [ [ 139.869950448, 35.92867614 ], [ 139.870193698, 35.928922965 ], [ 139.870977678, 35.928284846 ], [ 139.870957161, 35.928218209 ], [ 139.870837304, 35.928097161 ], [ 139.869950448, 35.92867614 ] ] ] } },
{ "type": "Feature", "properties": { "fid": 6157, "polygon_uuid": "d76acc27-9865-4522-9eb7-159c31ed823a", "daicho_shubetsu_cd": "FUD25" }, "geometry": { "type": "Polygon", "coordinates": [ [ [ 139.87520038400001, 35.921600647 ], [ 139.875605650000011, 35.921340549 ], [ 139.875490858, 35.921220628 ], [ 139.87595355, 35.920913158 ], [ 139.875615622, 35.920568248 ], [ 139.874741250999989, 35.921136439 ], [ 139.87520038400001, 35.921600647 ] ] ] } },
{ "type": "Feature", "properties": { "fid": 6215, "polygon_uuid": "d3ce3794-404b-4d16-93f0-1ceff2ee34fd", "daicho_shubetsu_cd": "FUD25" }, "geometry": { "type": "Polygon", "coordinates": [ [ [ 139.873098283, 35.922474462 ], [ 139.873307969, 35.922686162 ], [ 139.874175105, 35.922117893 ], [ 139.8739656, 35.92190301 ], [ 139.873098283, 35.922474462 ] ] ] } },
{ "type": "Feature", "properties": { "fid": 6288, "polygon_uuid": "bdf505be-ab06-40b3-9037-2713974e538e", "daicho_shubetsu_cd": "FUD25" }, "geometry": { "type": "Polygon", "coordinates": [ [ [ 139.870709428999987, 35.927903621 ], [ 139.870993135, 35.928189338 ], [ 139.871054598, 35.92820836 ], [ 139.871616245000013, 35.927748817 ], [ 139.871344158999989, 35.927485462 ], [ 139.870709428999987, 35.927903621 ] ] ] } },
{ "type": "Feature", "properties": { "fid": 6295, "polygon_uuid": "894dd267-df2e-46bd-9fce-2864af1d9254", "daicho_shubetsu_cd": "FUD25" }, "geometry": { "type": "Polygon", "coordinates": [ [ [ 139.878532038, 35.918690841 ], [ 139.878383615, 35.918522975 ], [ 139.87745141, 35.919136126 ], [ 139.87760770700001, 35.919294215 ], [ 139.878532038, 35.918690841 ] ] ] } },
{ "type": "Feature", "properties": { "fid": 6308, "polygon_uuid": "da687656-bfdb-406e-aa26-2b67f292b001", "daicho_shubetsu_cd": "FUD25" }, "geometry": { "type": "Polygon", "coordinates": [ [ [ 139.867194613, 35.931414422 ], [ 139.867379241, 35.931272846 ], [ 139.867049723, 35.930953392 ], [ 139.866864641, 35.931072796 ], [ 139.867194613, 35.931414422 ] ] ] } },
{ "type": "Feature", "properties": { "fid": 6327, "polygon_uuid": "be73007c-f932-437d-8b00-2ddfae5622dc", "daicho_shubetsu_cd": "FUD25" }, "geometry": { "type": "Polygon", "coordinates": [ [ [ 139.873860492, 35.921717069 ], [ 139.874721963000013, 35.921145907 ], [ 139.874568608, 35.920990053 ], [ 139.873702688, 35.92155532 ], [ 139.873860492, 35.921717069 ] ] ] } },
{ "type": "Feature", "properties": { "fid": 6347, "polygon_uuid": "562c1cf5-264d-4edc-b407-310297794b14", "daicho_shubetsu_cd": "FUD25" }, "geometry": { "type": "Polygon", "coordinates": [ [ [ 139.878170329999989, 35.919807173 ], [ 139.879045072999986, 35.919219663 ], [ 139.878880882, 35.919032542 ], [ 139.877949142, 35.919639559 ], [ 139.878114643, 35.919806954 ], [ 139.878144099, 35.919792563 ], [ 139.878170329999989, 35.919807173 ] ] ] } },
{ "type": "Feature", "properties": { "fid": 6352, "polygon_uuid": "76d17874-2191-4cbe-8768-326aa417b2d0", "daicho_shubetsu_cd": "FUD25" }, "geometry": { "type": "Polygon", "coordinates": [ [ [ 139.864890329, 35.932650141 ], [ 139.865161043, 35.932468882 ], [ 139.864988456, 35.932301002 ], [ 139.864720459000011, 35.932477351 ], [ 139.864890329, 35.932650141 ] ] ] } },
{ "type": "Feature", "properties": { "fid": 6355, "polygon_uuid": "0ed8095a-f1d9-4f60-8f2d-329253c0ae22", "daicho_shubetsu_cd": "FUD25" }, "geometry": { "type": "Polygon", "coordinates": [ [ [ 139.878898428000014, 35.918626097 ], [ 139.879754341, 35.918061386 ], [ 139.879589998, 35.917895558 ], [ 139.878728626999987, 35.918467168 ], [ 139.878898428000014, 35.918626097 ] ] ] } },
{ "type": "Feature", "properties": { "fid": 6361, "polygon_uuid": "caa9376e-ac05-401f-816b-33a24f8390b3", "daicho_shubetsu_cd": "FUD25" }, "geometry": { "type": "Polygon", "coordinates": [ [ [ 139.870410188, 35.926128846 ], [ 139.869570466, 35.926669489 ], [ 139.869588446, 35.926721412 ], [ 139.869618406, 35.926791183 ], [ 139.869656343, 35.926852837 ], [ 139.869896818, 35.927092228 ], [ 139.870787454, 35.92650846 ], [ 139.870410188, 35.926128846 ] ] ] } },
{ "type": "Feature", "properties": { "fid": 6431, "polygon_uuid": "46252ff2-540d-44c2-a69d-3dbb2e5084f3", "daicho_shubetsu_cd": "FUD25" }, "geometry": { "type": "Polygon", "coordinates": [ [ [ 139.878193947, 35.915150672 ], [ 139.878083433, 35.915100693 ], [ 139.877958885999988, 35.915253199 ], [ 139.878078484000014, 35.915310195 ], [ 139.878193947, 35.915150672 ] ] ] } },
{ "type": "Feature", "properties": { "fid": 6435, "polygon_uuid": "f6c1e889-cf19-4fb0-8458-3eb8898c3729", "daicho_shubetsu_cd": "FUD25" }, "geometry": { "type": "Polygon", "coordinates": [ [ [ 139.865961145999989, 35.931086583 ], [ 139.866321836, 35.930832281 ], [ 139.866299121, 35.930807447 ], [ 139.866141027, 35.930656352 ], [ 139.865779710999988, 35.930914695 ], [ 139.865961145999989, 35.931086583 ] ] ] } },
{ "type": "Feature", "properties": { "fid": 6534, "polygon_uuid": "63cc191e-edb1-4c0c-8c73-4d6129c72d32", "daicho_shubetsu_cd": "FUD25" }, "geometry": { "type": "Polygon", "coordinates": [ [ [ 139.870959934000012, 35.926660336 ], [ 139.871789607000011, 35.926118163 ], [ 139.871818043, 35.926044897 ], [ 139.871845103999988, 35.926000268 ], [ 139.871881108999986, 35.925968358 ], [ 139.871886309, 35.925951412 ], [ 139.871845664, 35.925908217 ], [ 139.871805044000013, 35.925915007 ], [ 139.871797574, 35.925903724 ], [ 139.870837267000013, 35.926535396 ], [ 139.870959934000012, 35.926660336 ] ] ] } },
{ "type": "Feature", "properties": { "fid": 6560, "polygon_uuid": "0593f5c4-e348-4148-b99d-5168f96ec93f", "daicho_shubetsu_cd": "FUD25" }, "geometry": { "type": "Polygon", "coordinates": [ [ [ 139.863632186, 35.932785411 ], [ 139.86366223600001, 35.932815303 ], [ 139.863641869, 35.932828864 ], [ 139.863819719, 35.932989227 ], [ 139.864145068999989, 35.932796642 ], [ 139.863935391000012, 35.932586398 ], [ 139.863632186, 35.932785411 ] ] ] } },
{ "type": "Feature", "properties": { "fid": 6607, "polygon_uuid": "4e999a46-82ab-43ac-8acf-57f145cf47a2", "daicho_shubetsu_cd": "FUD25" }, "geometry": { "type": "Polygon", "coordinates": [ [ [ 139.868568133999986, 35.929807117 ], [ 139.868110955, 35.930103696 ], [ 139.868038544, 35.930147898 ], [ 139.86834651, 35.930459755 ], [ 139.868818778, 35.930066002 ], [ 139.868568133999986, 35.929807117 ] ] ] } },
{ "type": "Feature", "properties": { "fid": 6638, "polygon_uuid": "b4d8ecb2-e878-42a4-ada5-5c9aed5be576", "daicho_shubetsu_cd": "FUD25" }, "geometry": { "type": "Polygon", "coordinates": [ [ [ 139.872605048, 35.923449978 ], [ 139.873466418, 35.922876334 ], [ 139.873365377999988, 35.922773045 ], [ 139.873329171, 35.922736502 ], [ 139.872467683, 35.923312465 ], [ 139.872605048, 35.923449978 ] ] ] } },
{ "type": "Feature", "properties": { "fid": 6701, "polygon_uuid": "3f3c3a4e-ecd7-4097-8fe8-64da66a9e91d", "daicho_shubetsu_cd": "FUD25" }, "geometry": { "type": "Polygon", "coordinates": [ [ [ 139.86400946, 35.931856838 ], [ 139.864278843, 35.932121021 ], [ 139.864802196, 35.931786178 ], [ 139.864534381999988, 35.931503673 ], [ 139.86400946, 35.931856838 ] ] ] } },
{ "type": "Feature", "properties": { "fid": 6708, "polygon_uuid": "18504baf-5b40-49a4-a793-65f3c9c01f7f", "daicho_shubetsu_cd": "FUD25" }, "geometry": { "type": "Polygon", "coordinates": [ [ [ 139.87296041, 35.922335264 ], [ 139.873098283, 35.922474462 ], [ 139.8739656, 35.92190301 ], [ 139.873574553999987, 35.921501922 ], [ 139.87355838, 35.921499735 ], [ 139.87296041, 35.922335264 ] ] ] } },
{ "type": "Feature", "properties": { "fid": 6709, "polygon_uuid": "aaaa263a-e8f3-4d2b-b681-6660643f058d", "daicho_shubetsu_cd": "FUD25" }, "geometry": { "type": "Polygon", "coordinates": [ [ [ 139.879272908, 35.919037479 ], [ 139.879474738, 35.918920775 ], [ 139.879667783, 35.918792174 ], [ 139.879773068, 35.918701687 ], [ 139.879866637, 35.918592165 ], [ 139.880042059, 35.918351703 ], [ 139.879878522000013, 35.91818669 ], [ 139.879003847, 35.918766008 ], [ 139.879272908, 35.919037479 ] ] ] } },
{ "type": "Feature", "properties": { "fid": 6739, "polygon_uuid": "665c30a7-610a-473c-8979-6974d16cafce", "daicho_shubetsu_cd": "FUD25" }, "geometry": { "type": "Polygon", "coordinates": [ [ [ 139.86883927400001, 35.930051978 ], [ 139.869357066, 35.92962816 ], [ 139.869090226, 35.929351059 ], [ 139.868503379, 35.929718328 ], [ 139.86883927400001, 35.930051978 ] ] ] } },
{ "type": "Feature", "properties": { "fid": 6758, "polygon_uuid": "2bf90e5a-d4af-4b70-b38a-6bfa8160dab7", "daicho_shubetsu_cd": "FUD25" }, "geometry": { "type": "Polygon", "coordinates": [ [ [ 139.867720799000011, 35.928858122 ], [ 139.868007407, 35.929142927 ], [ 139.868418757, 35.92886997 ], [ 139.868321609, 35.928805735 ], [ 139.868181721000013, 35.928879411 ], [ 139.867957774, 35.928708106 ], [ 139.867720799000011, 35.928858122 ] ] ] } },
{ "type": "Feature", "properties": { "fid": 6843, "polygon_uuid": "419c92a8-f088-4f7c-bd7d-7745ef77f62a", "daicho_shubetsu_cd": "FUD25" }, "geometry": { "type": "Polygon", "coordinates": [ [ [ 139.869972518, 35.925688552 ], [ 139.869755468, 35.925470197 ], [ 139.869230421, 35.92581016 ], [ 139.869001572, 35.926078155 ], [ 139.8691571, 35.926229945 ], [ 139.869972518, 35.925688552 ] ] ] } },
{ "type": "Feature", "properties": { "fid": 6916, "polygon_uuid": "5d5bbae0-2e16-4dbc-86f9-8113615622bd", "daicho_shubetsu_cd": "FUD25" }, "geometry": { "type": "Polygon", "coordinates": [ [ [ 139.874616436999986, 35.921010245 ], [ 139.875492313, 35.920442391 ], [ 139.87535877900001, 35.920306096 ], [ 139.874485561, 35.920877922 ], [ 139.874616436999986, 35.921010245 ] ] ] } },
{ "type": "Feature", "properties": { "fid": 6939, "polygon_uuid": "81b0708c-de39-4da1-bcbb-845d1ebd69cf", "daicho_shubetsu_cd": "FUD25" }, "geometry": { "type": "Polygon", "coordinates": [ [ [ 139.873973527, 35.921832929 ], [ 139.874840856, 35.921266737 ], [ 139.874721963000013, 35.921145907 ], [ 139.873860492, 35.921717069 ], [ 139.873973527, 35.921832929 ] ] ] } },
{ "type": "Feature", "properties": { "fid": 6973, "polygon_uuid": "4b5b90f6-e629-4f3e-ae65-882678b40ad8", "daicho_shubetsu_cd": "FUD25" }, "geometry": { "type": "Polygon", "coordinates": [ [ [ 139.868906, 35.927610646 ], [ 139.869785382, 35.927037617 ], [ 139.869625868000014, 35.926877366 ], [ 139.869596551, 35.926877375 ], [ 139.869585353, 35.926865239 ], [ 139.86872552, 35.927425461 ], [ 139.868906, 35.927610646 ] ] ] } },
{ "type": "Feature", "properties": { "fid": 7045, "polygon_uuid": "01223648-31c6-4e9a-af49-91c8b1ebb074", "daicho_shubetsu_cd": "FUD25" }, "geometry": { "type": "Polygon", "coordinates": [ [ [ 139.878447374, 35.918221362 ], [ 139.8793394, 35.917642693 ], [ 139.879103004, 35.917405103 ], [ 139.878216646999988, 35.917988325 ], [ 139.878447374, 35.918221362 ] ] ] } },
{ "type": "Feature", "properties": { "fid": 7105, "polygon_uuid": "b63c7bcd-f553-4ae0-9970-9ab59f51cd2b", "daicho_shubetsu_cd": "FUD25" }, "geometry": { "type": "Polygon", "coordinates": [ [ [ 139.879014858, 35.916571497 ], [ 139.879310802, 35.916709564 ], [ 139.879861752000011, 35.915926468 ], [ 139.879574502, 35.915790847 ], [ 139.879014858, 35.916571497 ] ] ] } },
{ "type": "Feature", "properties": { "fid": 7116, "polygon_uuid": "437a010f-e1c9-4ff3-9f93-9c7c10511e86", "daicho_shubetsu_cd": "FUD25" }, "geometry": { "type": "Polygon", "coordinates": [ [ [ 139.873298780999988, 35.920502461 ], [ 139.87378299, 35.920190624 ], [ 139.873611861, 35.920016526 ], [ 139.873124134, 35.920324511 ], [ 139.873298780999988, 35.920502461 ] ] ] } },
{ "type": "Feature", "properties": { "fid": 7162, "polygon_uuid": "4a0fe9f6-9478-4e88-b6e3-a0cf5eac2b8c", "daicho_shubetsu_cd": "FUD25" }, "geometry": { "type": "Polygon", "coordinates": [ [ [ 139.869125258, 35.92783562 ], [ 139.869388936, 35.928104676 ], [ 139.870271457, 35.92752569 ], [ 139.870175446, 35.927428724 ], [ 139.870009821999986, 35.927263092 ], [ 139.869125258, 35.92783562 ] ] ] } },
{ "type": "Feature", "properties": { "fid": 7177, "polygon_uuid": "0791628f-0c60-46b3-8c10-a294ef11b31f", "daicho_shubetsu_cd": "FUD25" }, "geometry": { "type": "Polygon", "coordinates": [ [ [ 139.862453262, 35.933423531 ], [ 139.862716971, 35.93369887 ], [ 139.863094612, 35.933455794 ], [ 139.862551513, 35.932901193 ], [ 139.862516371999988, 35.932946951 ], [ 139.862504675999986, 35.933009861 ], [ 139.862495321000011, 35.93306705 ], [ 139.862453262, 35.933423531 ] ] ] } },
{ "type": "Feature", "properties": { "fid": 7206, "polygon_uuid": "d69ad6ff-adba-463e-90b8-a5c962072a0f", "daicho_shubetsu_cd": "FUD25" }, "geometry": { "type": "Polygon", "coordinates": [ [ [ 139.875398986, 35.917077934 ], [ 139.876345357, 35.916468373 ], [ 139.87617292600001, 35.916312851 ], [ 139.875236917, 35.916913923 ], [ 139.875290396, 35.916968043 ], [ 139.875398986, 35.917077934 ] ] ] } },
{ "type": "Feature", "properties": { "fid": 7285, "polygon_uuid": "909f88ca-26d2-44d5-83fa-b12c5e694538", "daicho_shubetsu_cd": "FUD25" }, "geometry": { "type": "Polygon", "coordinates": [ [ [ 139.873456885, 35.920663555 ], [ 139.87393493, 35.920345199 ], [ 139.87378299, 35.920190624 ], [ 139.873298780999988, 35.920502461 ], [ 139.873456885, 35.920663555 ] ] ] } },
{ "type": "Feature", "properties": { "fid": 7368, "polygon_uuid": "653bdac2-e4be-4e06-b5b0-c045cb92a35a", "daicho_shubetsu_cd": "FUD25" }, "geometry": { "type": "Polygon", "coordinates": [ [ [ 139.869722489999987, 35.929114429 ], [ 139.869833892, 35.929227653 ], [ 139.87017748400001, 35.928940284 ], [ 139.870097647, 35.928864406 ], [ 139.869722489999987, 35.929114429 ] ] ] } },
{ "type": "Feature", "properties": { "fid": 7393, "polygon_uuid": "f42ccec8-bca4-43b3-861b-c426376c97ad", "daicho_shubetsu_cd": "FUD25" }, "geometry": { "type": "Polygon", "coordinates": [ [ [ 139.870978421, 35.926704385 ], [ 139.870787454, 35.92650846 ], [ 139.869896818, 35.927092228 ], [ 139.870073530000013, 35.927268142 ], [ 139.870103448, 35.927245414 ], [ 139.87012064000001, 35.927266117 ], [ 139.870978421, 35.926704385 ] ] ] } },
{ "type": "Feature", "properties": { "fid": 7412, "polygon_uuid": "dd5db257-c5c0-4fa0-a1db-c61b073863fd", "daicho_shubetsu_cd": "FUD25" }, "geometry": { "type": "Polygon", "coordinates": [ [ [ 139.878193947, 35.915150672 ], [ 139.878078484000014, 35.915310195 ], [ 139.878158762999988, 35.915346965 ], [ 139.878246378, 35.915387097 ], [ 139.878296056000011, 35.915411421 ], [ 139.878648792, 35.915584131 ], [ 139.878778705, 35.915415119 ], [ 139.878193947, 35.915150672 ] ] ] } },
{ "type": "Feature", "properties": { "fid": 7452, "polygon_uuid": "02cc4646-beee-4e43-b1ec-ccfd39791526", "daicho_shubetsu_cd": "FUD25" }, "geometry": { "type": "Polygon", "coordinates": [ [ [ 139.870837267000013, 35.926535396 ], [ 139.871797574, 35.925903724 ], [ 139.871787321999989, 35.92588824 ], [ 139.871793562, 35.925867057 ], [ 139.871689356, 35.92577898 ], [ 139.871662281999988, 35.92579678 ], [ 139.870719197999989, 35.926415139 ], [ 139.870837267000013, 35.926535396 ] ] ] } },
{ "type": "Feature", "properties": { "fid": 7459, "polygon_uuid": "c57dd978-443e-4753-9ce8-ce10ad430de2", "daicho_shubetsu_cd": "FUD25" }, "geometry": { "type": "Polygon", "coordinates": [ [ [ 139.874517835, 35.922390835 ], [ 139.875388776, 35.921823578 ], [ 139.875206749, 35.921638588 ], [ 139.874341195999989, 35.922209785 ], [ 139.874517835, 35.922390835 ] ] ] } },
{ "type": "Feature", "properties": { "fid": 7471, "polygon_uuid": "37bb2f4c-09a8-482f-8d80-cf7d577c8353", "daicho_shubetsu_cd": "FUD25" }, "geometry": { "type": "Polygon", "coordinates": [ [ [ 139.87044891, 35.926145909 ], [ 139.870719197999989, 35.926415139 ], [ 139.871662281999988, 35.92579678 ], [ 139.871646642, 35.925767132 ], [ 139.871660174, 35.925748489 ], [ 139.871400421, 35.925521104 ], [ 139.87084825, 35.9258888 ], [ 139.87044891, 35.926145909 ] ] ] } },
{ "type": "Feature", "properties": { "fid": 7484, "polygon_uuid": "66f9646f-202a-4332-93a2-d1c405bf2422", "daicho_shubetsu_cd": "FUD25" }, "geometry": { "type": "Polygon", "coordinates": [ [ [ 139.872831282, 35.923624675 ], [ 139.873667507, 35.9230819 ], [ 139.873466418, 35.922876334 ], [ 139.872605048, 35.923449978 ], [ 139.872766899, 35.923612003 ], [ 139.872831282, 35.923624675 ] ] ] } },
{ "type": "Feature", "properties": { "fid": 7488, "polygon_uuid": "6b26f312-f560-43bf-947d-d218bf853902", "daicho_shubetsu_cd": "FUD25" }, "geometry": { "type": "Polygon", "coordinates": [ [ [ 139.877691518, 35.917457934 ], [ 139.878576081, 35.916875507 ], [ 139.87846741300001, 35.916766288 ], [ 139.877584915, 35.917350262 ], [ 139.877691518, 35.917457934 ] ] ] } },
{ "type": "Feature", "properties": { "fid": 7554, "polygon_uuid": "8a12487e-87bd-4ddc-81a8-dae7a096c0c4", "daicho_shubetsu_cd": "FUD25" }, "geometry": { "type": "Polygon", "coordinates": [ [ [ 139.868181263, 35.927712413 ], [ 139.868221737, 35.927752865 ], [ 139.86824307, 35.92777887 ], [ 139.868235086, 35.927804885 ], [ 139.867755499999987, 35.928128004 ], [ 139.867908000999989, 35.928280309 ], [ 139.868891905999988, 35.927635224 ], [ 139.868664409, 35.92740391 ], [ 139.868181263, 35.927712413 ] ] ] } },
{ "type": "Feature", "properties": { "fid": 7597, "polygon_uuid": "888e8ee5-948d-4cbf-b44d-e240e31b87d9", "daicho_shubetsu_cd": "FUD25" }, "geometry": { "type": "Polygon", "coordinates": [ [ [ 139.876728926, 35.919959357 ], [ 139.875829203, 35.920546414 ], [ 139.875853758, 35.920572805 ], [ 139.87631233, 35.920275222 ], [ 139.876340459, 35.920304014 ], [ 139.876779258, 35.920015227 ], [ 139.876728926, 35.919959357 ] ] ] } },
{ "type": "Feature", "properties": { "fid": 7603, "polygon_uuid": "fa0d82de-712d-4b78-b3cb-e33e734f8d4e", "daicho_shubetsu_cd": "FUD25" }, "geometry": { "type": "Polygon", "coordinates": [ [ [ 139.879035132000013, 35.917243887 ], [ 139.879058543000014, 35.917248638 ], [ 139.879383077999989, 35.916817709 ], [ 139.878206526000014, 35.916270724 ], [ 139.878159748, 35.916337385 ], [ 139.878361762, 35.916553902 ], [ 139.879035132000013, 35.917243887 ] ] ] } },
{ "type": "Feature", "properties": { "fid": 7607, "polygon_uuid": "ed49b1d0-9694-452d-a75d-e391b08a9f57", "daicho_shubetsu_cd": "FUD25" }, "geometry": { "type": "Polygon", "coordinates": [ [ [ 139.880732286000011, 35.917372709 ], [ 139.881276053, 35.916594188 ], [ 139.880948141, 35.916439376 ], [ 139.880400097, 35.917217739 ], [ 139.880732286000011, 35.917372709 ] ] ] } },
{ "type": "Feature", "properties": { "fid": 7657, "polygon_uuid": "d55785c1-4b44-4452-90d7-ea7fa86679b2", "daicho_shubetsu_cd": "FUD25" }, "geometry": { "type": "Polygon", "coordinates": [ [ [ 139.871179283, 35.923673353 ], [ 139.871610186, 35.924124731 ], [ 139.871709421, 35.923982461 ], [ 139.871317581999989, 35.923581905 ], [ 139.871179283, 35.923673353 ] ] ] } },
{ "type": "Feature", "properties": { "fid": 7681, "polygon_uuid": "10300d34-d44b-4b26-91c8-ed1a73ed6d83", "daicho_shubetsu_cd": "FUD25" }, "geometry": { "type": "Polygon", "coordinates": [ [ [ 139.878751465, 35.918942602 ], [ 139.878735533, 35.918922595 ], [ 139.878762037, 35.918898618 ], [ 139.878655922, 35.918819569 ], [ 139.877734293, 35.91942225 ], [ 139.877842449000013, 35.919531645 ], [ 139.878751465, 35.918942602 ] ] ] } },
{ "type": "Feature", "properties": { "fid": 7730, "polygon_uuid": "96c67a5e-775b-4ab3-a0c8-f3071037f674", "daicho_shubetsu_cd": "FUD25" }, "geometry": { "type": "Polygon", "coordinates": [ [ [ 139.874194031, 35.920583068 ], [ 139.874282381, 35.920672492 ], [ 139.874910879999987, 35.920268754 ], [ 139.874625224, 35.919975576 ], [ 139.874194031, 35.920583068 ] ] ] } },
{ "type": "Feature", "properties": { "fid": 7763, "polygon_uuid": "2a2e2983-906d-44e7-8da7-f7ce37a25636", "daicho_shubetsu_cd": "FUD25" }, "geometry": { "type": "Polygon", "coordinates": [ [ [ 139.87044276, 35.927633877 ], [ 139.871327275999988, 35.927056639 ], [ 139.871199757, 35.926930797 ], [ 139.870344286, 35.927494474 ], [ 139.870344366000012, 35.927536505 ], [ 139.87044276, 35.927633877 ] ] ] } },
{ "type": "Feature", "properties": { "fid": 7798, "polygon_uuid": "469459c6-c52f-4a12-8c64-fcd5429f1a06", "daicho_shubetsu_cd": "FUD25" }, "geometry": { "type": "Polygon", "coordinates": [ [ [ 139.876581382000012, 35.914748934 ], [ 139.876837446, 35.914388861 ], [ 139.876675262, 35.914313022 ], [ 139.876482316, 35.914612989 ], [ 139.876503784, 35.914633609 ], [ 139.876497946, 35.914658999 ], [ 139.876581382000012, 35.914748934 ] ] ] } }
]
}
