{
"type": "FeatureCollection",
"name": "【富里】新橋",
"crs": { "type": "name", "properties": { "name": "urn:ogc:def:crs:OGC:1.3:CRS84" } },
"features": [
{"type":"Feature","properties":{"fid":1,"polygon_uuid":"ca6763d8-d955-40d8-9abd-01702283e606","AreaOnRegistry":"1172","Address":"千葉県富里市新橋字姥田68","Tiban":"68"},"geometry":{"type":"Polygon","coordinates":[[[140.304721131,35.724920124],[140.30435019,35.72508404],[140.304474985000013,35.725224353],[140.304790691,35.725078705],[140.304721131,35.724920124]]]}},
{"type":"Feature","properties":{"fid":2,"polygon_uuid":"86698ba7-1d45-4cec-800c-0211994f3e03","AreaOnRegistry":"240","Address":"千葉県富里市新橋字長町559-1","Tiban":"559-1"},"geometry":{"type":"Polygon","coordinates":[[[140.303934483,35.724202001],[140.303699504,35.724200539],[140.303717081,35.724273672],[140.303745655,35.724332387],[140.303777126,35.724350168],[140.30384931,35.724357558],[140.303933995,35.724357227],[140.303934483,35.724202001]]]}},
{"type":"Feature","properties":{"fid":3,"polygon_uuid":"05979e8c-471a-48d5-bdd2-06bcd8a9c608","AreaOnRegistry":"940","Address":"千葉県富里市新橋字高崎474","Tiban":"474"},"geometry":{"type":"Polygon","coordinates":[[[140.300575834999989,35.722487838],[140.30061355,35.722281034],[140.30059821,35.722279613],[140.30058151,35.722258977],[140.300050915000014,35.722208277],[140.300030121,35.722357791],[140.300106072,35.722378844],[140.300314034,35.722436927],[140.300575834999989,35.722487838]]]}},
{"type":"Feature","properties":{"fid":4,"polygon_uuid":"f81240c7-3237-48d5-bb4d-06d3fd9276b7","AreaOnRegistry":"921","Address":"千葉県富里市新橋字五斗蒔105-1","Tiban":"105-1"},"geometry":{"type":"Polygon","coordinates":[[[140.306410368,35.723300775],[140.306992563,35.723300289],[140.306991462000013,35.723114363],[140.306413707,35.723116636],[140.306410368,35.723300775]]]}},
{"type":"Feature","properties":{"fid":5,"polygon_uuid":"ec930508-5b99-4393-bf74-07513e9be03a","AreaOnRegistry":"869","Address":"千葉県富里市新橋字水白629-2","Tiban":"629-2"},"geometry":{"type":"Polygon","coordinates":[[[140.298273591,35.721995226],[140.298241353,35.722237032],[140.298487893776723,35.722259505391939],[140.298487893776723,35.72206202476918],[140.298273591,35.721995226]]]}},
{"type":"Feature","properties":{"fid":6,"polygon_uuid":"ec930508-5b99-4393-bf74-07513e9be03a","AreaOnRegistry":"28","Address":"千葉県富里市新橋字水白629-3","Tiban":"629-3"},"geometry":{"type":"Polygon","coordinates":[[[140.298487893776723,35.72206202476918],[140.298487893776723,35.722259505391939],[140.298795070000011,35.722287506],[140.298811626,35.722162933],[140.298487893776723,35.72206202476918]]]}},
{"type":"Feature","properties":{"fid":7,"polygon_uuid":"9e8d7eae-869a-4327-8e06-0855d98ac434","AreaOnRegistry":"487","Address":"千葉県富里市新橋字山ノ下549-1","Tiban":"549-1"},"geometry":{"type":"Polygon","coordinates":[[[140.303904179556184,35.722895861034885],[140.303904179556184,35.722621099487071],[140.303612378999986,35.722830309],[140.303904179556184,35.722895861034885]]]}},
{"type":"Feature","properties":{"fid":8,"polygon_uuid":"9e8d7eae-869a-4327-8e06-0855d98ac434","AreaOnRegistry":"399","Address":"千葉県富里市新橋字山ノ下549-3","Tiban":"549-3"},"geometry":{"type":"Polygon","coordinates":[[[140.304025047304748,35.722923013576924],[140.304025047304748,35.722534442068955],[140.303904179556184,35.722621099487071],[140.303904179556184,35.722895861034885],[140.304025047304748,35.722923013576924]]]}},
{"type":"Feature","properties":{"fid":9,"polygon_uuid":"9e8d7eae-869a-4327-8e06-0855d98ac434","AreaOnRegistry":"265","Address":"千葉県富里市新橋字山ノ下549-4","Tiban":"549-4"},"geometry":{"type":"Polygon","coordinates":[[[140.304109987,35.722942095],[140.304139611000011,35.7228972],[140.304149527,35.722815194],[140.304149095000014,35.722741708],[140.304117302,35.722640079],[140.304089256999987,35.722586486],[140.304061346,35.722555504],[140.304040482,35.722523376],[140.304025047304748,35.722534442068955],[140.304025047304748,35.722923013576924],[140.304109987,35.722942095]]]}},
{"type":"Feature","properties":{"fid":10,"polygon_uuid":"eeb9628e-32e6-4be7-908a-08df927a888e","AreaOnRegistry":"481","Address":"千葉県富里市新橋字水白653-1","Tiban":"653-1"},"geometry":{"type":"Polygon","coordinates":[[[140.29655743,35.72140578],[140.296537783,35.721570187],[140.297086619999988,35.72162857],[140.297099775,35.721570768],[140.29655743,35.72140578]]]}},
{"type":"Feature","properties":{"fid":11,"polygon_uuid":"6fe37337-f469-4970-8b24-0c4307302ea9","AreaOnRegistry":"387","Address":"千葉県富里市新橋字高崎469","Tiban":"469"},"geometry":{"type":"Polygon","coordinates":[[[140.299688799,35.721394212],[140.299559891,35.721354646],[140.299536796000012,35.721506041],[140.299795020178777,35.721536513872017],[140.299795020178777,35.721415431132023],[140.299688799,35.721394212]]]}},
{"type":"Feature","properties":{"fid":12,"polygon_uuid":"6fe37337-f469-4970-8b24-0c4307302ea9","AreaOnRegistry":"138","Address":"千葉県富里市新橋字高崎468","Tiban":"468"},"geometry":{"type":"Polygon","coordinates":[[[140.299969909999987,35.721456083],[140.299819969,35.721420415],[140.299795020178777,35.721415431132023],[140.299795020178777,35.721536513872017],[140.300108132,35.721573464],[140.300114122,35.721478456],[140.299969909999987,35.721456083]]]}},
{"type":"Feature","properties":{"fid":13,"polygon_uuid":"46b1d581-5ad6-4f1a-ac0f-120c1fac5a65","AreaOnRegistry":"1025","Address":"千葉県富里市新橋字水白651","Tiban":"651"},"geometry":{"type":"Polygon","coordinates":[[[140.296488970000013,35.721890542],[140.29703311,35.721941626],[140.297070396,35.721738636],[140.296522429,35.721690941],[140.296488970000013,35.721890542]]]}},
{"type":"Feature","properties":{"fid":14,"polygon_uuid":"13040114-394d-44cb-985f-152100862525","AreaOnRegistry":"1025","Address":"千葉県富里市新橋字猪ノ尻596-2","Tiban":"596-2"},"geometry":{"type":"Polygon","coordinates":[[[140.301113916,35.723254953],[140.300524435,35.723197615],[140.300511285999988,35.723369512],[140.301090432,35.723439078],[140.301104105,35.723356949],[140.301113916,35.723254953]]]}},
{"type":"Feature","properties":{"fid":15,"polygon_uuid":"6a484f53-d2f0-488c-aba0-15696c8b1ef0","AreaOnRegistry":"261","Address":"千葉県富里市新橋字水白628-1","Tiban":"628-1"},"geometry":{"type":"Polygon","coordinates":[[[140.299390528,35.722330479],[140.299285258999987,35.722297564],[140.299113739,35.722249037],[140.298848671,35.722175484],[140.298833718999987,35.722285143],[140.299388585,35.72234476],[140.299390528,35.722330479]]]}},
{"type":"Feature","properties":{"fid":16,"polygon_uuid":"14f43e15-03ed-4702-9597-1c7f564d80f4","AreaOnRegistry":"1025","Address":"千葉県富里市新橋字曽利町156","Tiban":"156"},"geometry":{"type":"Polygon","coordinates":[[[140.306028499,35.721562746],[140.305842713,35.721561615],[140.305837035,35.721697487],[140.30583166400001,35.721885465],[140.306113879367274,35.721884356628649],[140.306113879367274,35.72155096903878],[140.306028499,35.721562746]]]}},
{"type":"Feature","properties":{"fid":17,"polygon_uuid":"14f43e15-03ed-4702-9597-1c7f564d80f4","AreaOnRegistry":"996","Address":"千葉県富里市新橋字曽利町157","Tiban":"157"},"geometry":{"type":"Polygon","coordinates":[[[140.306367567,35.721699772],[140.306352763,35.721487644],[140.30620900400001,35.721537848],[140.306113879367274,35.72155096903878],[140.306113879367274,35.721884356628649],[140.306367388000012,35.721883361],[140.306367567,35.721699772]]]}},
{"type":"Feature","properties":{"fid":18,"polygon_uuid":"d0e20cf3-877c-4f6b-ae48-1e65e46a30b2","AreaOnRegistry":"1025","Address":"千葉県富里市新橋字長町556","Tiban":"556"},"geometry":{"type":"Polygon","coordinates":[[[140.304537612,35.723651851],[140.303979932,35.723646826],[140.303978944,35.723828882],[140.304534219,35.723833912],[140.304537612,35.723651851]]]}},
{"type":"Feature","properties":{"fid":19,"polygon_uuid":"3b0771d4-92cf-4080-ad4e-1eb704560142","AreaOnRegistry":"555","Address":"千葉県富里市新橋字水白641-1","Tiban":"641-1"},"geometry":{"type":"Polygon","coordinates":[[[140.297648778,35.721989096],[140.297088261,35.721936993],[140.297075907,35.72203407],[140.29763789,35.722081192],[140.297648778,35.721989096]]]}},
{"type":"Feature","properties":{"fid":20,"polygon_uuid":"4fe8c000-030d-417f-8532-1ff71123ccde","AreaOnRegistry":"144","Address":"千葉県富里市新橋字曽利町139","Tiban":"139"},"geometry":{"type":"Polygon","coordinates":[[[140.305166172000014,35.721891112],[140.305132049,35.721936821],[140.305097945999989,35.721986034],[140.305027364000011,35.722045909],[140.304963199000014,35.7221005],[140.304871164,35.72216747],[140.304830250340245,35.722208486880383],[140.30516415142651,35.722208486880383],[140.305166172000014,35.721891112]]]}},
{"type":"Feature","properties":{"fid":21,"polygon_uuid":"4fe8c000-030d-417f-8532-1ff71123ccde","AreaOnRegistry":"517","Address":"千葉県富里市新橋字曽利町138","Tiban":"138"},"geometry":{"type":"Polygon","coordinates":[[[140.30516394,35.722241696],[140.30516415142651,35.722208486880383],[140.304830250340245,35.722208486880383],[140.304822014,35.722216744],[140.304770674,35.722259014],[140.304722243311062,35.722330749322907],[140.305160344993539,35.722330749322907],[140.30516394,35.722241696]]]}},
{"type":"Feature","properties":{"fid":22,"polygon_uuid":"4fe8c000-030d-417f-8532-1ff71123ccde","AreaOnRegistry":"794","Address":"千葉県富里市新橋字曽利町137","Tiban":"137"},"geometry":{"type":"Polygon","coordinates":[[[140.305156438000012,35.722427531],[140.305160344993539,35.722330749322907],[140.304722243311062,35.722330749322907],[140.304666257,35.722413676],[140.304660150811515,35.722433145384251],[140.305156276238932,35.722433145384251],[140.305156438000012,35.722427531]]]}},
{"type":"Feature","properties":{"fid":23,"polygon_uuid":"4fe8c000-030d-417f-8532-1ff71123ccde","AreaOnRegistry":"877","Address":"千葉県富里市新橋字曽利町135","Tiban":"135"},"geometry":{"type":"Polygon","coordinates":[[[140.305156276238932,35.722433145384251],[140.304660150811515,35.722433145384251],[140.304653597,35.722454042],[140.30463530628154,35.722527920676548],[140.305153545582755,35.722527920676548],[140.305156276238932,35.722433145384251]]]}},
{"type":"Feature","properties":{"fid":24,"polygon_uuid":"4fe8c000-030d-417f-8532-1ff71123ccde","AreaOnRegistry":"59","Address":"千葉県富里市新橋字曽利町136","Tiban":"136"},"geometry":{"type":"Polygon","coordinates":[[[140.305153545582755,35.722527920676548],[140.30463530628154,35.722527920676548],[140.304628402,35.722555808],[140.30460731,35.722624253],[140.305151083999988,35.722613357],[140.305153545582755,35.722527920676548]]]}},
{"type":"Feature","properties":{"fid":25,"polygon_uuid":"d66a0cb8-ff46-4aa2-9bd5-20c516f62cb1","AreaOnRegistry":"1025","Address":"千葉県富里市新橋字西ノ下618-1","Tiban":"618-1"},"geometry":{"type":"Polygon","coordinates":[[[140.29935703000001,35.722897939],[140.299915653999989,35.722956816],[140.299933981,35.722817674],[140.299940045999989,35.722771632],[140.299382017,35.722713943],[140.29935703000001,35.722897939]]]}},
{"type":"Feature","properties":{"fid":26,"polygon_uuid":"a614c859-f353-45e5-927d-212012527c19","AreaOnRegistry":"966","Address":"千葉県富里市新橋字五斗蒔111-1","Tiban":"111-1"},"geometry":{"type":"Polygon","coordinates":[[[140.305791232,35.723842117],[140.305788172,35.724033006],[140.306184987,35.724036243],[140.306345658999987,35.723950817],[140.306347628999987,35.7238491],[140.305791232,35.723842117]]]}},
{"type":"Feature","properties":{"fid":27,"polygon_uuid":"ed262863-fb30-4bc1-bded-21e56736cc21","AreaOnRegistry":null,"Address":null,"Tiban":null},"geometry":{"type":"Polygon","coordinates":[[[140.303358799066018,35.722220505373862],[140.303854077000011,35.722618267],[140.304020882,35.722495134],[140.303540310505326,35.722090620026968],[140.303360791268886,35.722219944637253],[140.303358799066018,35.722220505373862]]]}},
{"type":"Feature","properties":{"fid":28,"polygon_uuid":"3abd83af-5732-42e8-a4cb-21ee58074045","AreaOnRegistry":"823","Address":"千葉県富里市新橋字水白641-2","Tiban":"641-2"},"geometry":{"type":"Polygon","coordinates":[[[140.297130470000013,35.721605308],[140.297088261,35.721936993],[140.297352123296577,35.721961520386749],[140.297352123296577,35.721679515238243],[140.297130470000013,35.721605308]]]}},
{"type":"Feature","properties":{"fid":29,"polygon_uuid":"3abd83af-5732-42e8-a4cb-21ee58074045","AreaOnRegistry":"583","Address":"千葉県富里市新橋字水白641-3","Tiban":"641-3"},"geometry":{"type":"Polygon","coordinates":[[[140.297352123296577,35.721679515238243],[140.297352123296577,35.721961520386749],[140.297648778,35.721989096],[140.297672691,35.721786838],[140.297352123296577,35.721679515238243]]]}},
{"type":"Feature","properties":{"fid":30,"polygon_uuid":"125dc7b7-0e6c-4fa3-b58d-238ee44c01a0","AreaOnRegistry":"1025","Address":"千葉県富里市新橋字高崎465","Tiban":"465"},"geometry":{"type":"Polygon","coordinates":[[[140.299522129,35.721600969],[140.299500795,35.721784999],[140.300073721,35.721844412],[140.300100458,35.721660207],[140.299522129,35.721600969]]]}},
{"type":"Feature","properties":{"fid":31,"polygon_uuid":"d3fabd44-4e9d-47c8-8c3f-239570c43639","AreaOnRegistry":"630","Address":"千葉県富里市新橋字曽利町153","Tiban":"153"},"geometry":{"type":"Polygon","coordinates":[[[140.305829475,35.7222465],[140.305821538,35.722365633],[140.30582191100001,35.722428904],[140.305823030999989,35.722618717],[140.306000818522278,35.722616876788955],[140.306000818522278,35.722248143145983],[140.305829475,35.7222465]]]}},
{"type":"Feature","properties":{"fid":32,"polygon_uuid":"d3fabd44-4e9d-47c8-8c3f-239570c43639","AreaOnRegistry":"395","Address":"千葉県富里市新橋字曽利町152","Tiban":"152"},"geometry":{"type":"Polygon","coordinates":[[[140.306000818522278,35.722248143145983],[140.306000818522278,35.722616876788955],[140.306180041327963,35.722615021721836],[140.306180041327963,35.722249861852525],[140.306000818522278,35.722248143145983]]]}},
{"type":"Feature","properties":{"fid":33,"polygon_uuid":"d3fabd44-4e9d-47c8-8c3f-239570c43639","AreaOnRegistry":"1025","Address":"千葉県富里市新橋字曽利町151","Tiban":"151"},"geometry":{"type":"Polygon","coordinates":[[[140.306361044,35.72243144],[140.306361625,35.722366261],[140.306362646999986,35.722251613],[140.306180041327963,35.722249861852525],[140.306180041327963,35.722615021721836],[140.306359424,35.722613165],[140.306361044,35.72243144]]]}},
{"type":"Feature","properties":{"fid":34,"polygon_uuid":"f25db425-7c05-45de-a6f7-24fd326adc45","AreaOnRegistry":"731","Address":"千葉県富里市新橋字高崎476","Tiban":"476"},"geometry":{"type":"Polygon","coordinates":[[[140.300689086,35.72208728],[140.300616063,35.722509227],[140.300685980999987,35.722537895],[140.300830857281284,35.722585302915725],[140.300830857281284,35.722100192123392],[140.300689086,35.72208728]]]}},
{"type":"Feature","properties":{"fid":35,"polygon_uuid":"f25db425-7c05-45de-a6f7-24fd326adc45","AreaOnRegistry":"940","Address":"千葉県富里市新橋字高崎475-1","Tiban":"475-1"},"geometry":{"type":"Polygon","coordinates":[[[140.300830857281284,35.722100192123392],[140.300830857281284,35.722585302915725],[140.300839567,35.722588153],[140.300996154823395,35.72263283347349],[140.300996154823395,35.722115246951425],[140.300830857281284,35.722100192123392]]]}},
{"type":"Feature","properties":{"fid":36,"polygon_uuid":"f25db425-7c05-45de-a6f7-24fd326adc45","AreaOnRegistry":"763","Address":"千葉県富里市新橋字高崎475-2","Tiban":"475-2"},"geometry":{"type":"Polygon","coordinates":[[[140.300996154823395,35.722115246951425],[140.300996154823395,35.72263283347349],[140.301017675,35.722638974],[140.301221442000013,35.722676339],[140.301350185,35.722687285],[140.301282092,35.722645577],[140.301228003,35.72259809],[140.301166862,35.722544908],[140.30113375,35.722483985],[140.301119244,35.722403911],[140.301132736,35.722310373],[140.301113967,35.722215838],[140.301095884,35.72212433],[140.300996154823395,35.722115246951425]]]}},
{"type":"Feature","properties":{"fid":37,"polygon_uuid":"a22db089-1bed-4949-8725-25f9190ea970","AreaOnRegistry":"173","Address":"千葉県富里市新橋字高崎477-1","Tiban":"477-1"},"geometry":{"type":"Polygon","coordinates":[[[140.300689086,35.72208728],[140.300811661335445,35.722098443811468],[140.300811661335445,35.721764793301453],[140.300806666,35.721762173],[140.300746002000011,35.721735032],[140.300689086,35.72208728]]]}},
{"type":"Feature","properties":{"fid":38,"polygon_uuid":"a22db089-1bed-4949-8725-25f9190ea970","AreaOnRegistry":"208","Address":"千葉県富里市新橋字高崎477-2","Tiban":"477-2"},"geometry":{"type":"Polygon","coordinates":[[[140.300917579803553,35.722108090563033],[140.300917579803553,35.721824668991339],[140.300900537,35.721811413],[140.300811661335445,35.721764793301453],[140.300811661335445,35.722098443811468],[140.300917579803553,35.722108090563033]]]}},
{"type":"Feature","properties":{"fid":39,"polygon_uuid":"a22db089-1bed-4949-8725-25f9190ea970","AreaOnRegistry":"313","Address":"千葉県富里市新橋字高崎477-3","Tiban":"477-3"},"geometry":{"type":"Polygon","coordinates":[[[140.301095884,35.72212433],[140.301063648,35.722012846],[140.301027643,35.721942562],[140.300963994999989,35.721860771],[140.300917579803553,35.721824668991339],[140.300917579803553,35.722108090563033],[140.301095884,35.72212433]]]}},
{"type":"Feature","properties":{"fid":40,"polygon_uuid":"4bfef293-938f-4212-8b75-265349b04272","AreaOnRegistry":"1025","Address":"千葉県富里市新橋字高崎459","Tiban":"459"},"geometry":{"type":"Polygon","coordinates":[[[140.299466396000014,35.721777394],[140.299489885000014,35.721597205],[140.298939911,35.721545972],[140.298916413,35.721724827],[140.299466396000014,35.721777394]]]}},
{"type":"Feature","properties":{"fid":41,"polygon_uuid":"bc3341b2-fca3-4235-a451-26fdaa822908","AreaOnRegistry":"503","Address":"千葉県富里市新橋字水白624-1","Tiban":"624-1"},"geometry":{"type":"Polygon","coordinates":[[[140.299269047,35.723260979],[140.29870789200001,35.723207897],[140.298695636,35.723297779],[140.298906792,35.723326476],[140.299083812,35.723343104],[140.299253793,35.723365915],[140.299269047,35.723260979]]]}},
{"type":"Feature","properties":{"fid":42,"polygon_uuid":"d9202145-0a50-4d15-8c0c-294653c6104b","AreaOnRegistry":"964","Address":"千葉県富里市新橋字西ノ下617-1","Tiban":"617-1"},"geometry":{"type":"Polygon","coordinates":[[[140.29933088673684,35.72309067974188],[140.299894112,35.723138367],[140.299915653999989,35.722956816],[140.29935703000001,35.722897939],[140.29933088673684,35.72309067974188]]]}},
{"type":"Feature","properties":{"fid":43,"polygon_uuid":"603c3bde-1ffc-413c-9d01-2b08a7be4494","AreaOnRegistry":null,"Address":null,"Tiban":null},"geometry":{"type":"Polygon","coordinates":[[[140.303388887000011,35.722549653],[140.303296167000013,35.722696992],[140.303395947000013,35.722778966],[140.303562983,35.72281405],[140.303648273,35.72275896],[140.303388887000011,35.722549653]]]}},
{"type":"Feature","properties":{"fid":44,"polygon_uuid":"41c3d2d1-5c42-451c-9111-2ec766d9ddd6","AreaOnRegistry":"1025","Address":"千葉県富里市新橋字猪ノ尻588-1","Tiban":"588-1"},"geometry":{"type":"Polygon","coordinates":[[[140.30171028800001,35.722940367],[140.301169029,35.722895022],[140.30114211,35.723077074],[140.301694077,35.723126382],[140.30171028800001,35.722940367]]]}},
{"type":"Feature","properties":{"fid":45,"polygon_uuid":"b2ad5591-acc5-4b37-aa4a-30fb310f4436","AreaOnRegistry":"470","Address":"千葉県富里市新橋字水白642","Tiban":"642"},"geometry":{"type":"Polygon","coordinates":[[[140.29763789,35.722081192],[140.297075907,35.72203407],[140.297064858999988,35.72212088],[140.297627391,35.722169988],[140.29763789,35.722081192]]]}},
{"type":"Feature","properties":{"fid":46,"polygon_uuid":"75f5b7c5-af43-4ac7-b756-33298f8fb962","AreaOnRegistry":"712","Address":"千葉県富里市新橋字五斗蒔104-1","Tiban":"104-1"},"geometry":{"type":"Polygon","coordinates":[[[140.307012711999988,35.723338479],[140.307256175,35.723296778],[140.307255547000011,35.723225423],[140.307448400999988,35.723219848],[140.307448042,35.723159155],[140.307320842,35.723120383],[140.307022442,35.723112436],[140.307012711999988,35.723338479]]]}},
{"type":"Feature","properties":{"fid":47,"polygon_uuid":"eae82bf7-310a-43a7-98f6-34da44a5f426","AreaOnRegistry":"1025","Address":"千葉県富里市新橋字西ノ下619-1","Tiban":"619-1"},"geometry":{"type":"Polygon","coordinates":[[[140.29996441,35.722586656],[140.299406256,35.722535445],[140.299382017,35.722713943],[140.299940045999989,35.722771632],[140.29996441,35.722586656]]]}},
{"type":"Feature","properties":{"fid":48,"polygon_uuid":"24dac3a4-aa6b-419f-90f4-34ec8ee0ffb7","AreaOnRegistry":"1025","Address":"千葉県富里市新橋字水白631-1","Tiban":"631-1"},"geometry":{"type":"Polygon","coordinates":[[[140.298746397,35.722653706],[140.298192347,35.722604607],[140.298173751,35.722781071],[140.298721529,35.722840804],[140.298746397,35.722653706]]]}},
{"type":"Feature","properties":{"fid":49,"polygon_uuid":"be6daaf4-14d6-4e4e-8499-3514fbe6f993","AreaOnRegistry":"575","Address":"千葉県富里市新橋字水白638-1","Tiban":"638-1"},"geometry":{"type":"Polygon","coordinates":[[[140.298192197,35.722301606],[140.297643267000012,35.722240608],[140.297626373000014,35.722355881],[140.298177087,35.722408948],[140.298192197,35.722301606]]]}},
{"type":"Feature","properties":{"fid":50,"polygon_uuid":"ac35754f-45bb-4097-ae3d-376be72b6a75","AreaOnRegistry":"976","Address":"千葉県富里市新橋字長町560-3","Tiban":"560-3"},"geometry":{"type":"Polygon","coordinates":[[[140.303938109,35.723825917],[140.303514899,35.72381598],[140.30350568,35.724008448],[140.303936262,35.724017483],[140.303938109,35.723825917]]]}},
{"type":"Feature","properties":{"fid":51,"polygon_uuid":"259e820d-0a84-4e57-bbe0-384764d59eaa","AreaOnRegistry":"1025","Address":"千葉県富里市新橋字曽利町146","Tiban":"146"},"geometry":{"type":"Polygon","coordinates":[[[140.305223517,35.722435034],[140.3052246,35.722618663],[140.305216896,35.722799941],[140.305205488000013,35.722978384],[140.305403617330342,35.722980463484667],[140.305403617330342,35.722434443039461],[140.305223517,35.722435034]]]}},
{"type":"Feature","properties":{"fid":52,"polygon_uuid":"259e820d-0a84-4e57-bbe0-384764d59eaa","AreaOnRegistry":"1025","Address":"千葉県富里市新橋字曽利町147","Tiban":"147"},"geometry":{"type":"Polygon","coordinates":[[[140.305403617330342,35.722434443039461],[140.305403617330342,35.722980463484667],[140.30558764938192,35.72298239501005],[140.30558764938192,35.722433839177825],[140.305403617330342,35.722434443039461]]]}},
{"type":"Feature","properties":{"fid":53,"polygon_uuid":"259e820d-0a84-4e57-bbe0-384764d59eaa","AreaOnRegistry":"903","Address":"千葉県富里市新橋字曽利町148-1","Tiban":"148-1"},"geometry":{"type":"Polygon","coordinates":[[[140.305768253,35.722794903],[140.305773538000011,35.722618546],[140.305779092,35.722433211],[140.30558764938192,35.722433839177825],[140.30558764938192,35.72298239501005],[140.305762579,35.722984231],[140.305768253,35.722794903]]]}},
{"type":"Feature","properties":{"fid":54,"polygon_uuid":"dcc971f1-9a1b-43df-8586-387e8e4cc021","AreaOnRegistry":"156","Address":"千葉県富里市新橋字長町555-2","Tiban":"555-2"},"geometry":{"type":"Polygon","coordinates":[[[140.303979932,35.723646826],[140.304170091773585,35.723648539442948],[140.304170091773585,35.72338724765936],[140.30398132900001,35.723389749],[140.303979932,35.723646826]]]}},
{"type":"Feature","properties":{"fid":55,"polygon_uuid":"dcc971f1-9a1b-43df-8586-387e8e4cc021","AreaOnRegistry":"1025","Address":"千葉県富里市新橋字長町555-1","Tiban":"555-1"},"geometry":{"type":"Polygon","coordinates":[[[140.304356543002086,35.723650219469882],[140.304356543002086,35.723384776949558],[140.304170091773585,35.72338724765936],[140.304170091773585,35.723648539442948],[140.304356543002086,35.723650219469882]]]}},
{"type":"Feature","properties":{"fid":56,"polygon_uuid":"dcc971f1-9a1b-43df-8586-387e8e4cc021","AreaOnRegistry":"254","Address":"千葉県富里市新橋字長町555-3","Tiban":"555-3"},"geometry":{"type":"Polygon","coordinates":[[[140.304537612,35.723651851],[140.304542635,35.723382311],[140.304356543002086,35.723384776949558],[140.304356543002086,35.723650219469882],[140.304537612,35.723651851]]]}},
{"type":"Feature","properties":{"fid":57,"polygon_uuid":"73675d3e-315e-4601-934a-39bb9b2440b8","AreaOnRegistry":"406","Address":"千葉県富里市新橋字長町560-1","Tiban":"560-1"},"geometry":{"type":"Polygon","coordinates":[[[140.30350568,35.724008448],[140.303504423,35.724034688],[140.303564426,35.724063016],[140.303606918000014,35.724091413],[140.303642132,35.724123407],[140.303674476999987,35.724163744],[140.303699504,35.724200539],[140.303770971914389,35.724200983661397],[140.303770971914389,35.724014014680556],[140.30350568,35.724008448]]]}},
{"type":"Feature","properties":{"fid":58,"polygon_uuid":"73675d3e-315e-4601-934a-39bb9b2440b8","AreaOnRegistry":"205","Address":"千葉県富里市新橋字長町559-4","Tiban":"559-4"},"geometry":{"type":"Polygon","coordinates":[[[140.303770971914389,35.724014014680556],[140.303770971914389,35.724200983661397],[140.303934483,35.724202001],[140.303936262,35.724017483],[140.303770971914389,35.724014014680556]]]}},
{"type":"Feature","properties":{"fid":59,"polygon_uuid":"fecf4c5c-29eb-4df2-a811-3b2800c091f2","AreaOnRegistry":"351","Address":"千葉県富里市新橋字水白633-1","Tiban":"633-1"},"geometry":{"type":"Polygon","coordinates":[[[140.29867255100001,35.723209302],[140.298119576,35.723150423],[140.298115096,35.723184028],[140.298510621,35.723271361],[140.298662482,35.723285055],[140.29867255100001,35.723209302]]]}},
{"type":"Feature","properties":{"fid":60,"polygon_uuid":"e621d765-f783-4960-bd7b-3c313cc6471e","AreaOnRegistry":"379","Address":"千葉県富里市新橋字猪ノ尻600-1","Tiban":"600-1"},"geometry":{"type":"Polygon","coordinates":[[[140.300605622,35.722678168],[140.300578914999988,35.722831911],[140.300832472557772,35.722859028253666],[140.300832472557772,35.722735390568246],[140.300605622,35.722678168]]]}},
{"type":"Feature","properties":{"fid":61,"polygon_uuid":"e621d765-f783-4960-bd7b-3c313cc6471e","AreaOnRegistry":"175","Address":"千葉県富里市新橋字猪ノ尻599","Tiban":"599"},"geometry":{"type":"Polygon","coordinates":[[[140.300832472557772,35.722735390568246],[140.300832472557772,35.722859028253666],[140.301169029,35.722895022],[140.301182281,35.722823629],[140.300832472557772,35.722735390568246]]]}},
{"type":"Feature","properties":{"fid":62,"polygon_uuid":"3a4c06c3-754c-408f-854d-3e69ccb40cf0","AreaOnRegistry":"1025","Address":"千葉県富里市新橋字五斗蒔119","Tiban":"119"},"geometry":{"type":"Polygon","coordinates":[[[140.305195860999987,35.723283561],[140.305197333,35.723467804],[140.305760975999988,35.723474263],[140.305763977,35.723289365],[140.305195860999987,35.723283561]]]}},
{"type":"Feature","properties":{"fid":63,"polygon_uuid":"cc991dcf-bdf7-460c-8da6-3f809bd8b223","AreaOnRegistry":"1025","Address":"千葉県富里市新橋字猪ノ尻583-1","Tiban":"583-1"},"geometry":{"type":"Polygon","coordinates":[[[140.302236083,35.723728424],[140.302264464,35.723553134],[140.301682138,35.723504874],[140.301654829,35.723675543],[140.302236083,35.723728424]]]}},
{"type":"Feature","properties":{"fid":64,"polygon_uuid":"27573df7-be55-4aaa-bfb4-4266db205bf2","AreaOnRegistry":"1025","Address":"千葉県富里市新橋字西ノ下603-1","Tiban":"603-1"},"geometry":{"type":"Polygon","coordinates":[[[140.299894112,35.723138367],[140.300471349,35.723198481],[140.300493257999989,35.723015403],[140.299915653999989,35.722956816],[140.299894112,35.723138367]]]}},
{"type":"Feature","properties":{"fid":65,"polygon_uuid":"1f1b6c3a-c030-403b-abed-45235e146fef","AreaOnRegistry":"500","Address":"千葉県富里市新橋字五斗蒔114-1","Tiban":"114-1"},"geometry":{"type":"Polygon","coordinates":[[[140.305795722,35.72356214],[140.305794156,35.723659781],[140.306351408000012,35.723654054],[140.306352882999988,35.72357794],[140.305795722,35.72356214]]]}},
{"type":"Feature","properties":{"fid":66,"polygon_uuid":"3f48067a-3bc6-4c37-bbeb-4528c5db0fab","AreaOnRegistry":"939","Address":"千葉県富里市新橋字曽利町174","Tiban":"174"},"geometry":{"type":"Polygon","coordinates":[[[140.307203244624901,35.722633580672245],[140.307203244624901,35.722205168992041],[140.307032594,35.722205203],[140.307030917,35.722262818],[140.307032692,35.72244407],[140.307026514,35.722631626],[140.307203244624901,35.722633580672245]]]}},
{"type":"Feature","properties":{"fid":67,"polygon_uuid":"3f48067a-3bc6-4c37-bbeb-4528c5db0fab","AreaOnRegistry":"979","Address":"千葉県富里市新橋字曽利町175-1","Tiban":"175-1"},"geometry":{"type":"Polygon","coordinates":[[[140.307374882142682,35.722635479013817],[140.307374882142682,35.722205134787409],[140.307203244624901,35.722205168992041],[140.307203244624901,35.722633580672245],[140.307374882142682,35.722635479013817]]]}},
{"type":"Feature","properties":{"fid":68,"polygon_uuid":"3f48067a-3bc6-4c37-bbeb-4528c5db0fab","AreaOnRegistry":"344","Address":"千葉県富里市新橋字曽利町176-1","Tiban":"176-1"},"geometry":{"type":"Polygon","coordinates":[[[140.307493142999988,35.722636787],[140.307493115,35.722622496],[140.307517547,35.722617626],[140.307545544,35.722450351],[140.30756749,35.722254296],[140.307574025,35.722205096],[140.307549443999989,35.7222051],[140.307374882142682,35.722205134787409],[140.307374882142682,35.722635479013817],[140.307493142999988,35.722636787]]]}},
{"type":"Feature","properties":{"fid":69,"polygon_uuid":"fdbfc770-3f0f-4f9b-a9df-45d855512b61","AreaOnRegistry":"640","Address":"千葉県富里市新橋字曽利町177","Tiban":"177"},"geometry":{"type":"Polygon","coordinates":[[[140.307165249780951,35.722205176563811],[140.307165249780951,35.721776357085417],[140.307023156000014,35.721693372],[140.307035267,35.721885059],[140.30703639,35.722074821],[140.307032594,35.722205203],[140.307165249780951,35.722205176563811]]]}},
{"type":"Feature","properties":{"fid":70,"polygon_uuid":"fdbfc770-3f0f-4f9b-a9df-45d855512b61","AreaOnRegistry":"883","Address":"千葉県富里市新橋字曽利町178-3","Tiban":"178-3"},"geometry":{"type":"Polygon","coordinates":[[[140.307324528954439,35.722205144821999],[140.307324528954439,35.721862182910137],[140.307277371,35.72183257],[140.307167865999986,35.721777885],[140.307165249780951,35.721776357085417],[140.307165249780951,35.722205176563811],[140.307324528954439,35.722205144821999]]]}},
{"type":"Feature","properties":{"fid":71,"polygon_uuid":"fdbfc770-3f0f-4f9b-a9df-45d855512b61","AreaOnRegistry":"403","Address":"千葉県富里市新橋字曽利町178-4","Tiban":"178-4"},"geometry":{"type":"Polygon","coordinates":[[[140.307549443999989,35.7222051],[140.307550402,35.722178728],[140.307578064000012,35.722174688],[140.307580761999986,35.722154375],[140.307559549,35.722073122],[140.307522755,35.722005432],[140.307441727,35.721938777],[140.307371305,35.721891556],[140.307324528954439,35.721862182910137],[140.307324528954439,35.722205144821999],[140.307549443999989,35.7222051]]]}},
{"type":"Feature","properties":{"fid":72,"polygon_uuid":"0a9d5db9-30a5-46f4-a3ac-45d954ceaa5e","AreaOnRegistry":"272","Address":"千葉県富里市新橋字猪ノ尻585-3","Tiban":"585-3"},"geometry":{"type":"Polygon","coordinates":[[[140.302024569,35.722732518],[140.301929390999987,35.722756443],[140.301845753,35.722777967],[140.301776598,35.722806501],[140.301756482,35.722945477],[140.302113485423803,35.722982592461705],[140.302113485423803,35.722710584260085],[140.302024569,35.722732518]]]}},
{"type":"Feature","properties":{"fid":73,"polygon_uuid":"0a9d5db9-30a5-46f4-a3ac-45d954ceaa5e","AreaOnRegistry":"972","Address":"千葉県富里市新橋字猪ノ尻585-1","Tiban":"585-1"},"geometry":{"type":"Polygon","coordinates":[[[140.30237789,35.722700646],[140.302314177999989,35.722697021],[140.302235200000013,35.722694011],[140.302131287,35.722706193],[140.302113485423803,35.722710584260085],[140.302113485423803,35.722982592461705],[140.30233879,35.723006016],[140.30237789,35.722700646]]]}},
{"type":"Feature","properties":{"fid":74,"polygon_uuid":"c524ce7b-f274-428f-85f7-45e7b02dfd85","AreaOnRegistry":"906","Address":"千葉県富里市新橋字五斗蒔117-1","Tiban":"117-1"},"geometry":{"type":"Polygon","coordinates":[[[140.305800098,35.723289223],[140.306358364,35.723295063],[140.30635405000001,35.723121029],[140.305789219,35.723115214],[140.305800098,35.723289223]]]}},
{"type":"Feature","properties":{"fid":75,"polygon_uuid":"7063c925-eb14-43e8-a27e-46775024468f","AreaOnRegistry":"1025","Address":"千葉県富里市新橋字五斗蒔126","Tiban":"126"},"geometry":{"type":"Polygon","coordinates":[[[140.304579408,35.723844616],[140.30457776,35.724039775],[140.305135603,35.724046336],[140.305139537,35.723847149],[140.304579408,35.723844616]]]}},
{"type":"Feature","properties":{"fid":76,"polygon_uuid":"789c96f7-6fd5-4e4a-83cc-48e42dea2cd4","AreaOnRegistry":"512","Address":"千葉県富里市新橋字五斗蒔130","Tiban":"130"},"geometry":{"type":"Polygon","coordinates":[[[140.304584065,35.723293511],[140.304583313,35.723382489],[140.305148661,35.723385111],[140.305150408,35.723296648],[140.304584065,35.723293511]]]}},
{"type":"Feature","properties":{"fid":77,"polygon_uuid":"45465dd0-668e-4105-ba99-4992b0a88611","AreaOnRegistry":"440","Address":"千葉県富里市新橋字五斗蒔110-1","Tiban":"110-1"},"geometry":{"type":"Polygon","coordinates":[[[140.305788172,35.724033006],[140.305789106,35.724183045],[140.305864328000013,35.724175529],[140.305959323,35.724142663],[140.306184987,35.724036243],[140.305788172,35.724033006]]]}},
{"type":"Feature","properties":{"fid":78,"polygon_uuid":"f8182ec2-f173-4cf8-8960-4a580d895a44","AreaOnRegistry":"1025","Address":"千葉県富里市新橋字水白645","Tiban":"645"},"geometry":{"type":"Polygon","coordinates":[[[140.296995523,35.722665719],[140.296970571,35.722837102],[140.297292449895934,35.722932397987471],[140.297292449895934,35.722694681267065],[140.296995523,35.722665719]]]}},
{"type":"Feature","properties":{"fid":79,"polygon_uuid":"f8182ec2-f173-4cf8-8960-4a580d895a44","AreaOnRegistry":"257","Address":"千葉県富里市新橋字水白646-1","Tiban":"646-1"},"geometry":{"type":"Polygon","coordinates":[[[140.297292449895934,35.722694681267065],[140.297292449895934,35.722932397987471],[140.297465343,35.722983585],[140.297517334,35.722983384],[140.297562244,35.722720997],[140.297292449895934,35.722694681267065]]]}},
{"type":"Feature","properties":{"fid":80,"polygon_uuid":"63e5caec-40b4-437c-9530-4e15285cd062","AreaOnRegistry":"704","Address":"千葉県富里市新橋字五斗蒔106","Tiban":"106"},"geometry":{"type":"Polygon","coordinates":[[[140.306410368,35.723300775],[140.306420268000011,35.72347764],[140.306701296,35.723486991],[140.306727292,35.723445787],[140.3068044,35.723405021],[140.306990659,35.723352646],[140.306992563,35.723300289],[140.306410368,35.723300775]]]}},
{"type":"Feature","properties":{"fid":81,"polygon_uuid":"5b9f9168-bf20-47c0-b71d-5055f345ae1c","AreaOnRegistry":"526","Address":"千葉県酒々井町飯積川免470-3","Tiban":"470-3"},"geometry":{"type":"Polygon","coordinates":[[[140.297426664999989,35.721531007],[140.29745625000001,35.721398889],[140.297040931,35.721309738],[140.297028047999987,35.72141429],[140.297426664999989,35.721531007]]]}},
{"type":"Feature","properties":{"fid":82,"polygon_uuid":"bcc281d4-ef8c-4e09-9662-520fc265f1c9","AreaOnRegistry":"694","Address":"千葉県富里市新橋字猪ノ尻565-4","Tiban":"565-4"},"geometry":{"type":"Polygon","coordinates":[[[140.302862194,35.723612574],[140.302837007,35.723803411],[140.303174141999989,35.723829155],[140.30319154,35.723776712],[140.303221887,35.723725419],[140.303294036000011,35.723731078],[140.303308216,35.72368627],[140.303342682,35.72365316],[140.303262006000011,35.723646454],[140.302862194,35.723612574]]]}},
{"type":"Feature","properties":{"fid":83,"polygon_uuid":"70d75b90-d383-498e-a7c7-5546214c6b39","AreaOnRegistry":"1119","Address":"千葉県富里市新橋字猪ノ尻563-1","Tiban":"563-1"},"geometry":{"type":"Polygon","coordinates":[[[140.303517176000014,35.723303479],[140.303750617,35.723320362],[140.304031411000011,35.72311119],[140.303901872000012,35.723063784],[140.303795535,35.723034388],[140.303709298,35.723012113],[140.303560538,35.722969295],[140.303517176000014,35.723303479]]]}},
{"type":"Feature","properties":{"fid":84,"polygon_uuid":"0c8718fb-2e44-4558-8e7f-5566478c3497","AreaOnRegistry":"1025","Address":"千葉県富里市新橋字猪ノ尻568","Tiban":"568"},"geometry":{"type":"Polygon","coordinates":[[[140.303474566,35.723485412],[140.303487929,35.723301639],[140.30290972200001,35.723254171],[140.302886185,35.723430805],[140.303279135999986,35.723466586],[140.303474566,35.723485412]]]}},
{"type":"Feature","properties":{"fid":85,"polygon_uuid":"6902688b-718b-430a-bca6-55bd303ecf05","AreaOnRegistry":"1025","Address":"千葉県酒々井町飯積川免469-3","Tiban":"469-3"},"geometry":{"type":"Polygon","coordinates":[[[140.296503621,35.721027619],[140.297053289,35.721114434],[140.297092737000014,35.720938277],[140.296544067000013,35.720845566],[140.296503621,35.721027619]]]}},
{"type":"Feature","properties":{"fid":86,"polygon_uuid":"6df43700-4703-46fc-b31f-564bf58f8abb","AreaOnRegistry":"955","Address":"千葉県富里市新橋字五斗蒔121","Tiban":"121"},"geometry":{"type":"Polygon","coordinates":[[[140.305198959,35.723671282],[140.305200246,35.723832371],[140.305754925,35.72384703],[140.305757672999988,35.723677716],[140.305198959,35.723671282]]]}},
{"type":"Feature","properties":{"fid":87,"polygon_uuid":"50c27caf-4265-4d86-90c0-585caf8c71fe","AreaOnRegistry":"1000","Address":"千葉県富里市新橋字曽利町134","Tiban":"134"},"geometry":{"type":"Polygon","coordinates":[[[140.30460731,35.722624253],[140.30460295200001,35.722721007],[140.304595434,35.722797834],[140.304592106,35.722962618],[140.304875972403892,35.722966994810868],[140.304875972403892,35.722618869613605],[140.30460731,35.722624253]]]}},
{"type":"Feature","properties":{"fid":88,"polygon_uuid":"50c27caf-4265-4d86-90c0-585caf8c71fe","AreaOnRegistry":"891","Address":"千葉県富里市新橋字曽利町133-1","Tiban":"133-1"},"geometry":{"type":"Polygon","coordinates":[[[140.305151083999988,35.722613357],[140.304875972403892,35.722618869613605],[140.304875972403892,35.722966994810868],[140.305135996,35.722971004],[140.305146631000014,35.72295168],[140.305143582,35.722799192],[140.305151083999988,35.722613357]]]}},
{"type":"Feature","properties":{"fid":89,"polygon_uuid":"88b79019-2189-4790-8339-5a10e9ffa31b","AreaOnRegistry":"681","Address":"千葉県富里市新橋字水白652","Tiban":"652"},"geometry":{"type":"Polygon","coordinates":[[[140.297086619999988,35.72162857],[140.296537783,35.721570187],[140.296522429,35.721690941],[140.297070396,35.721738636],[140.297086619999988,35.72162857]]]}},
{"type":"Feature","properties":{"fid":90,"polygon_uuid":"69ff5d87-ca31-4255-950c-5e1afaf80b4d","AreaOnRegistry":"1025","Address":"千葉県富里市新橋字猪ノ尻598","Tiban":"598"},"geometry":{"type":"Polygon","coordinates":[[[140.301169029,35.722895022],[140.300578914999988,35.722831911],[140.300548526,35.723014134],[140.30114211,35.723077074],[140.301169029,35.722895022]]]}},
{"type":"Feature","properties":{"fid":91,"polygon_uuid":"6e8aebed-c7c5-4502-825c-60cb9b5672a4","AreaOnRegistry":"937","Address":"千葉県富里市新橋字高崎458","Tiban":"458"},"geometry":{"type":"Polygon","coordinates":[[[140.299489885000014,35.721597205],[140.299510521,35.7214888],[140.298949189000012,35.721453619],[140.298939911,35.721545972],[140.299489885000014,35.721597205]]]}},
{"type":"Feature","properties":{"fid":92,"polygon_uuid":"38f4d35f-7350-4734-ad99-6141164cc302","AreaOnRegistry":"1025","Address":"千葉県富里市新橋字曽利町166","Tiban":"166"},"geometry":{"type":"Polygon","coordinates":[[[140.306423288,35.722251146],[140.306421645,35.722434953],[140.306419985,35.722620759],[140.306705966876962,35.722624147934368],[140.306705966876962,35.722252948082001],[140.306423288,35.722251146]]]}},
{"type":"Feature","properties":{"fid":93,"polygon_uuid":"38f4d35f-7350-4734-ad99-6141164cc302","AreaOnRegistry":"1025","Address":"千葉県富里市新橋字曽利町164","Tiban":"164"},"geometry":{"type":"Polygon","coordinates":[[[140.306988708,35.722440104],[140.306992071,35.722254772],[140.306705966876962,35.722252948082001],[140.306705966876962,35.722624147934368],[140.306986981,35.722627478],[140.306988708,35.722440104]]]}},
{"type":"Feature","properties":{"fid":94,"polygon_uuid":"e4ec1587-a040-4b2f-846c-626ccec29c79","AreaOnRegistry":null,"Address":null,"Tiban":null},"geometry":{"type":"Polygon","coordinates":[[[140.303195206,35.722389891],[140.302874567274216,35.722450155465914],[140.302920437462376,35.722676303102837],[140.303163049,35.722721393],[140.303296167000013,35.722696992],[140.303388887000011,35.722549653],[140.303195206,35.722389891],[140.303195206,35.722389891]]]}},
{"type":"Feature","properties":{"fid":95,"polygon_uuid":"fc026970-1d55-4971-8dfe-64e129b43c64","AreaOnRegistry":"443","Address":"千葉県富里市新橋字猪ノ尻591","Tiban":"591"},"geometry":{"type":"Polygon","coordinates":[[[140.301657963,35.72340481],[140.301104105,35.723356949],[140.301090432,35.723439078],[140.301645900000011,35.723493345],[140.301657963,35.72340481]]]}},
{"type":"Feature","properties":{"fid":96,"polygon_uuid":"72efca0c-c676-484a-a111-693d7b2a5b59","AreaOnRegistry":"1025","Address":"千葉県富里市新橋字水白629-1","Tiban":"629-1"},"geometry":{"type":"Polygon","coordinates":[[[140.298795070000011,35.722287506],[140.298241353,35.722237032],[140.298216922,35.722420275],[140.298770988,35.722468689],[140.298795070000011,35.722287506]]]}},
{"type":"Feature","properties":{"fid":97,"polygon_uuid":"ccc8408a-844e-43ce-9757-69afc8d1ca20","AreaOnRegistry":"1000","Address":"千葉県富里市新橋字水白627-1","Tiban":"627-1"},"geometry":{"type":"Polygon","coordinates":[[[140.299363564,35.72252226],[140.298807754,35.72247556],[140.298787874999988,35.72264853],[140.299340060774483,35.722707449134298],[140.299363564,35.72252226]]]}},
{"type":"Feature","properties":{"fid":98,"polygon_uuid":"a7b5b418-945f-4da9-aef5-6c1ba6fb34f7","AreaOnRegistry":"685","Address":"千葉県富里市新橋字高崎472","Tiban":"472"},"geometry":{"type":"Polygon","coordinates":[[[140.300650491999988,35.722084489],[140.300073183,35.722032516],[140.300055076,35.722147899],[140.300633065,35.722189066],[140.300650491999988,35.722084489]]]}},
{"type":"Feature","properties":{"fid":99,"polygon_uuid":"b658d134-16e9-4dce-a2c2-6ce0e6d3c5ef","AreaOnRegistry":"582","Address":"千葉県富里市新橋字猪ノ尻590-1","Tiban":"590-1"},"geometry":{"type":"Polygon","coordinates":[[[140.301666851,35.723311158],[140.301113916,35.723254953],[140.301104105,35.723356949],[140.301657963,35.72340481],[140.301666851,35.723311158]]]}},
{"type":"Feature","properties":{"fid":100,"polygon_uuid":"9d49d9ec-be83-4a79-9f0f-6dc99328f12b","AreaOnRegistry":"1025","Address":"千葉県富里市新橋字長町557-3","Tiban":"557-3"},"geometry":{"type":"Polygon","coordinates":[[[140.303977906,35.724019896],[140.304530659,35.724024966],[140.304534219,35.723833912],[140.303978944,35.723828882],[140.303977906,35.724019896]]]}},
{"type":"Feature","properties":{"fid":101,"polygon_uuid":"484f3df2-8b84-4b41-8483-70dbc0b0c709","AreaOnRegistry":"496","Address":"千葉県酒々井町飯積川免469-1","Tiban":"469-1"},"geometry":{"type":"Polygon","coordinates":[[[140.296587093,35.72066139],[140.297128875,35.720773133],[140.297132814,35.720731818],[140.296617444,35.720528023],[140.296587093,35.72066139]]]}},
{"type":"Feature","properties":{"fid":102,"polygon_uuid":"40f2e4de-9c82-410c-bb0c-73c1c7c3f13f","AreaOnRegistry":"309","Address":"千葉県富里市新橋字水白630","Tiban":"630"},"geometry":{"type":"Polygon","coordinates":[[[140.298216922,35.722420275],[140.298201291999987,35.722537508],[140.298487391615197,35.72256368246115],[140.298487391615197,35.722443908494839],[140.298216922,35.722420275]]]}},
{"type":"Feature","properties":{"fid":103,"polygon_uuid":"40f2e4de-9c82-410c-bb0c-73c1c7c3f13f","AreaOnRegistry":"366","Address":"千葉県富里市新橋字水白631-3","Tiban":"631-3"},"geometry":{"type":"Polygon","coordinates":[[[140.298487391615197,35.722443908494839],[140.298487391615197,35.72256368246115],[140.298755107,35.722588175],[140.298770988,35.722468689],[140.298487391615197,35.722443908494839]]]}},
{"type":"Feature","properties":{"fid":104,"polygon_uuid":"fd154757-2f15-4040-acaf-753a54a93376","AreaOnRegistry":"2230","Address":"千葉県富里市新橋字山ノ下547-1","Tiban":"547-1"},"geometry":{"type":"Polygon","coordinates":[[[140.302874567274216,35.722450155465914],[140.303195206,35.722389891],[140.303194199085425,35.722370258841892],[140.303243388,35.722304831],[140.303180182,35.722283692],[140.303173206,35.722276182],[140.30316844,35.722251705],[140.303184383,35.722212072],[140.303081408999986,35.722164464],[140.302995919000011,35.722185332],[140.302873449,35.72219813],[140.302749931,35.72220623],[140.302733889,35.722228904],[140.302746193,35.722253383],[140.302914599438452,35.722353331580798],[140.302858721,35.722377379],[140.302874567274216,35.722450155465914]]]}},
{"type":"Feature","properties":{"fid":105,"polygon_uuid":"e341a42d-0478-4b58-be39-76ca654f6b3f","AreaOnRegistry":null,"Address":null,"Tiban":null},"geometry":{"type":"Polygon","coordinates":[[[140.303243388,35.722304831],[140.303540310505326,35.722090620026968],[140.303094118674892,35.72205608828925],[140.303081408999986,35.722164464],[140.303184383,35.722212072],[140.30316844,35.722251705],[140.303173206,35.722276182],[140.303180182,35.722283692],[140.303243388,35.722304831]]]}},
{"type":"Feature","properties":{"fid":106,"polygon_uuid":"03386646-8305-499d-8bbe-7b6e7cc94444","AreaOnRegistry":"170","Address":"千葉県富里市新橋字高崎461","Tiban":"461"},"geometry":{"type":"Polygon","coordinates":[[[140.298888177,35.72193305],[140.29887727,35.722026476],[140.299201455422065,35.722126144033162],[140.299201455422065,35.721954773805429],[140.298888177,35.72193305]]]}},
{"type":"Feature","properties":{"fid":107,"polygon_uuid":"03386646-8305-499d-8bbe-7b6e7cc94444","AreaOnRegistry":"562","Address":"千葉県富里市新橋字高崎462","Tiban":"462"},"geometry":{"type":"Polygon","coordinates":[[[140.299434803999986,35.721970955],[140.299201455422065,35.721954773805429],[140.299201455422065,35.722126144033162],[140.299400072,35.722187207],[140.299434803999986,35.721970955]]]}},
{"type":"Feature","properties":{"fid":108,"polygon_uuid":"0028dfa6-9a2a-4280-9896-7c7128cf441a","AreaOnRegistry":"291","Address":"千葉県富里市新橋字五斗蒔108","Tiban":"108"},"geometry":{"type":"Polygon","coordinates":[[[140.306416665764033,35.723694398763605],[140.306754673565564,35.723694398763605],[140.306726983,35.723641608],[140.306705663,35.723571308],[140.306418535,35.723558878],[140.306416665764033,35.723694398763605]]]}},
{"type":"Feature","properties":{"fid":109,"polygon_uuid":"0028dfa6-9a2a-4280-9896-7c7128cf441a","AreaOnRegistry":"521","Address":"千葉県富里市新橋字五斗蒔109-1","Tiban":"109-1"},"geometry":{"type":"Polygon","coordinates":[[[140.306414488,35.723852288],[140.306421824000012,35.723917783],[140.306758069000011,35.723700872],[140.306754673565564,35.723694398763605],[140.306416665764033,35.723694398763605],[140.306414488,35.723852288]]]}},
{"type":"Feature","properties":{"fid":110,"polygon_uuid":"a6f3e8e2-5a2d-472a-bf26-7d32d23322a6","AreaOnRegistry":"1094","Address":"千葉県富里市新橋字猪ノ尻581-1","Tiban":"581-1"},"geometry":{"type":"Polygon","coordinates":[[[140.302208455999988,35.723925128],[140.301623106,35.723866943],[140.301596145,35.724053207],[140.301626379,35.724076148],[140.301664201,35.724089466],[140.301714256999986,35.724090322],[140.301768632,35.724091816],[140.301841806999988,35.724089826],[140.302027368000012,35.724068816],[140.302128714,35.724053032],[140.30219709,35.724046994],[140.302208455999988,35.723925128]]]}},
{"type":"Feature","properties":{"fid":111,"polygon_uuid":"b5b28718-b98b-4574-b94b-7fd3f3e0271e","AreaOnRegistry":"182","Address":"千葉県富里市新橋字猪ノ尻566-1","Tiban":"566-1"},"geometry":{"type":"Polygon","coordinates":[[[140.303342682,35.72365316],[140.303359861,35.723627184],[140.303394273,35.723584652],[140.303469025,35.723525475],[140.303474566,35.723485412],[140.303279135999986,35.723466586],[140.303262006000011,35.723646454],[140.303342682,35.72365316]]]}},
{"type":"Feature","properties":{"fid":112,"polygon_uuid":"8b72ced0-c8d5-40bf-96f8-826395156d4f","AreaOnRegistry":"685","Address":"千葉県富里市新橋字西ノ下603-2","Tiban":"603-2"},"geometry":{"type":"Polygon","coordinates":[[[140.299915653999989,35.722956816],[140.300493257999989,35.723015403],[140.300511045,35.722866765],[140.299933981,35.722817674],[140.299915653999989,35.722956816]]]}},
{"type":"Feature","properties":{"fid":113,"polygon_uuid":"f1d65a86-f18f-401d-b70d-83ab8f8f38bb","AreaOnRegistry":"1025","Address":"千葉県富里市新橋字猪ノ尻597","Tiban":"597"},"geometry":{"type":"Polygon","coordinates":[[[140.30114211,35.723077074],[140.300548526,35.723014134],[140.300524435,35.723197615],[140.301113916,35.723254953],[140.30114211,35.723077074]]]}},
{"type":"Feature","properties":{"fid":114,"polygon_uuid":"5d301790-3fe6-451c-b274-852a019018d7","AreaOnRegistry":"1025","Address":"千葉県富里市新橋字水白627-2","Tiban":"627-2"},"geometry":{"type":"Polygon","coordinates":[[[140.299388585,35.72234476],[140.298833718999987,35.722285143],[140.298807754,35.72247556],[140.299363564,35.72252226],[140.299388585,35.72234476]]]}},
{"type":"Feature","properties":{"fid":115,"polygon_uuid":"98b5e32e-c4d0-45ac-8e5b-863ff2a87bde","AreaOnRegistry":"1025","Address":"千葉県富里市新橋字水白632-2","Tiban":"632-2"},"geometry":{"type":"Polygon","coordinates":[[[140.298721529,35.722840804],[140.298173751,35.722781071],[140.298151166999986,35.722965663],[140.298697632,35.723020596],[140.298721529,35.722840804]]]}},
{"type":"Feature","properties":{"fid":116,"polygon_uuid":"b7f9c34f-7016-4fea-9faa-868f386117b1","AreaOnRegistry":"530","Address":"千葉県酒々井町飯積川免464","Tiban":"464"},"geometry":{"type":"Polygon","coordinates":[[[140.295974918000013,35.720648939],[140.296514158,35.720751101],[140.296539650999989,35.720649385],[140.295994316,35.720559317],[140.295974918000013,35.720648939]]]}},
{"type":"Feature","properties":{"fid":117,"polygon_uuid":"f8fa287b-9c57-425c-951a-87b033a5e7a9","AreaOnRegistry":"330","Address":"千葉県富里市新橋字長町552-1","Tiban":"552-1"},"geometry":{"type":"Polygon","coordinates":[[[140.304073224,35.723230519],[140.30454553300001,35.723226851],[140.304547595,35.723116198],[140.304258667,35.723122685],[140.304241405999989,35.723165595],[140.304204317,35.723187163],[140.304158378000011,35.723192697],[140.304112471,35.723203588],[140.304073224,35.723230519]]]}},
{"type":"Feature","properties":{"fid":118,"polygon_uuid":"d5afc766-ca80-4280-afe8-8810f5a32fb3","AreaOnRegistry":"1134","Address":"千葉県富里市新橋字五斗蒔123-1","Tiban":"123-1"},"geometry":{"type":"Polygon","coordinates":[[[140.305201804,35.724027413],[140.305209881,35.724239693],[140.305749211,35.724199064],[140.305752031999987,35.72402528],[140.305201804,35.724027413]]]}},
{"type":"Feature","properties":{"fid":119,"polygon_uuid":"97b92b88-b40a-44fd-b864-8a7bb3787af2","AreaOnRegistry":"981","Address":"千葉県富里市新橋字猪ノ尻569-2","Tiban":"569-2"},"geometry":{"type":"Polygon","coordinates":[[[140.303507123,35.723127265],[140.303514848,35.722967068],[140.302966127,35.722840364],[140.302933421,35.723072913],[140.303507123,35.723127265]]]}},
{"type":"Feature","properties":{"fid":120,"polygon_uuid":"2a330dfb-5b29-4bf0-9cd5-8ade063b7b6c","AreaOnRegistry":"1025","Address":"千葉県富里市新橋字水白644","Tiban":"644"},"geometry":{"type":"Polygon","coordinates":[[[140.297584188,35.722535391],[140.297019345,35.722478523],[140.296995523,35.722665719],[140.297562244,35.722720997],[140.297584188,35.722535391]]]}},
{"type":"Feature","properties":{"fid":121,"polygon_uuid":"5dacfad6-ae6d-47f7-b19f-8c0670331061","AreaOnRegistry":"901","Address":"千葉県富里市新橋字五斗蒔131-1","Tiban":"131-1"},"geometry":{"type":"Polygon","coordinates":[[[140.304595826,35.723126353],[140.304584065,35.723293511],[140.305150408,35.723296648],[140.305143148000013,35.723138691],[140.304595826,35.723126353]]]}},
{"type":"Feature","properties":{"fid":122,"polygon_uuid":"f0eeee0a-ce57-434c-a267-8e59d4d155ee","AreaOnRegistry":"1025","Address":"千葉県富里市新橋字五斗蒔122","Tiban":"122"},"geometry":{"type":"Polygon","coordinates":[[[140.305200246,35.723832371],[140.305201804,35.724027413],[140.305752031999987,35.72402528],[140.305754925,35.72384703],[140.305200246,35.723832371]]]}},
{"type":"Feature","properties":{"fid":123,"polygon_uuid":"974e048e-0482-4056-b8d5-8fbe2298c40b","AreaOnRegistry":null,"Address":null,"Tiban":null},"geometry":{"type":"Polygon","coordinates":[[[140.29656171900001,35.720758781],[140.297109152,35.720861212],[140.297128875,35.720773133],[140.296587093,35.72066139],[140.29656171900001,35.720758781]]]}},
{"type":"Feature","properties":{"fid":124,"polygon_uuid":"06526411-3a4f-4e4f-9bb8-908be6b2da2c","AreaOnRegistry":"1025","Address":"千葉県富里市新橋字五斗蒔125","Tiban":"125"},"geometry":{"type":"Polygon","coordinates":[[[140.30457776,35.724039775],[140.30457636,35.724205414],[140.30513242,35.724207474],[140.305135603,35.724046336],[140.30457776,35.724039775]]]}},
{"type":"Feature","properties":{"fid":125,"polygon_uuid":"eef7666a-7387-43f2-9c0d-938614b109cb","AreaOnRegistry":"512","Address":"千葉県富里市新橋字五斗蒔129","Tiban":"129"},"geometry":{"type":"Polygon","coordinates":[[[140.304583313,35.723382489],[140.304582525,35.723475804],[140.305146909,35.723473833],[140.305148661,35.723385111],[140.304583313,35.723382489]]]}},
{"type":"Feature","properties":{"fid":126,"polygon_uuid":"636a33de-4dd8-4bd2-9217-93c5892457b0","AreaOnRegistry":"1025","Address":"千葉県富里市新橋字猪ノ尻589-1","Tiban":"589-1"},"geometry":{"type":"Polygon","coordinates":[[[140.301694077,35.723126382],[140.30114211,35.723077074],[140.301113916,35.723254953],[140.301666851,35.723311158],[140.301694077,35.723126382]]]}},
{"type":"Feature","properties":{"fid":127,"polygon_uuid":"a12f35e2-c1c7-4854-a6ab-9413c909ee3b","AreaOnRegistry":"1418","Address":"千葉県富里市新橋字猪ノ尻570-1","Tiban":"570-1"},"geometry":{"type":"Polygon","coordinates":[[[140.302909548,35.723066629],[140.302928697,35.722845976],[140.302916012,35.722828072],[140.30237789,35.722700646],[140.30233879,35.723006016],[140.302909548,35.723066629]]]}},
{"type":"Feature","properties":{"fid":128,"polygon_uuid":"f2305af7-0c48-42fd-87c6-94763eeb23de","AreaOnRegistry":null,"Address":null,"Tiban":null},"geometry":{"type":"Polygon","coordinates":[[[140.30435019,35.72508404],[140.304191284000012,35.725165893],[140.304227063000013,35.725227129],[140.304316211000014,35.725307686],[140.304474985000013,35.725224353],[140.30435019,35.72508404]]]}},
{"type":"Feature","properties":{"fid":129,"polygon_uuid":"d5e2f171-f802-41a9-8996-9586f26e0bfb","AreaOnRegistry":"340","Address":"千葉県富里市新橋字高崎473","Tiban":"473"},"geometry":{"type":"Polygon","coordinates":[[[140.300050915000014,35.722208277],[140.30058151,35.722258977],[140.300616979000011,35.722262227],[140.300633065,35.722189066],[140.300055076,35.722147899],[140.300050915000014,35.722208277]]]}},
{"type":"Feature","properties":{"fid":130,"polygon_uuid":"fac26597-cf93-421d-99c2-97a8aabb3749","AreaOnRegistry":"2371","Address":"千葉県富里市新橋字瓜房695-1","Tiban":"695-1"},"geometry":{"type":"Polygon","coordinates":[[[140.299458904,35.724311708],[140.299489231,35.724492333],[140.299481285000013,35.724563979],[140.299506505000011,35.724586048],[140.299652816,35.72457525],[140.299884738,35.724543659],[140.299894943999988,35.724500991],[140.29984729200001,35.724218126],[140.299458904,35.724311708]]]}},
{"type":"Feature","properties":{"fid":131,"polygon_uuid":"2b3dfaa3-7e48-4737-9b9b-988a3c5dd27f","AreaOnRegistry":"892","Address":"千葉県富里市新橋字曽利町173","Tiban":"173"},"geometry":{"type":"Polygon","coordinates":[[[140.30705939,35.722993127],[140.307248678422496,35.722984021988452],[140.307248678422496,35.722634083178157],[140.307026514,35.722631626],[140.307014477,35.72282323],[140.307006574000013,35.722971851],[140.30705939,35.722993127]]]}},
{"type":"Feature","properties":{"fid":132,"polygon_uuid":"2b3dfaa3-7e48-4737-9b9b-988a3c5dd27f","AreaOnRegistry":"764","Address":"千葉県富里市新橋字曽利町172-1","Tiban":"172-1"},"geometry":{"type":"Polygon","coordinates":[[[140.307464764,35.722973628],[140.307489921000013,35.722812358],[140.307512317,35.722651284],[140.307493265,35.72264783],[140.307493142999988,35.722636787],[140.307248678422496,35.722634083178157],[140.307248678422496,35.722984021988452],[140.307464764,35.722973628]]]}},
{"type":"Feature","properties":{"fid":133,"polygon_uuid":"8df60dcd-b985-42de-a2c6-9957dcd456a7","AreaOnRegistry":"1084","Address":"千葉県富里市新橋字長町562-1","Tiban":"562-1"},"geometry":{"type":"Polygon","coordinates":[[[140.303373228999988,35.723812654],[140.303514899,35.72381598],[140.303938109,35.723825917],[140.303940985,35.723595168],[140.303560027,35.723583526],[140.303502052999988,35.723631256],[140.303442581000013,35.723693373],[140.303397738,35.723761383],[140.303373228999988,35.723812654]]]}},
{"type":"Feature","properties":{"fid":134,"polygon_uuid":"b61ce99a-d25e-48a7-88ce-9b1d96a83e9e","AreaOnRegistry":"500","Address":"千葉県富里市新橋字水白636-2","Tiban":"636-2"},"geometry":{"type":"Polygon","coordinates":[[[140.297564266,35.722904936],[140.297844279402483,35.722934998176832],[140.297844279402483,35.722744806544057],[140.297585424,35.722717886],[140.297564266,35.722904936]]]}},
{"type":"Feature","properties":{"fid":135,"polygon_uuid":"b61ce99a-d25e-48a7-88ce-9b1d96a83e9e","AreaOnRegistry":"525","Address":"千葉県富里市新橋字水白636-3","Tiban":"636-3"},"geometry":{"type":"Polygon","coordinates":[[[140.298099187,35.722962365],[140.298125692000013,35.722774073],[140.297844279402483,35.722744806544057],[140.297844279402483,35.722934998176832],[140.298099187,35.722962365]]]}},
{"type":"Feature","properties":{"fid":136,"polygon_uuid":"8f8783fb-4b05-442c-9124-9be41f8e8f64","AreaOnRegistry":"650","Address":"千葉県富里市新橋字姥田70","Tiban":"70"},"geometry":{"type":"Polygon","coordinates":[[[140.304146734999989,35.72501432],[140.304164305,35.725049646],[140.30417764,35.725083511],[140.304221765,35.725079127],[140.304246264,35.725104303],[140.304413725237509,35.725023985737266],[140.304413725237509,35.724902592122355],[140.304146734999989,35.72501432]]]}},
{"type":"Feature","properties":{"fid":137,"polygon_uuid":"8f8783fb-4b05-442c-9124-9be41f8e8f64","AreaOnRegistry":"196","Address":"千葉県富里市新橋字姥田69","Tiban":"69"},"geometry":{"type":"Polygon","coordinates":[[[140.304413725237509,35.724902592122355],[140.304413725237509,35.725023985737266],[140.304705422000012,35.724884083],[140.304634149,35.724810351],[140.304413725237509,35.724902592122355]]]}},
{"type":"Feature","properties":{"fid":138,"polygon_uuid":"00ef622e-f838-41bd-9c07-9d8a65bd79ab","AreaOnRegistry":"521","Address":"千葉県富里市新橋字曽利町140-1","Tiban":"140-1"},"geometry":{"type":"Polygon","coordinates":[[[140.305470747535992,35.722074111402939],[140.305470747535992,35.721630122213242],[140.305228731999989,35.72183165],[140.305224319,35.722074922],[140.305470747535992,35.722074111402939]]]}},
{"type":"Feature","properties":{"fid":139,"polygon_uuid":"00ef622e-f838-41bd-9c07-9d8a65bd79ab","AreaOnRegistry":"926","Address":"千葉県富里市新橋字曽利町141","Tiban":"141"},"geometry":{"type":"Polygon","coordinates":[[[140.305637336690381,35.722073563427927],[140.305637336690381,35.721533661040787],[140.305553382,35.721561312],[140.305470747535992,35.721630122213242],[140.305470747535992,35.722074111402939],[140.305637336690381,35.722073563427927]]]}},
{"type":"Feature","properties":{"fid":140,"polygon_uuid":"00ef622e-f838-41bd-9c07-9d8a65bd79ab","AreaOnRegistry":"1100","Address":"千葉県富里市新橋字曽利町142-1","Tiban":"142-1"},"geometry":{"type":"Polygon","coordinates":[[[140.305785214999986,35.722073077],[140.305803728,35.721551744],[140.305643889,35.721531503],[140.305637336690381,35.721533661040787],[140.305637336690381,35.722073563427927],[140.305785214999986,35.722073077]]]}},
{"type":"Feature","properties":{"fid":141,"polygon_uuid":"252d337f-616d-4dde-8759-a151ea9958b0","AreaOnRegistry":"1025","Address":"千葉県富里市新橋字水白625-1","Tiban":"625-1"},"geometry":{"type":"Polygon","coordinates":[[[140.299297252,35.723068298],[140.298733090000013,35.723023106],[140.29870789200001,35.723207897],[140.299269047,35.723260979],[140.299297252,35.723068298]]]}},
{"type":"Feature","properties":{"fid":142,"polygon_uuid":"2d6b063a-3f40-4a82-8a3e-a169b82ca369","AreaOnRegistry":null,"Address":null,"Tiban":null},"geometry":{"type":"Polygon","coordinates":[[[140.299573902,35.723951141],[140.299548750000014,35.723941008],[140.299361347,35.724076438],[140.299326017999988,35.724114087],[140.299324145000014,35.724151607],[140.299458904,35.724311708],[140.29984729200001,35.724218126],[140.299836616,35.724180314],[140.299794518999988,35.724132734],[140.299573902,35.723951141]]]}},
{"type":"Feature","properties":{"fid":143,"polygon_uuid":"2eece4e9-6ac6-4ee0-9987-a262434320b0","AreaOnRegistry":"727","Address":"千葉県富里市新橋字猪ノ尻567-1","Tiban":"567-1"},"geometry":{"type":"Polygon","coordinates":[[[140.302862194,35.723612574],[140.303262006000011,35.723646454],[140.303279135999986,35.723466586],[140.302886185,35.723430805],[140.302862194,35.723612574]]]}},
{"type":"Feature","properties":{"fid":144,"polygon_uuid":"ec131b8c-6f19-4096-933c-a3a0932eb3fb","AreaOnRegistry":"969","Address":"千葉県富里市新橋字猪ノ尻593-1","Tiban":"593-1"},"geometry":{"type":"Polygon","coordinates":[[[140.301612231,35.723674162],[140.30106948,35.723621393],[140.301065259000012,35.723728227],[140.301202607,35.723818104],[140.301577927000011,35.723858964],[140.301612231,35.723674162]]]}},
{"type":"Feature","properties":{"fid":145,"polygon_uuid":"d0d2f439-840f-493e-9691-a3e20f13e248","AreaOnRegistry":"1025","Address":"千葉県富里市新橋字猪ノ尻583-2","Tiban":"583-2"},"geometry":{"type":"Polygon","coordinates":[[[140.302264464,35.723553134],[140.302280843,35.723375087],[140.301712495,35.723317521],[140.301682138,35.723504874],[140.302264464,35.723553134]]]}},
{"type":"Feature","properties":{"fid":146,"polygon_uuid":"66531bc0-21cc-4aa3-aa25-a7b075215ad0","AreaOnRegistry":"1025","Address":"千葉県富里市新橋字高崎460","Tiban":"460"},"geometry":{"type":"Polygon","coordinates":[[[140.299434803999986,35.721970955],[140.299466396000014,35.721777394],[140.298916413,35.721724827],[140.298888177,35.72193305],[140.299434803999986,35.721970955]]]}},
{"type":"Feature","properties":{"fid":147,"polygon_uuid":"d0bafbb0-9576-45d1-83c6-a7cea71f523b","AreaOnRegistry":"1025","Address":"千葉県富里市新橋字猪ノ尻582","Tiban":"582"},"geometry":{"type":"Polygon","coordinates":[[[140.302208455999988,35.723925128],[140.302236083,35.723728424],[140.301654829,35.723675543],[140.301623106,35.723866943],[140.302208455999988,35.723925128]]]}},
{"type":"Feature","properties":{"fid":148,"polygon_uuid":"acb8acee-3355-4114-a492-a8e6619eeb7b","AreaOnRegistry":"984","Address":"千葉県富里市新橋字西ノ下609-1","Tiban":"609-1"},"geometry":{"type":"Polygon","coordinates":[[[140.29933088673684,35.72309067974188],[140.299307782,35.723260587],[140.299873936000012,35.723319268],[140.299894112,35.723138367],[140.29933088673684,35.72309067974188]]]}},
{"type":"Feature","properties":{"fid":149,"polygon_uuid":"015de1d7-deba-4fe3-98f7-af4b27997b72","AreaOnRegistry":"20","Address":"千葉県富里市新橋字猪ノ尻586-1","Tiban":"586-1"},"geometry":{"type":"Polygon","coordinates":[[[140.301169029,35.722895022],[140.301493024023358,35.722922165298002],[140.301493024023358,35.72283156461117],[140.301391349999989,35.722834263],[140.301286834,35.722832126],[140.301182281,35.722823629],[140.301169029,35.722895022]]]}},
{"type":"Feature","properties":{"fid":150,"polygon_uuid":"015de1d7-deba-4fe3-98f7-af4b27997b72","AreaOnRegistry":"341","Address":"千葉県富里市新橋字猪ノ尻587-1","Tiban":"587-1"},"geometry":{"type":"Polygon","coordinates":[[[140.30171028800001,35.722940367],[140.301726556,35.722810064],[140.301614323,35.722821949],[140.301503634999989,35.722831283],[140.301493024023358,35.72283156461117],[140.301493024023358,35.722922165298002],[140.30171028800001,35.722940367]]]}},
{"type":"Feature","properties":{"fid":151,"polygon_uuid":"f5b0395a-32d4-43af-9e08-b0f0e519c9d4","AreaOnRegistry":"1228","Address":"千葉県富里市新橋字姥田67-2","Tiban":"67-2"},"geometry":{"type":"Polygon","coordinates":[[[140.304474985000013,35.725224353],[140.304316211000014,35.725307686],[140.304634263999986,35.725602526],[140.304708670194572,35.725563443901045],[140.304708670194572,35.725116544528767],[140.304474985000013,35.725224353]]]}},
{"type":"Feature","properties":{"fid":152,"polygon_uuid":"f5b0395a-32d4-43af-9e08-b0f0e519c9d4","AreaOnRegistry":"1261","Address":"千葉県富里市新橋字姥田67-1","Tiban":"67-1"},"geometry":{"type":"Polygon","coordinates":[[[140.304708670194572,35.725116544528767],[140.304708670194572,35.725563443901045],[140.305105945,35.725354774],[140.304790691,35.725078705],[140.304708670194572,35.725116544528767]]]}},
{"type":"Feature","properties":{"fid":153,"polygon_uuid":"5af53e5f-2fba-4313-ac0a-b2f33ceabeb9","AreaOnRegistry":"519","Address":"千葉県富里市新橋字高崎466","Tiban":"466"},"geometry":{"type":"Polygon","coordinates":[[[140.299522129,35.721600969],[140.2998098961273,35.721630444867692],[140.2998098961273,35.721538269373291],[140.299536796000012,35.721506041],[140.299522129,35.721600969]]]}},
{"type":"Feature","properties":{"fid":154,"polygon_uuid":"5af53e5f-2fba-4313-ac0a-b2f33ceabeb9","AreaOnRegistry":"133","Address":"千葉県富里市新橋字高崎467","Tiban":"467"},"geometry":{"type":"Polygon","coordinates":[[[140.300100458,35.721660207],[140.300108132,35.721573464],[140.2998098961273,35.721538269373291],[140.2998098961273,35.721630444867692],[140.300100458,35.721660207]]]}},
{"type":"Feature","properties":{"fid":155,"polygon_uuid":"52f6f285-0887-4384-8ee5-b4cf571ed088","AreaOnRegistry":"1095","Address":"千葉県富里市新橋字五斗蒔120-1","Tiban":"120-1"},"geometry":{"type":"Polygon","coordinates":[[[140.305197333,35.723467804],[140.305198959,35.723671282],[140.305757672999988,35.723677716],[140.305760975999988,35.723474263],[140.305197333,35.723467804]]]}},
{"type":"Feature","properties":{"fid":156,"polygon_uuid":"2bf061e2-4585-4fa7-9165-b51ca42a7a7a","AreaOnRegistry":"1025","Address":"千葉県富里市新橋字水白625-2","Tiban":"625-2"},"geometry":{"type":"Polygon","coordinates":[[[140.299318573,35.722880195],[140.298757814,35.722841794],[140.298733090000013,35.723023106],[140.299297252,35.723068298],[140.299318573,35.722880195]]]}},
{"type":"Feature","properties":{"fid":157,"polygon_uuid":"2c96acbb-afe3-45f7-8bda-b798cfb3b0d6","AreaOnRegistry":"867","Address":"千葉県富里市新橋字西ノ下607-1","Tiban":"607-1"},"geometry":{"type":"Polygon","coordinates":[[[140.299873936000012,35.723319268],[140.299867576999986,35.723442405],[140.300077114123269,35.723481171339557],[140.300077114123269,35.723157425011934],[140.299894112,35.723138367],[140.299873936000012,35.723319268]]]}},
{"type":"Feature","properties":{"fid":158,"polygon_uuid":"2c96acbb-afe3-45f7-8bda-b798cfb3b0d6","AreaOnRegistry":"685","Address":"千葉県富里市新橋字西ノ下605","Tiban":"605"},"geometry":{"type":"Polygon","coordinates":[[[140.300266189995739,35.723516152155177],[140.300266189995739,35.723177115549788],[140.300077114123269,35.723157425011934],[140.300077114123269,35.723481171339557],[140.300266189995739,35.723516152155177]]]}},
{"type":"Feature","properties":{"fid":159,"polygon_uuid":"2c96acbb-afe3-45f7-8bda-b798cfb3b0d6","AreaOnRegistry":"340","Address":"千葉県富里市新橋字西ノ下604","Tiban":"604"},"geometry":{"type":"Polygon","coordinates":[[[140.300356416999989,35.723532845],[140.300404676,35.723527693],[140.300435689000011,35.723496481],[140.300471349,35.723198481],[140.300266189995739,35.723177115549788],[140.300266189995739,35.723516152155177],[140.300356416999989,35.723532845]]]}},
{"type":"Feature","properties":{"fid":160,"polygon_uuid":"4454b2e9-c3af-4b6b-8423-b8ff03e75959","AreaOnRegistry":"1025","Address":"千葉県富里市新橋字五斗蒔112","Tiban":"112"},"geometry":{"type":"Polygon","coordinates":[[[140.305794156,35.723659781],[140.305791232,35.723842117],[140.306347628999987,35.7238491],[140.306351408000012,35.723654054],[140.305794156,35.723659781]]]}},
{"type":"Feature","properties":{"fid":161,"polygon_uuid":"f1c2b1f0-858b-42b1-9787-b9e80521cf93","AreaOnRegistry":"265","Address":"千葉県富里市新橋字水白636-1","Tiban":"636-1"},"geometry":{"type":"Polygon","coordinates":[[[140.297564266,35.722904936],[140.297554185,35.722994051],[140.297858815483778,35.723068170181669],[140.297858815483778,35.722936558767294],[140.297564266,35.722904936]]]}},
{"type":"Feature","properties":{"fid":162,"polygon_uuid":"f1c2b1f0-858b-42b1-9787-b9e80521cf93","AreaOnRegistry":"431","Address":"千葉県富里市新橋字水白634-1","Tiban":"634-1"},"geometry":{"type":"Polygon","coordinates":[[[140.297858815483778,35.722936558767294],[140.297858815483778,35.723068170181669],[140.298072005,35.723120041],[140.298099187,35.722962365],[140.297858815483778,35.722936558767294]]]}},
{"type":"Feature","properties":{"fid":163,"polygon_uuid":"d405f5e9-d2b0-4eb7-8e63-ba404b6d04c4","AreaOnRegistry":"903","Address":"千葉県富里市新橋字五斗蒔116","Tiban":"116"},"geometry":{"type":"Polygon","coordinates":[[[140.305795722,35.72356214],[140.30598605253607,35.723567537403028],[140.30598605253607,35.723291168263536],[140.305800098,35.723289223],[140.305795722,35.72356214]]]}},
{"type":"Feature","properties":{"fid":164,"polygon_uuid":"d405f5e9-d2b0-4eb7-8e63-ba404b6d04c4","AreaOnRegistry":"122","Address":"千葉県富里市新橋字五斗蒔115-2","Tiban":"115-2"},"geometry":{"type":"Polygon","coordinates":[[[140.306171930380657,35.72357280853641],[140.306171930380657,35.723293112724797],[140.30598605253607,35.723291168263536],[140.30598605253607,35.723567537403028],[140.306171930380657,35.72357280853641]]]}},
{"type":"Feature","properties":{"fid":165,"polygon_uuid":"d405f5e9-d2b0-4eb7-8e63-ba404b6d04c4","AreaOnRegistry":"525","Address":"千葉県富里市新橋字五斗蒔115-1","Tiban":"115-1"},"geometry":{"type":"Polygon","coordinates":[[[140.306352882999988,35.72357794],[140.306358364,35.723295063],[140.306171930380657,35.723293112724797],[140.306171930380657,35.72357280853641],[140.306352882999988,35.72357794]]]}},
{"type":"Feature","properties":{"fid":166,"polygon_uuid":"00911f33-a7bc-47dd-a11a-bb994af16254","AreaOnRegistry":"450","Address":"千葉県富里市新橋字猪ノ尻578-1","Tiban":"578-1"},"geometry":{"type":"Polygon","coordinates":[[[140.30253640713272,35.723758602660943],[140.30253640713272,35.7235762191982],[140.302264464,35.723553134],[140.302236083,35.723728424],[140.30253640713272,35.723758602660943]]]}},
{"type":"Feature","properties":{"fid":167,"polygon_uuid":"00911f33-a7bc-47dd-a11a-bb994af16254","AreaOnRegistry":"575","Address":"千葉県富里市新橋字猪ノ尻578-3","Tiban":"578-3"},"geometry":{"type":"Polygon","coordinates":[[[140.302803679,35.72378546],[140.302827759,35.723600952],[140.30253640713272,35.7235762191982],[140.30253640713272,35.723758602660943],[140.302803679,35.72378546]]]}},
{"type":"Feature","properties":{"fid":168,"polygon_uuid":"5b713c4f-60e7-4aa3-a773-bcaa43e85e5b","AreaOnRegistry":"679","Address":"千葉県富里市新橋字高崎470","Tiban":"470"},"geometry":{"type":"Polygon","coordinates":[[[140.300128269,35.721660099],[140.300708192,35.721723636],[140.300642595999989,35.721711298],[140.300586281,35.721682899],[140.300515815000011,35.721635476],[140.300459333,35.721578459],[140.300440271000014,35.721519389],[140.300139363999989,35.721481149],[140.300128269,35.721660099]]]}},
{"type":"Feature","properties":{"fid":169,"polygon_uuid":"e1d7effa-31ef-4d33-b6e6-bcbbbaed5e77","AreaOnRegistry":"176","Address":"千葉県富里市新橋字猪ノ尻580-1","Tiban":"580-1"},"geometry":{"type":"Polygon","coordinates":[[[140.302365496,35.724025094],[140.302362061,35.723937041],[140.302208455999988,35.723925128],[140.30219709,35.724046994],[140.302365496,35.724025094]]]}},
{"type":"Feature","properties":{"fid":170,"polygon_uuid":"fe7851df-fc23-4268-83a9-befb0103e307","AreaOnRegistry":"1025","Address":"千葉県富里市新橋字猪ノ尻592","Tiban":"592"},"geometry":{"type":"Polygon","coordinates":[[[140.301645900000011,35.723493345],[140.301090432,35.723439078],[140.30106948,35.723621393],[140.301612231,35.723674162],[140.301645900000011,35.723493345]]]}},
{"type":"Feature","properties":{"fid":171,"polygon_uuid":"bb10a96f-2843-489c-b05b-bf45cebd67fa","AreaOnRegistry":"1025","Address":"千葉県富里市新橋字猪ノ尻577-1","Tiban":"577-1"},"geometry":{"type":"Polygon","coordinates":[[[140.302264464,35.723553134],[140.302827759,35.723600952],[140.302853244,35.723433663],[140.302280843,35.723375087],[140.302264464,35.723553134]]]}},
{"type":"Feature","properties":{"fid":172,"polygon_uuid":"1b9fdc2a-d3bf-4477-a475-c2f773543a37","AreaOnRegistry":"3886","Address":"千葉県富里市新橋字山ノ下548-1","Tiban":"548-1"},"geometry":{"type":"Polygon","coordinates":[[[140.303195206,35.722389891],[140.303388887000011,35.722549653],[140.303648273,35.72275896],[140.303854077000011,35.722618267],[140.303358799066018,35.722220505373862],[140.303243388,35.722304831],[140.303194199085425,35.722370258841892],[140.303195206,35.722389891]]]}},
{"type":"Feature","properties":{"fid":173,"polygon_uuid":"25c40d14-9352-4103-adc1-c3c80df8faf1","AreaOnRegistry":"1025","Address":"千葉県富里市新橋字曽利町154","Tiban":"154"},"geometry":{"type":"Polygon","coordinates":[[[140.30583166400001,35.721885465],[140.305828420000012,35.722067852],[140.305829475,35.7222465],[140.306098414973775,35.722249079074075],[140.306098414973775,35.721884417363441],[140.30583166400001,35.721885465]]]}},
{"type":"Feature","properties":{"fid":174,"polygon_uuid":"25c40d14-9352-4103-adc1-c3c80df8faf1","AreaOnRegistry":"1025","Address":"千葉県富里市新橋字曽利町155","Tiban":"155"},"geometry":{"type":"Polygon","coordinates":[[[140.306364212,35.722076913],[140.306367388000012,35.721883361],[140.306098414973775,35.721884417363441],[140.306098414973775,35.722249079074075],[140.306362646999986,35.722251613],[140.306364212,35.722076913]]]}},
{"type":"Feature","properties":{"fid":175,"polygon_uuid":"54bee72e-ca50-430a-b1c2-c5142d686b30","AreaOnRegistry":"471","Address":"千葉県富里市新橋字長町562-3","Tiban":"562-3"},"geometry":{"type":"Polygon","coordinates":[[[140.303560027,35.723583526],[140.303940985,35.723595168],[140.303944059,35.723348666],[140.303836378999989,35.723402641],[140.303759303,35.723449356],[140.303683686999989,35.723496065],[140.303587744999987,35.723560706],[140.303560027,35.723583526]]]}},
{"type":"Feature","properties":{"fid":176,"polygon_uuid":"5364e705-3e38-4c31-b4c9-c63b3d68cbdf","AreaOnRegistry":"891","Address":"千葉県富里市新橋字五斗蒔118-1","Tiban":"118-1"},"geometry":{"type":"Polygon","coordinates":[[[140.305195860999987,35.723283561],[140.305763977,35.723289365],[140.305759666,35.72311533],[140.305208017000012,35.723117495],[140.305195860999987,35.723283561]]]}},
{"type":"Feature","properties":{"fid":177,"polygon_uuid":"fad47bf9-083f-43c9-8e70-c679028f38dd","AreaOnRegistry":"994","Address":"千葉県酒々井町飯積川免469-4","Tiban":"469-4"},"geometry":{"type":"Polygon","coordinates":[[[140.296503621,35.721027619],[140.296465672000011,35.721192741],[140.296787658596429,35.721311948703644],[140.296787658596429,35.721072480123318],[140.296503621,35.721027619]]]}},
{"type":"Feature","properties":{"fid":178,"polygon_uuid":"fad47bf9-083f-43c9-8e70-c679028f38dd","AreaOnRegistry":"194","Address":"千葉県酒々井町飯積川免469-5","Tiban":"469-5"},"geometry":{"type":"Polygon","coordinates":[[[140.297053289,35.721114434],[140.296787658596429,35.721072480123318],[140.296787658596429,35.721311948703644],[140.296997553000011,35.721389657],[140.297053289,35.721114434]]]}},
{"type":"Feature","properties":{"fid":179,"polygon_uuid":"a472a53d-36e8-411e-8a0d-c9b90a4ac393","AreaOnRegistry":"328","Address":"千葉県酒々井町飯積川免470-1","Tiban":"470-1"},"geometry":{"type":"Polygon","coordinates":[[[140.297083735,35.721130818],[140.297421646,35.72119396],[140.29739175,35.721166592],[140.297370486,35.721086119],[140.297113497,35.72102895],[140.297083735,35.721130818]]]}},
{"type":"Feature","properties":{"fid":180,"polygon_uuid":"0c300b74-bd17-4371-8da7-cbb076d978db","AreaOnRegistry":"694","Address":"千葉県富里市新橋字高崎463-2","Tiban":"463-2"},"geometry":{"type":"Polygon","coordinates":[[[140.299445902,35.722191032],[140.299689178,35.722262292],[140.299771768291833,35.722284851641717],[140.299771768291833,35.72199792165847],[140.299477338,35.721970791],[140.299445902,35.722191032]]]}},
{"type":"Feature","properties":{"fid":181,"polygon_uuid":"0c300b74-bd17-4371-8da7-cbb076d978db","AreaOnRegistry":"638","Address":"千葉県富里市新橋字高崎463-1","Tiban":"463-1"},"geometry":{"type":"Polygon","coordinates":[[[140.30001123400001,35.722350262],[140.30004695400001,35.722023279],[140.299771768291833,35.72199792165847],[140.299771768291833,35.722284851641717],[140.30001123400001,35.722350262]]]}},
{"type":"Feature","properties":{"fid":182,"polygon_uuid":"1ed02c33-72fb-4007-b710-ccbc9af52691","AreaOnRegistry":"1025","Address":"千葉県富里市新橋字水白632-1","Tiban":"632-1"},"geometry":{"type":"Polygon","coordinates":[[[140.298697632,35.723020596],[140.298151166999986,35.722965663],[140.298119576,35.723150423],[140.29867255100001,35.723209302],[140.298697632,35.723020596]]]}},
{"type":"Feature","properties":{"fid":183,"polygon_uuid":"6fb6079f-7ab7-48f2-a6e1-cdb8c6484686","AreaOnRegistry":"450","Address":"千葉県富里市新橋字水白639-1","Tiban":"639-1"},"geometry":{"type":"Polygon","coordinates":[[[140.297696081999987,35.721793888],[140.297643267000012,35.722240608],[140.297790702077265,35.722256991227084],[140.297790702077265,35.721826821487113],[140.297696081999987,35.721793888]]]}},
{"type":"Feature","properties":{"fid":184,"polygon_uuid":"6fb6079f-7ab7-48f2-a6e1-cdb8c6484686","AreaOnRegistry":"1025","Address":"千葉県富里市新橋字水白639-3","Tiban":"639-3"},"geometry":{"type":"Polygon","coordinates":[[[140.297790702077265,35.721826821487113],[140.297790702077265,35.722256991227084],[140.297920189177859,35.722271380045626],[140.297920189177859,35.721871890798845],[140.297790702077265,35.721826821487113]]]}},
{"type":"Feature","properties":{"fid":185,"polygon_uuid":"6fb6079f-7ab7-48f2-a6e1-cdb8c6484686","AreaOnRegistry":"558","Address":"千葉県富里市新橋字水白639-4","Tiban":"639-4"},"geometry":{"type":"Polygon","coordinates":[[[140.297920189177859,35.721871890798845],[140.297920189177859,35.722271380045626],[140.298060485657942,35.722286970020107],[140.298060485657942,35.721920722425828],[140.297920189177859,35.721871890798845]]]}},
{"type":"Feature","properties":{"fid":186,"polygon_uuid":"6fb6079f-7ab7-48f2-a6e1-cdb8c6484686","AreaOnRegistry":"88","Address":"千葉県富里市新橋字水白640-1","Tiban":"640-1"},"geometry":{"type":"Polygon","coordinates":[[[140.298060485657942,35.721920722425828],[140.298060485657942,35.722286970020107],[140.298192197,35.722301606],[140.29823715500001,35.721982214],[140.298060485657942,35.721920722425828]]]}},
{"type":"Feature","properties":{"fid":187,"polygon_uuid":"821a1197-4c89-4bcd-b110-d1f60d6cd491","AreaOnRegistry":"854","Address":"千葉県富里市新橋字曽利町158","Tiban":"158"},"geometry":{"type":"Polygon","coordinates":[[[140.30660165180214,35.721880944599029],[140.30660165180214,35.721423143350755],[140.306563947,35.721441793],[140.306514580999988,35.721454258],[140.306441582,35.721468568],[140.306428149999988,35.721640328],[140.306430347,35.721690657],[140.306429867,35.721879815],[140.30660165180214,35.721880944599029]]]}},
{"type":"Feature","properties":{"fid":188,"polygon_uuid":"821a1197-4c89-4bcd-b110-d1f60d6cd491","AreaOnRegistry":"1025","Address":"千葉県富里市新橋字曽利町160","Tiban":"160"},"geometry":{"type":"Polygon","coordinates":[[[140.306769737685983,35.721882049875212],[140.306769737685983,35.721497186608296],[140.306628255,35.721411742],[140.306606812000012,35.721420591],[140.30660165180214,35.721423143350755],[140.30660165180214,35.721880944599029],[140.306769737685983,35.721882049875212]]]}},
{"type":"Feature","properties":{"fid":189,"polygon_uuid":"821a1197-4c89-4bcd-b110-d1f60d6cd491","AreaOnRegistry":"293","Address":"千葉県富里市新橋字曽利町159","Tiban":"159"},"geometry":{"type":"Polygon","coordinates":[[[140.306996806,35.721883543],[140.307000356,35.721702635],[140.30700692100001,35.721640427],[140.306769737685983,35.721497186608296],[140.306769737685983,35.721882049875212],[140.306996806,35.721883543]]]}},
{"type":"Feature","properties":{"fid":190,"polygon_uuid":"c2d16bb1-9c01-43f9-8f07-d4986545bd0e","AreaOnRegistry":"517","Address":"千葉県富里市新橋字高崎471-3","Tiban":"471-3"},"geometry":{"type":"Polygon","coordinates":[[[140.300100283,35.721843339],[140.300073183,35.722032516],[140.300373661393735,35.722059566961541],[140.300373661393735,35.721869672059007],[140.300100283,35.721843339]]]}},
{"type":"Feature","properties":{"fid":191,"polygon_uuid":"c2d16bb1-9c01-43f9-8f07-d4986545bd0e","AreaOnRegistry":"509","Address":"千葉県富里市新橋字高崎471-2","Tiban":"471-2"},"geometry":{"type":"Polygon","coordinates":[[[140.300373661393735,35.721869672059007],[140.300373661393735,35.722059566961541],[140.300650491999988,35.722084489],[140.30067619,35.721898813],[140.300373661393735,35.721869672059007]]]}},
{"type":"Feature","properties":{"fid":192,"polygon_uuid":"a95199b2-0c18-4423-9957-d54af4ca3c3d","AreaOnRegistry":"510","Address":"千葉県富里市新橋字猪ノ尻579-3","Tiban":"579-3"},"geometry":{"type":"Polygon","coordinates":[[[140.302491926494213,35.724001720519347],[140.302491926494213,35.723754132936527],[140.302236083,35.723728424],[140.302208455999988,35.723925128],[140.302362061,35.723937041],[140.302365496,35.724025094],[140.302491926494213,35.724001720519347]]]}},
{"type":"Feature","properties":{"fid":193,"polygon_uuid":"a95199b2-0c18-4423-9957-d54af4ca3c3d","AreaOnRegistry":"664","Address":"千葉県富里市新橋字猪ノ尻579-1","Tiban":"579-1"},"geometry":{"type":"Polygon","coordinates":[[[140.302787328,35.723947109],[140.302803679,35.72378546],[140.302491926494213,35.723754132936527],[140.302491926494213,35.724001720519347],[140.302787328,35.723947109]]]}},
{"type":"Feature","properties":{"fid":194,"polygon_uuid":"5a195763-2df4-4e83-af89-d68b5f797942","AreaOnRegistry":"977","Address":"千葉県富里市新橋字姥田71-2","Tiban":"71-2"},"geometry":{"type":"Polygon","coordinates":[[[140.303889964,35.724510241],[140.303887226,35.724541194],[140.303871299,35.724562677],[140.303853323,35.724574102],[140.303885807,35.724597309],[140.303934336,35.724659599],[140.303978507000011,35.724725476],[140.304055777,35.724835853],[140.304106705,35.724933837],[140.304146734999989,35.72501432],[140.304158976001531,35.725009197486401],[140.304158976001531,35.72445221671277],[140.304138905,35.724453508],[140.303937569,35.724465007],[140.303886784000014,35.724467276],[140.303889964,35.724510241]]]}},
{"type":"Feature","properties":{"fid":195,"polygon_uuid":"5a195763-2df4-4e83-af89-d68b5f797942","AreaOnRegistry":"1014","Address":"千葉県富里市新橋字姥田71-1","Tiban":"71-1"},"geometry":{"type":"Polygon","coordinates":[[[140.30433538557125,35.724935375061264],[140.30433538557125,35.724439819280995],[140.304316162,35.724442104],[140.304158976001531,35.72445221671277],[140.304158976001531,35.725009197486401],[140.30433538557125,35.724935375061264]]]}},
{"type":"Feature","properties":{"fid":196,"polygon_uuid":"5a195763-2df4-4e83-af89-d68b5f797942","AreaOnRegistry":"1028","Address":"千葉県富里市新橋字姥田71-3","Tiban":"71-3"},"geometry":{"type":"Polygon","coordinates":[[[140.304634149,35.724810351],[140.304596198000013,35.724756345],[140.304554058,35.724691092],[140.304527495,35.724641212],[140.30449871,35.724585985],[140.304489607,35.724527111],[140.304471484,35.724423644],[140.30433538557125,35.724439819280995],[140.30433538557125,35.724935375061264],[140.304634149,35.724810351]]]}},
{"type":"Feature","properties":{"fid":197,"polygon_uuid":"92bb5d46-be8b-485d-894e-d9ac0ce89707","AreaOnRegistry":"500","Address":"千葉県富里市新橋字高崎464-1","Tiban":"464-1"},"geometry":{"type":"Polygon","coordinates":[[[140.299477338,35.721970791],[140.29977215627747,35.721997957409911],[140.29977215627747,35.72181313943625],[140.299500795,35.721784999],[140.299477338,35.721970791]]]}},
{"type":"Feature","properties":{"fid":198,"polygon_uuid":"92bb5d46-be8b-485d-894e-d9ac0ce89707","AreaOnRegistry":"525","Address":"千葉県富里市新橋字高崎464-2","Tiban":"464-2"},"geometry":{"type":"Polygon","coordinates":[[[140.30004695400001,35.722023279],[140.300073721,35.721844412],[140.29977215627747,35.72181313943625],[140.29977215627747,35.721997957409911],[140.30004695400001,35.722023279]]]}},
{"type":"Feature","properties":{"fid":199,"polygon_uuid":"ec588214-819a-4ea2-8deb-d9ecae308bd7","AreaOnRegistry":"1025","Address":"千葉県富里市新橋字水白637-1","Tiban":"637-1"},"geometry":{"type":"Polygon","coordinates":[[[140.298150873999987,35.722595172],[140.297605084999987,35.722544075],[140.297585424,35.722717886],[140.298125692000013,35.722774073],[140.298150873999987,35.722595172]]]}},
{"type":"Feature","properties":{"fid":200,"polygon_uuid":"c90c44ea-16a3-42b5-bb1c-dc547a7a5c6a","AreaOnRegistry":"1025","Address":"千葉県富里市新橋字五斗蒔127","Tiban":"127"},"geometry":{"type":"Polygon","coordinates":[[[140.304580984000012,35.723658142],[140.304579408,35.723844616],[140.305139537,35.723847149],[140.305142969,35.723673297],[140.304580984000012,35.723658142]]]}},
{"type":"Feature","properties":{"fid":201,"polygon_uuid":"4e716ed6-fd67-4cbd-b44c-dd144766cc9a","AreaOnRegistry":"274","Address":"千葉県酒々井町飯積川免471-2","Tiban":"471-2"},"geometry":{"type":"Polygon","coordinates":[[[140.297113497,35.72102895],[140.297370486,35.721086119],[140.297385739,35.721026704],[140.297389982,35.720984609],[140.29713322,35.720940871],[140.297113497,35.72102895]]]}},
{"type":"Feature","properties":{"fid":202,"polygon_uuid":"957f76b8-d010-47cc-b354-de147b92cf61","AreaOnRegistry":"1025","Address":"千葉県富里市新橋字猪ノ尻569-1","Tiban":"569-1"},"geometry":{"type":"Polygon","coordinates":[[[140.303507123,35.723127265],[140.302933421,35.723072913],[140.30290972200001,35.723254171],[140.303487929,35.723301639],[140.303507123,35.723127265]]]}},
{"type":"Feature","properties":{"fid":203,"polygon_uuid":"626c3533-a73a-4155-a330-de6c0a10cf70","AreaOnRegistry":"25","Address":"千葉県富里市新橋字猪ノ尻575-1","Tiban":"575-1"},"geometry":{"type":"Polygon","coordinates":[[[140.302512505171848,35.723204928379673],[140.302512505171848,35.723024464094834],[140.30233879,35.723006016],[140.302310381000012,35.723185746],[140.302512505171848,35.723204928379673]]]}},
{"type":"Feature","properties":{"fid":204,"polygon_uuid":"626c3533-a73a-4155-a330-de6c0a10cf70","AreaOnRegistry":"410","Address":"千葉県富里市新橋字猪ノ尻575-2","Tiban":"575-2"},"geometry":{"type":"Polygon","coordinates":[[[140.302702654848133,35.723222974332579],[140.302702654848133,35.72304465749086],[140.302512505171848,35.723024464094834],[140.302512505171848,35.723204928379673],[140.302702654848133,35.723222974332579]]]}},
{"type":"Feature","properties":{"fid":205,"polygon_uuid":"626c3533-a73a-4155-a330-de6c0a10cf70","AreaOnRegistry":"450","Address":"千葉県富里市新橋字猪ノ尻575-3","Tiban":"575-3"},"geometry":{"type":"Polygon","coordinates":[[[140.302880684,35.72323987],[140.302909548,35.723066629],[140.302702654848133,35.72304465749086],[140.302702654848133,35.723222974332579],[140.302880684,35.72323987]]]}},
{"type":"Feature","properties":{"fid":206,"polygon_uuid":"75e18a0a-4b4b-41a8-9502-e0855e298e23","AreaOnRegistry":"1025","Address":"千葉県富里市新橋字五斗蒔128-1","Tiban":"128-1"},"geometry":{"type":"Polygon","coordinates":[[[140.304582525,35.723475804],[140.304580984000012,35.723658142],[140.305142969,35.723673297],[140.305146909,35.723473833],[140.304582525,35.723475804]]]}},
{"type":"Feature","properties":{"fid":207,"polygon_uuid":"e5bdd2b7-a22e-43f6-b340-e0a9c5e71e6c","AreaOnRegistry":"988","Address":"千葉県富里市新橋字水白626","Tiban":"626"},"geometry":{"type":"Polygon","coordinates":[[[140.299340060774483,35.722707449134298],[140.298787874999988,35.72264853],[140.298757814,35.722841794],[140.299318573,35.722880195],[140.299340060774483,35.722707449134298]]]}},
{"type":"Feature","properties":{"fid":208,"polygon_uuid":"c35d97d5-c1d3-4f63-ba2b-e0b41c71a296","AreaOnRegistry":"1025","Address":"千葉県富里市新橋字猪ノ尻584","Tiban":"584"},"geometry":{"type":"Polygon","coordinates":[[[140.302310381000012,35.723185746],[140.30233879,35.723006016],[140.301756482,35.722945477],[140.301738815,35.72313916],[140.302310381000012,35.723185746]]]}},
{"type":"Feature","properties":{"fid":209,"polygon_uuid":"d75d9a3f-6168-4d53-b9a2-e38f5c859b29","AreaOnRegistry":"320","Address":"千葉県富里市新橋字長町558-4","Tiban":"558-4"},"geometry":{"type":"Polygon","coordinates":[[[140.304250812616374,35.724277701650777],[140.304250812616374,35.724022399173293],[140.303977906,35.724019896],[140.3039765,35.724278775],[140.304250812616374,35.724277701650777]]]}},
{"type":"Feature","properties":{"fid":210,"polygon_uuid":"d75d9a3f-6168-4d53-b9a2-e38f5c859b29","AreaOnRegistry":"1025","Address":"千葉県富里市新橋字長町557-1","Tiban":"557-1"},"geometry":{"type":"Polygon","coordinates":[[[140.304525969,35.724276625],[140.304530659,35.724024966],[140.304250812616374,35.724022399173293],[140.304250812616374,35.724277701650777],[140.304525969,35.724276625]]]}},
{"type":"Feature","properties":{"fid":211,"polygon_uuid":"86a4d941-7f0d-4918-a74d-e40da81cf4ed","AreaOnRegistry":"1025","Address":"千葉県富里市新橋字水白650","Tiban":"650"},"geometry":{"type":"Polygon","coordinates":[[[140.296470618,35.722053269],[140.297011346,35.722106883],[140.29703311,35.721941626],[140.296488970000013,35.721890542],[140.296470618,35.722053269]]]}},
{"type":"Feature","properties":{"fid":212,"polygon_uuid":"ab07f856-0684-4c91-ad34-e8cf38f04b37","AreaOnRegistry":"195","Address":"千葉県富里市新橋字五斗蒔107","Tiban":"107"},"geometry":{"type":"Polygon","coordinates":[[[140.306420268000011,35.72347764],[140.306418535,35.723558878],[140.306705663,35.723571308],[140.306701296,35.723486991],[140.306420268000011,35.72347764]]]}},
{"type":"Feature","properties":{"fid":213,"polygon_uuid":"c681c1d2-c6ee-409f-b662-eac1f4888da7","AreaOnRegistry":"506","Address":"千葉県富里市新橋字長町554-1","Tiban":"554-1"},"geometry":{"type":"Polygon","coordinates":[[[140.304271681155882,35.723385901474167],[140.304271681155882,35.72322897776143],[140.304073224,35.723230519],[140.304025253,35.723262839],[140.303981755,35.723311208],[140.30398132900001,35.723389749],[140.304271681155882,35.723385901474167]]]}},
{"type":"Feature","properties":{"fid":214,"polygon_uuid":"c681c1d2-c6ee-409f-b662-eac1f4888da7","AreaOnRegistry":"369","Address":"千葉県富里市新橋字長町554-2","Tiban":"554-2"},"geometry":{"type":"Polygon","coordinates":[[[140.304542635,35.723382311],[140.30454553300001,35.723226851],[140.304271681155882,35.72322897776143],[140.304271681155882,35.723385901474167],[140.304542635,35.723382311]]]}},
{"type":"Feature","properties":{"fid":215,"polygon_uuid":"148f834a-ddfe-4f75-bc16-eba611eae3fa","AreaOnRegistry":"175","Address":"千葉県富里市新橋字猪ノ尻583-4","Tiban":"583-4"},"geometry":{"type":"Polygon","coordinates":[[[140.301738815,35.72313916],[140.301712495,35.723317521],[140.302014931113632,35.723348153706226],[140.302014931113632,35.723161665091745],[140.301738815,35.72313916]]]}},
{"type":"Feature","properties":{"fid":216,"polygon_uuid":"148f834a-ddfe-4f75-bc16-eba611eae3fa","AreaOnRegistry":"850","Address":"千葉県富里市新橋字猪ノ尻583-3","Tiban":"583-3"},"geometry":{"type":"Polygon","coordinates":[[[140.302014931113632,35.723161665091745],[140.302014931113632,35.723348153706226],[140.302280843,35.723375087],[140.302310381000012,35.723185746],[140.302014931113632,35.723161665091745]]]}},
{"type":"Feature","properties":{"fid":217,"polygon_uuid":"6680a83a-a2e7-4e2e-958d-eca31c2d1f99","AreaOnRegistry":"1014","Address":"千葉県酒々井町飯積川免469-2","Tiban":"469-2"},"geometry":{"type":"Polygon","coordinates":[[[140.296544067000013,35.720845566],[140.297092737000014,35.720938277],[140.297109152,35.720861212],[140.29656171900001,35.720758781],[140.296544067000013,35.720845566]]]}},
{"type":"Feature","properties":{"fid":218,"polygon_uuid":"3a34d1b7-6eda-4ac5-9a85-f1e44e14876a","AreaOnRegistry":"1005","Address":"千葉県富里市新橋字高崎471-1","Tiban":"471-1"},"geometry":{"type":"Polygon","coordinates":[[[140.300128269,35.721660099],[140.300100283,35.721843339],[140.30067619,35.721898813],[140.300708192,35.721723636],[140.300128269,35.721660099]]]}},
{"type":"Feature","properties":{"fid":219,"polygon_uuid":"0b3f641a-091a-47fe-b2b8-f4bbf185d6cb","AreaOnRegistry":"617","Address":"千葉県富里市新橋字西ノ下620-1","Tiban":"620-1"},"geometry":{"type":"Polygon","coordinates":[[[140.299976476000012,35.722495052],[140.299432781,35.722340121],[140.299406256,35.722535445],[140.29996441,35.722586656],[140.299976476000012,35.722495052]]]}},
{"type":"Feature","properties":{"fid":220,"polygon_uuid":"a7d432d4-2109-4a9f-a965-f8d748a2c251","AreaOnRegistry":"682","Address":"千葉県富里市新橋字曽利町143","Tiban":"143"},"geometry":{"type":"Polygon","coordinates":[[[140.305411798527416,35.722434416194616],[140.305411798527416,35.722074305308617],[140.305224319,35.722074922],[140.30522796,35.722196533],[140.305223517,35.722435034],[140.305411798527416,35.722434416194616]]]}},
{"type":"Feature","properties":{"fid":221,"polygon_uuid":"a7d432d4-2109-4a9f-a965-f8d748a2c251","AreaOnRegistry":"267","Address":"千葉県富里市新橋字曽利町144","Tiban":"144"},"geometry":{"type":"Polygon","coordinates":[[[140.305597722340991,35.722433806125572],[140.305597722340991,35.722073693734572],[140.305411798527416,35.722074305308617],[140.305411798527416,35.722434416194616],[140.305597722340991,35.722433806125572]]]}},
{"type":"Feature","properties":{"fid":222,"polygon_uuid":"a7d432d4-2109-4a9f-a965-f8d748a2c251","AreaOnRegistry":"1025","Address":"千葉県富里市新橋字曽利町145","Tiban":"145"},"geometry":{"type":"Polygon","coordinates":[[[140.305779092,35.722433211],[140.305784225,35.722261967],[140.305785985,35.72220339],[140.305785214999986,35.722073077],[140.305597722340991,35.722073693734572],[140.305597722340991,35.722433806125572],[140.305779092,35.722433211]]]}},
{"type":"Feature","properties":{"fid":223,"polygon_uuid":"b711249f-0480-4b8f-9a77-f92d084c29b9","AreaOnRegistry":"298","Address":"千葉県富里市新橋字曽利町169","Tiban":"169"},"geometry":{"type":"Polygon","coordinates":[[[140.306558787288111,35.722987876899182],[140.306558787288111,35.722622403830961],[140.306419985,35.722620759],[140.306419252000012,35.722702823],[140.306418806000011,35.722752759],[140.306416700999989,35.722988436],[140.306558787288111,35.722987876899182]]]}},
{"type":"Feature","properties":{"fid":224,"polygon_uuid":"b711249f-0480-4b8f-9a77-f92d084c29b9","AreaOnRegistry":"298","Address":"千葉県富里市新橋字曽利町170","Tiban":"170"},"geometry":{"type":"Polygon","coordinates":[[[140.306700088662041,35.722987320886951],[140.306700088662041,35.72262407827651],[140.306558787288111,35.722622403830961],[140.306558787288111,35.722987876899182],[140.306700088662041,35.722987320886951]]]}},
{"type":"Feature","properties":{"fid":225,"polygon_uuid":"b711249f-0480-4b8f-9a77-f92d084c29b9","AreaOnRegistry":"944","Address":"千葉県富里市新橋字曽利町171-1","Tiban":"171-1"},"geometry":{"type":"Polygon","coordinates":[[[140.306842263061498,35.722986761439422],[140.306842263061498,35.722625763067569],[140.306700088662041,35.72262407827651],[140.306700088662041,35.722987320886951],[140.306842263061498,35.722986761439422]]]}},
{"type":"Feature","properties":{"fid":226,"polygon_uuid":"b711249f-0480-4b8f-9a77-f92d084c29b9","AreaOnRegistry":"431","Address":"千葉県富里市新橋字曽利町168","Tiban":"168"},"geometry":{"type":"Polygon","coordinates":[[[140.306983673,35.722986205],[140.30698573,35.722763111],[140.306986273,35.722704208],[140.306986981,35.722627478],[140.306842263061498,35.722625763067569],[140.306842263061498,35.722986761439422],[140.306983673,35.722986205]]]}},
{"type":"Feature","properties":{"fid":227,"polygon_uuid":"08f89eab-9164-4177-b6c1-f93cff2ad12c","AreaOnRegistry":"922","Address":"千葉県富里市新橋字曽利町149-1","Tiban":"149-1"},"geometry":{"type":"Polygon","coordinates":[[[140.306088309133571,35.722983549427298],[140.306088309133571,35.722615971206899],[140.305823030999989,35.722618717],[140.305815456,35.72279926],[140.305807893,35.722981664],[140.306088309133571,35.722983549427298]]]}},
{"type":"Feature","properties":{"fid":228,"polygon_uuid":"08f89eab-9164-4177-b6c1-f93cff2ad12c","AreaOnRegistry":"1025","Address":"千葉県富里市新橋字曽利町150","Tiban":"150"},"geometry":{"type":"Polygon","coordinates":[[[140.306356105,35.72298535],[140.306357788000014,35.722796607],[140.306359424,35.722613165],[140.306088309133571,35.722615971206899],[140.306088309133571,35.722983549427298],[140.306356105,35.72298535]]]}},
{"type":"Feature","properties":{"fid":229,"polygon_uuid":"45687223-c8a7-4e2a-8b2a-f956f5afd227","AreaOnRegistry":"350","Address":"千葉県富里市新橋字水白631-2","Tiban":"631-2"},"geometry":{"type":"Polygon","coordinates":[[[140.298755107,35.722588175],[140.298201291999987,35.722537508],[140.298192347,35.722604607],[140.298746397,35.722653706],[140.298755107,35.722588175]]]}},
{"type":"Feature","properties":{"fid":230,"polygon_uuid":"68f64c58-4b87-4743-ade9-fa335158daae","AreaOnRegistry":"439","Address":"千葉県富里市新橋字猪ノ尻594-1","Tiban":"594-1"},"geometry":{"type":"Polygon","coordinates":[[[140.301577927000011,35.723858964],[140.301202607,35.723818104],[140.301557094,35.72403296],[140.301577927000011,35.723858964]]]}},
{"type":"Feature","properties":{"fid":231,"polygon_uuid":"79e4ab74-bc4c-4c8b-90e0-fc0cff093b6d","AreaOnRegistry":"1025","Address":"千葉県富里市新橋字水白637-2","Tiban":"637-2"},"geometry":{"type":"Polygon","coordinates":[[[140.298177087,35.722408948],[140.297626373000014,35.722355881],[140.297605084999987,35.722544075],[140.298150873999987,35.722595172],[140.298177087,35.722408948]]]}},
{"type":"Feature","properties":{"fid":232,"polygon_uuid":"8fb61ab7-fb83-4892-aef3-fdf2c18f0b8d","AreaOnRegistry":"600","Address":"千葉県富里市新橋字曽利町163","Tiban":"163"},"geometry":{"type":"Polygon","coordinates":[[[140.306426673,35.722060085],[140.306423288,35.722251146],[140.306616443180644,35.72225237736712],[140.306616443180644,35.721881041862154],[140.306429867,35.721879815],[140.306426673,35.722060085]]]}},
{"type":"Feature","properties":{"fid":233,"polygon_uuid":"8fb61ab7-fb83-4892-aef3-fdf2c18f0b8d","AreaOnRegistry":"1025","Address":"千葉県富里市新橋字曽利町161","Tiban":"161"},"geometry":{"type":"Polygon","coordinates":[[[140.30680632838255,35.722253587888076],[140.30680632838255,35.721882290483315],[140.306616443180644,35.721881041862154],[140.306616443180644,35.72225237736712],[140.30680632838255,35.722253587888076]]]}},
{"type":"Feature","properties":{"fid":234,"polygon_uuid":"8fb61ab7-fb83-4892-aef3-fdf2c18f0b8d","AreaOnRegistry":"425","Address":"千葉県富里市新橋字曽利町162","Tiban":"162"},"geometry":{"type":"Polygon","coordinates":[[[140.306992071,35.722254772],[140.306997943999988,35.722075739],[140.306996806,35.721883543],[140.30680632838255,35.721882290483315],[140.30680632838255,35.722253587888076],[140.306992071,35.722254772]]]}},
{"type":"Feature","properties":{"fid":235,"polygon_uuid":"97932c30-95fe-4800-9c78-fe4b8f25a99c","AreaOnRegistry":"260","Address":"千葉県酒々井町飯積川免471-1","Tiban":"471-1"},"geometry":{"type":"Polygon","coordinates":[[[140.29713322,35.720940871],[140.297389982,35.720984609],[140.297395572,35.720929153],[140.297327789,35.720895497],[140.297159433,35.720808767],[140.29713322,35.720940871]]]}},
{"type":"Feature","properties":{"fid":236,"polygon_uuid":"6bdcc145-73d4-41cd-81c9-feea9dfe180b","AreaOnRegistry":"792","Address":"千葉県酒々井町飯積川免470-2","Tiban":"470-2"},"geometry":{"type":"Polygon","coordinates":[[[140.297040931,35.721309738],[140.29745625000001,35.721398889],[140.297470151999988,35.721238364],[140.297421646,35.72119396],[140.297083735,35.721130818],[140.297040931,35.721309738]]]}},
{"type":"Feature","properties":{"fid":237,"polygon_uuid":"cb9cfe39-5322-490a-a05e-ff5c658f8639","AreaOnRegistry":"230","Address":"千葉県富里市新橋字駒詰655","Tiban":"655"},"geometry":{"type":"Polygon","coordinates":[[[140.296476623,35.72184761],[140.296499003,35.721674449],[140.296342525,35.721675051],[140.296316462,35.721833559],[140.296476623,35.72184761]]]}},
{"type":"Feature","properties":{"fid":238,"polygon_uuid":"3302355e-8372-46fb-a290-ffe46712c1fd","AreaOnRegistry":"140","Address":"千葉県富里市新橋字猪ノ尻575-4","Tiban":"575-4"},"geometry":{"type":"Polygon","coordinates":[[[140.302280843,35.723375087],[140.302582843774132,35.723405991902936],[140.302582843774132,35.723211603789956],[140.302310381000012,35.723185746],[140.302280843,35.723375087]]]}},
{"type":"Feature","properties":{"fid":239,"polygon_uuid":"3302355e-8372-46fb-a290-ffe46712c1fd","AreaOnRegistry":"1025","Address":"千葉県富里市新橋字猪ノ尻576","Tiban":"576"},"geometry":{"type":"Polygon","coordinates":[[[140.302853244,35.723433663],[140.302880684,35.72323987],[140.302582843774132,35.723211603789956],[140.302582843774132,35.723405991902936],[140.302853244,35.723433663]]]}},
{"type":"Feature","properties":{"fid":240,"polygon_uuid":null,"AreaOnRegistry":"1142","Address":"千葉県富里市新橋字西ノ下601-1","Tiban":"601-1"},"geometry":{"type":"Polygon","coordinates":[[[140.299976475999983,35.722495052],[140.299933980999981,35.722817674],[140.300204594594476,35.722840695176103],[140.300204594594476,35.722564069289319],[140.299976475999983,35.722495052]]]}},
{"type":"Feature","properties":{"fid":241,"polygon_uuid":null,"AreaOnRegistry":"340","Address":"千葉県富里市新橋字西ノ下602","Tiban":"602"},"geometry":{"type":"Polygon","coordinates":[[[140.300511045,35.722866765],[140.300521843622562,35.722660052994669],[140.300204594594476,35.722564069289319],[140.300204594594476,35.722840695176103],[140.300511045,35.722866765]]]}}
]
}
