{
"type": "FeatureCollection",
"name": "いすみセンター【白子】",
"crs": { "type": "name", "properties": { "name": "urn:ogc:def:crs:OGC:1.3:CRS84" } },
"features": [
{ "type": "Feature", "properties": { "fid": 1, "field_id": 6208252, "location": "2024散布分", "地名地番": "福島後谷708-1", "防除面積": 4.1, "水田面積": 4.11, "地番": "708-1", "im_field_n": "福島後谷708-1", "ポリゴン計算面積": 4.11 }, "geometry": { "type": "MultiPolygon", "coordinates": [ [ [ [ 140.354423059999988, 35.460070855 ], [ 140.354326628, 35.45984857 ], [ 140.354157421999986, 35.459876309 ], [ 140.354164110999989, 35.459898767 ], [ 140.354244184, 35.460093319 ], [ 140.354423059999988, 35.460070855 ] ] ] ] } },
{ "type": "Feature", "properties": { "fid": 2, "field_id": 6208267, "location": "2024散布分", "地名地番": "福島後谷710", "防除面積": 9.2, "水田面積": 9.23, "地番": "710", "im_field_n": null, "ポリゴン計算面積": 9.23 }, "geometry": { "type": "MultiPolygon", "coordinates": [ [ [ [ 140.3541574, 35.4598763 ], [ 140.3543266, 35.4598486 ], [ 140.3544231, 35.4600709 ], [ 140.35445, 35.4600419 ], [ 140.3544498, 35.4600019 ], [ 140.354413099999988, 35.4597911 ], [ 140.3543759, 35.4594848 ], [ 140.3543421, 35.4593007 ], [ 140.3543311, 35.4592852 ], [ 140.3542947, 35.4595274 ], [ 140.354301600000014, 35.4596447 ], [ 140.3542203, 35.4596672 ], [ 140.3541301, 35.459668 ], [ 140.354136399999987, 35.4598056 ], [ 140.3541574, 35.4598763 ] ] ] ] } },
{ "type": "Feature", "properties": { "fid": 3, "field_id": 6208292, "location": "2024散布分", "地名地番": "千沢上ノ谷1373,1376", "防除面積": 30.6, "水田面積": 30.6, "地番": "1373,1376", "im_field_n": "千沢上ノ谷1373", "ポリゴン計算面積": 30.6 }, "geometry": { "type": "MultiPolygon", "coordinates": [ [ [ [ 140.352614916, 35.462732217 ], [ 140.353167313, 35.462602735 ], [ 140.353014373, 35.462139532 ], [ 140.352423556, 35.462264762 ], [ 140.352376645, 35.462317065 ], [ 140.352614916, 35.462732217 ] ] ] ] } },
{ "type": "Feature", "properties": { "fid": 4, "field_id": 6208296, "location": "2024散布分", "地名地番": "福島甫中2198", "防除面積": 28.5, "水田面積": 28.55, "地番": "2198", "im_field_n": null, "ポリゴン計算面積": 28.55 }, "geometry": { "type": "MultiPolygon", "coordinates": [ [ [ [ 140.34786968200001, 35.454606999 ], [ 140.347948481, 35.455490324 ], [ 140.34796456, 35.455488234 ], [ 140.347967548000014, 35.455514657 ], [ 140.348252306, 35.45549885 ], [ 140.348250318, 35.455470731 ], [ 140.348190165, 35.454589627 ], [ 140.34786968200001, 35.454606999 ] ] ] ] } },
{ "type": "Feature", "properties": { "fid": 5, "field_id": 6208303, "location": "2024散布分", "地名地番": "千町下沼30183021", "防除面積": 55.5, "水田面積": 55.51, "地番": "30183021", "im_field_n": null, "ポリゴン計算面積": 55.51 }, "geometry": { "type": "MultiPolygon", "coordinates": [ [ [ [ 140.345819414, 35.455609862 ], [ 140.345935360999988, 35.455612532 ], [ 140.346557145, 35.455552977 ], [ 140.34649949300001, 35.454993574 ], [ 140.346478645, 35.454753362 ], [ 140.34592801, 35.454708134 ], [ 140.345819414, 35.455609862 ] ] ] ] } },
{ "type": "Feature", "properties": { "fid": 6, "field_id": 6208305, "location": "2024散布分", "地名地番": "福島野中2231", "防除面積": 78.9, "水田面積": 78.87, "地番": "2231", "im_field_n": "福島野中2231", "ポリゴン計算面積": 78.87 }, "geometry": { "type": "MultiPolygon", "coordinates": [ [ [ [ 140.350763277999988, 35.457301967 ], [ 140.351616961, 35.457266276 ], [ 140.351540537, 35.456346245 ], [ 140.350697386, 35.456381876 ], [ 140.350763277999988, 35.457301967 ] ] ] ] } },
{ "type": "Feature", "properties": { "fid": 7, "field_id": 6208306, "location": "2024散布分", "地名地番": "福島野中2214", "防除面積": 34.9, "水田面積": 34.88, "地番": "2214", "im_field_n": "福島野中2214", "ポリゴン計算面積": 34.88 }, "geometry": { "type": "MultiPolygon", "coordinates": [ [ [ [ 140.350888333, 35.455413959 ], [ 140.350178678, 35.455453646 ], [ 140.350210219, 35.456011143 ], [ 140.350679977999988, 35.455896459 ], [ 140.350903554000013, 35.455824999 ], [ 140.350888333, 35.455413959 ] ] ] ] } },
{ "type": "Feature", "properties": { "fid": 8, "field_id": 6208310, "location": "2024散布分", "地名地番": "福島野中2225", "防除面積": 26.7, "水田面積": 26.66, "地番": "2225", "im_field_n": "福島野中2225", "ポリゴン計算面積": 26.66 }, "geometry": { "type": "MultiPolygon", "coordinates": [ [ [ [ 140.350302284, 35.456372911 ], [ 140.350959486, 35.456340736 ], [ 140.350914211, 35.455866774 ], [ 140.350850791999989, 35.455884972 ], [ 140.350450561, 35.455994243 ], [ 140.350275049, 35.456037231 ], [ 140.350302284, 35.456372911 ] ] ] ] } },
{ "type": "Feature", "properties": { "fid": 9, "field_id": 6208314, "location": "2024散布分", "地名地番": "福島半貫2307,2308", "防除面積": 23.9, "水田面積": 23.86, "地番": "2307,2308", "im_field_n": "福島半貫2307", "ポリゴン計算面積": 23.86 }, "geometry": { "type": "MultiPolygon", "coordinates": [ [ [ [ 140.352518, 35.4562474 ], [ 140.352935800000012, 35.4562287 ], [ 140.3528967, 35.4557718 ], [ 140.3524716, 35.4555608 ], [ 140.352518, 35.4562474 ] ] ] ] } },
{ "type": "Feature", "properties": { "fid": 10, "field_id": 6208317, "location": "2024散布分", "地名地番": "千町南原3056", "防除面積": 26.1, "水田面積": 26.12, "地番": "3056", "im_field_n": "千町南原3056", "ポリゴン計算面積": 26.12 }, "geometry": { "type": "MultiPolygon", "coordinates": [ [ [ [ 140.348030179, 35.456454419 ], [ 140.348315843, 35.456441824 ], [ 140.34823687, 35.455529008 ], [ 140.34795616, 35.455542887 ], [ 140.348030179, 35.456454419 ] ] ] ] } },
{ "type": "Feature", "properties": { "fid": 11, "field_id": 6208318, "location": "2024散布分", "地名地番": "福島野中2226", "防除面積": 9.6, "水田面積": 9.57, "地番": "2226", "im_field_n": "福島野中2226", "ポリゴン計算面積": 9.57 }, "geometry": { "type": "MultiPolygon", "coordinates": [ [ [ [ 140.34998828, 35.456388282 ], [ 140.350302284, 35.456372911 ], [ 140.350275049, 35.456037231 ], [ 140.34996464, 35.456123305 ], [ 140.34998828, 35.456388282 ] ] ] ] } },
{ "type": "Feature", "properties": { "fid": 12, "field_id": 6208324, "location": "2024散布分", "地名地番": "千町南原3081,3083", "防除面積": 65.0, "水田面積": 65.03, "地番": "3081,3083", "im_field_n": null, "ポリゴン計算面積": 65.03 }, "geometry": { "type": "MultiPolygon", "coordinates": [ [ [ [ 140.350130143, 35.459261921 ], [ 140.350069145, 35.458334583 ], [ 140.349384902999986, 35.458367845 ], [ 140.349366178999986, 35.458368755 ], [ 140.349440574, 35.459290064 ], [ 140.350130143, 35.459261921 ] ] ] ] } },
{ "type": "Feature", "properties": { "fid": 13, "field_id": 6208325, "location": "2024散布分", "地名地番": "福島西門2241-13", "防除面積": 53.3, "水田面積": 53.3, "地番": "2241-13", "im_field_n": "福島西門2241-1", "ポリゴン計算面積": 53.3 }, "geometry": { "type": "MultiPolygon", "coordinates": [ [ [ [ 140.3514452, 35.4582342 ], [ 140.3520058, 35.458205 ], [ 140.351945199999989, 35.4572838 ], [ 140.3513604, 35.4573114 ], [ 140.3513686, 35.4573795 ], [ 140.3514452, 35.4582342 ] ] ] ] } },
{ "type": "Feature", "properties": { "fid": 14, "field_id": 6208329, "location": "2024散布分", "地名地番": "福島野中1966,1967", "防除面積": 45.2, "水田面積": 45.23, "地番": "1966,1967", "im_field_n": null, "ポリゴン計算面積": 45.23 }, "geometry": { "type": "MultiPolygon", "coordinates": [ [ [ [ 140.34661924400001, 35.455598117 ], [ 140.346906817, 35.45558135 ], [ 140.347097108000014, 35.455571329 ], [ 140.347038803, 35.454648972 ], [ 140.346550899, 35.454665386 ], [ 140.34661924400001, 35.455598117 ] ] ] ] } },
{ "type": "Feature", "properties": { "fid": 15, "field_id": 6208331, "location": "2024散布分", "地名地番": "福島半貫2309", "防除面積": 48.7, "水田面積": 48.69, "地番": "2309", "im_field_n": "福島半貫2309", "ポリゴン計算面積": 48.69 }, "geometry": { "type": "MultiPolygon", "coordinates": [ [ [ [ 140.351963217, 35.456272281 ], [ 140.352517954, 35.45624742 ], [ 140.352471558, 35.455560802 ], [ 140.352219756000011, 35.455347717 ], [ 140.351891224000013, 35.455372772 ], [ 140.351963217, 35.456272281 ] ] ] ] } },
{ "type": "Feature", "properties": { "fid": 16, "field_id": 6208338, "location": "2024散布分", "地名地番": "福島野中2232,2233", "防除面積": 30.6, "水田面積": 30.57, "地番": "2232,2233", "im_field_n": "福島野中2232", "ポリゴン計算面積": 30.57 }, "geometry": { "type": "MultiPolygon", "coordinates": [ [ [ [ 140.351871029, 35.456330495 ], [ 140.351540537, 35.456346245 ], [ 140.351616961, 35.457266276 ], [ 140.351944343000014, 35.45724832 ], [ 140.351871029, 35.456330495 ] ] ] ] } },
{ "type": "Feature", "properties": { "fid": 17, "field_id": 6208340, "location": "2024散布分", "地名地番": "福島野中2224", "防除面積": 17.1, "水田面積": 17.15, "地番": "2224", "im_field_n": "福島野中2224", "ポリゴン計算面積": 17.15 }, "geometry": { "type": "MultiPolygon", "coordinates": [ [ [ [ 140.350959486, 35.456340736 ], [ 140.351286781, 35.456324711 ], [ 140.35123375, 35.455763944 ], [ 140.350914211, 35.455866774 ], [ 140.350959486, 35.456340736 ] ] ] ] } },
{ "type": "Feature", "properties": { "fid": 18, "field_id": 6208342, "location": "2024散布分", "地名地番": "福島野中2213", "防除面積": 14.7, "水田面積": 14.7, "地番": "2213", "im_field_n": "福島野中2213", "ポリゴン計算面積": 14.7 }, "geometry": { "type": "MultiPolygon", "coordinates": [ [ [ [ 140.349962487999989, 35.456071621 ], [ 140.350210219, 35.456011143 ], [ 140.350178678, 35.455453646 ], [ 140.349927955, 35.455467666 ], [ 140.349962487999989, 35.456071621 ] ] ] ] } },
{ "type": "Feature", "properties": { "fid": 19, "field_id": 6208345, "location": "2024散布分", "地名地番": "福島野中2223", "防除面積": 38.4, "水田面積": 38.45, "地番": "2223", "im_field_n": "福島野中2223", "ポリゴン計算面積": 38.45 }, "geometry": { "type": "MultiPolygon", "coordinates": [ [ [ [ 140.351286781, 35.456324711 ], [ 140.351841474999986, 35.456289431 ], [ 140.351783743, 35.455486599 ], [ 140.351464988, 35.455660056 ], [ 140.35123375, 35.455763944 ], [ 140.351286781, 35.456324711 ] ] ] ] } },
{ "type": "Feature", "properties": { "fid": 20, "field_id": 6208348, "location": "2024散布分", "地名地番": "千町南原3054,3055", "防除面積": 40.7, "水田面積": 40.72, "地番": "3054,3055", "im_field_n": "千町南原3054", "ポリゴン計算面積": 40.72 }, "geometry": { "type": "MultiPolygon", "coordinates": [ [ [ [ 140.34758690000001, 35.456474 ], [ 140.348030200000011, 35.4564544 ], [ 140.3479562, 35.4555429 ], [ 140.3475177, 35.4555646 ], [ 140.347546200000011, 35.4559782 ], [ 140.34758690000001, 35.456474 ] ] ] ] } },
{ "type": "Feature", "properties": { "fid": 21, "field_id": 6208349, "location": "2024散布分", "地名地番": "福島野中2200", "防除面積": 73.9, "水田面積": 73.87, "地番": "2200", "im_field_n": null, "ポリゴン計算面積": 73.87 }, "geometry": { "type": "MultiPolygon", "coordinates": [ [ [ [ 140.348532508, 35.45460705 ], [ 140.34859583, 35.455458786 ], [ 140.34861311, 35.455458609 ], [ 140.348615994, 35.455485243 ], [ 140.349431951000014, 35.455447242 ], [ 140.349367687000012, 35.454567781 ], [ 140.348640254, 35.454608012 ], [ 140.348532508, 35.45460705 ] ] ] ] } },
{ "type": "Feature", "properties": { "fid": 22, "field_id": 6208351, "location": "2024散布分", "地名地番": "千町南原3829,3830", "防除面積": 109.1, "水田面積": 109.09, "地番": "3829,3830", "im_field_n": "千町南原3829-1", "ポリゴン計算面積": 109.09 }, "geometry": { "type": "MultiPolygon", "coordinates": [ [ [ [ 140.348236899999989, 35.455529 ], [ 140.3483158, 35.4564418 ], [ 140.3484402, 35.4564363 ], [ 140.3485335, 35.4564267 ], [ 140.3489315, 35.4563278 ], [ 140.3496208, 35.4561395 ], [ 140.3495672, 35.4554685 ], [ 140.3485672, 35.4555127 ], [ 140.348236899999989, 35.455529 ] ] ] ] } },
{ "type": "Feature", "properties": { "fid": 23, "field_id": 6208352, "location": "2024散布分", "地名地番": "福島野中1970", "防除面積": 16.0, "水田面積": 16.04, "地番": "1970", "im_field_n": null, "ポリゴン計算面積": 16.04 }, "geometry": { "type": "MultiPolygon", "coordinates": [ [ [ [ 140.347408562999988, 35.455517035 ], [ 140.347441098, 35.455523562 ], [ 140.347449395000012, 35.455547952 ], [ 140.347587745999988, 35.455538481 ], [ 140.347585146, 35.455505038 ], [ 140.347516807, 35.454626125 ], [ 140.347381047999988, 35.454636758 ], [ 140.347343817, 35.454638709 ], [ 140.347408562999988, 35.455517035 ] ] ] ] } },
{ "type": "Feature", "properties": { "fid": 24, "field_id": 6208353, "location": "2024散布分", "地名地番": "福島野中2216", "防除面積": 11.2, "水田面積": 11.24, "地番": "2216", "im_field_n": "福島野中2216", "ポリゴン計算面積": 11.24 }, "geometry": { "type": "MultiPolygon", "coordinates": [ [ [ [ 140.351224264, 35.455709409 ], [ 140.351320475, 35.455673224 ], [ 140.351683035, 35.455497787 ], [ 140.351768085, 35.455436474 ], [ 140.351763301, 35.455373753 ], [ 140.351211204, 35.455394978 ], [ 140.351224264, 35.455709409 ] ] ] ] } },
{ "type": "Feature", "properties": { "fid": 25, "field_id": 6208356, "location": "2024散布分", "地名地番": "福島野中2215", "防除面積": 11.9, "水田面積": 11.91, "地番": "2215", "im_field_n": "福島野中2215", "ポリゴン計算面積": 11.91 }, "geometry": { "type": "MultiPolygon", "coordinates": [ [ [ [ 140.351198904, 35.455395451 ], [ 140.350888333, 35.455413959 ], [ 140.350903554000013, 35.455824999 ], [ 140.350992633, 35.455796527 ], [ 140.351224264, 35.455709409 ], [ 140.351211204, 35.455394978 ], [ 140.351198904, 35.455395451 ] ] ] ] } },
{ "type": "Feature", "properties": { "fid": 26, "field_id": 6208358, "location": "2024散布分", "地名地番": "福島野中2199-1,-2", "防除面積": 31.0, "水田面積": 31.02, "地番": "2199-1,-2", "im_field_n": null, "ポリゴン計算面積": 31.02 }, "geometry": { "type": "MultiPolygon", "coordinates": [ [ [ [ 140.348190165, 35.454589627 ], [ 140.348250318, 35.455470731 ], [ 140.34829553, 35.455467578 ], [ 140.348293938000012, 35.455501633 ], [ 140.348578014, 35.455487627 ], [ 140.348577726, 35.455458971 ], [ 140.34859583, 35.455458786 ], [ 140.348532508, 35.45460705 ], [ 140.348471980999989, 35.454606509 ], [ 140.348317137, 35.454582744 ], [ 140.348190165, 35.454589627 ] ] ] ] } },
{ "type": "Feature", "properties": { "fid": 27, "field_id": 6208359, "location": "2024散布分", "地名地番": "福島西門2237,2238,2239", "防除面積": 60.0, "水田面積": 59.97, "地番": "2237,2238,2239", "im_field_n": "福島西門2238", "ポリゴン計算面積": 59.97 }, "geometry": { "type": "MultiPolygon", "coordinates": [ [ [ [ 140.350772348, 35.458269383 ], [ 140.350696699999986, 35.45734738 ], [ 140.350057488, 35.457379443 ], [ 140.35012275, 35.458298818 ], [ 140.350772348, 35.458269383 ] ] ] ] } },
{ "type": "Feature", "properties": { "fid": 28, "field_id": 6208360, "location": "2024散布分", "地名地番": "福島西門2240-1", "防除面積": 62.0, "水田面積": 62.01, "地番": "2240-1", "im_field_n": "福島西門2240-1", "ポリゴン計算面積": 62.01 }, "geometry": { "type": "MultiPolygon", "coordinates": [ [ [ [ 140.350772348, 35.458269383 ], [ 140.351445152999986, 35.45823425 ], [ 140.351368642000011, 35.457379455 ], [ 140.351315019, 35.457322702 ], [ 140.350696699999986, 35.45734738 ], [ 140.350772348, 35.458269383 ] ] ] ] } },
{ "type": "Feature", "properties": { "fid": 29, "field_id": 6208363, "location": "2024散布分", "地名地番": "福島野中2230", "防除面積": 16.5, "水田面積": 16.49, "地番": "2230", "im_field_n": "福島野中2230", "ポリゴン計算面積": 16.49 }, "geometry": { "type": "MultiPolygon", "coordinates": [ [ [ [ 140.350586265, 35.457311134 ], [ 140.350763277999988, 35.457301967 ], [ 140.350697386, 35.456381876 ], [ 140.350519599, 35.456392132 ], [ 140.350586265, 35.457311134 ] ] ] ] } },
{ "type": "Feature", "properties": { "fid": 30, "field_id": 6208366, "location": "2024散布分", "地名地番": "福島野中2228", "防除面積": 40.6, "水田面積": 40.62, "地番": "2228", "im_field_n": "福島野中2228", "ポリゴン計算面積": 40.62 }, "geometry": { "type": "MultiPolygon", "coordinates": [ [ [ [ 140.350029920999987, 35.457052823 ], [ 140.350348255, 35.457040704 ], [ 140.35037443600001, 35.45732144 ], [ 140.350586265, 35.457311134 ], [ 140.350519599, 35.456392132 ], [ 140.34998232, 35.456419138 ], [ 140.350029920999987, 35.457052823 ] ] ] ] } },
{ "type": "Feature", "properties": { "fid": 31, "field_id": 6208367, "location": "2024散布分", "地名地番": "福島井堰2188", "防除面積": 75.8, "水田面積": 75.76, "地番": "2188", "im_field_n": null, "ポリゴン計算面積": 75.76 }, "geometry": { "type": "MultiPolygon", "coordinates": [ [ [ [ 140.348873737, 35.453626681 ], [ 140.348929601, 35.454444816 ], [ 140.348966494, 35.454446287 ], [ 140.348965918, 35.454465386 ], [ 140.349834709, 35.454409267 ], [ 140.349772455, 35.453585699 ], [ 140.348873737, 35.453626681 ] ] ] ] } },
{ "type": "Feature", "properties": { "fid": 32, "field_id": 6208369, "location": "2024散布分", "地名地番": "福島大谷1820", "防除面積": 15.8, "水田面積": 15.85, "地番": "1820", "im_field_n": "福島大谷1820", "ポリゴン計算面積": 15.85 }, "geometry": { "type": "MultiPolygon", "coordinates": [ [ [ [ 140.345070267000011, 35.451666395 ], [ 140.345182312, 35.450762453 ], [ 140.345012909, 35.450746525 ], [ 140.344897313, 35.451634465 ], [ 140.344932534, 35.451655196 ], [ 140.345070267000011, 35.451666395 ] ] ] ] } },
{ "type": "Feature", "properties": { "fid": 33, "field_id": 6208370, "location": "2024散布分", "地名地番": "福島井堰1869-1", "防除面積": 15.1, "水田面積": 15.07, "地番": "1869-1", "im_field_n": "福島井堰1869-1", "ポリゴン計算面積": 15.07 }, "geometry": { "type": "MultiPolygon", "coordinates": [ [ [ [ 140.348271819, 35.450757641 ], [ 140.348336185, 35.451671826 ], [ 140.34850029, 35.451664125 ], [ 140.348433906, 35.450749602 ], [ 140.348271819, 35.450757641 ] ] ] ] } },
{ "type": "Feature", "properties": { "fid": 34, "field_id": 6208372, "location": "2024散布分", "地名地番": "福島井堰2173,2174", "防除面積": 17.5, "水田面積": 17.47, "地番": "2173,2174", "im_field_n": "福島井堰2173", "ポリゴン計算面積": 17.47 }, "geometry": { "type": "MultiPolygon", "coordinates": [ [ [ [ 140.349367199999989, 35.4534858 ], [ 140.3493928, 35.4534856 ], [ 140.349393, 35.4535103 ], [ 140.349549, 35.4535051 ], [ 140.349565399999989, 35.4534871 ], [ 140.3494987, 35.4526467 ], [ 140.3494832, 35.4526293 ], [ 140.349297400000012, 35.452638 ], [ 140.349367199999989, 35.4534858 ] ] ] ] } },
{ "type": "Feature", "properties": { "fid": 35, "field_id": 6208378, "location": "2024散布分", "地名地番": "福島大谷1823", "防除面積": 12.3, "水田面積": 12.29, "地番": "1823", "im_field_n": "福島大谷1823", "ポリゴン計算面積": 12.29 }, "geometry": { "type": "MultiPolygon", "coordinates": [ [ [ [ 140.345317693, 35.450775181 ], [ 140.345182312, 35.450762453 ], [ 140.345070267000011, 35.451666395 ], [ 140.345202188, 35.451677122 ], [ 140.345317693, 35.450775181 ] ] ] ] } },
{ "type": "Feature", "properties": { "fid": 36, "field_id": 6208379, "location": "2024散布分", "地名地番": "福島井堰2170", "防除面積": 60.6, "水田面積": 60.58, "地番": "2170", "im_field_n": null, "ポリゴン計算面積": 60.58 }, "geometry": { "type": "MultiPolygon", "coordinates": [ [ [ [ 140.350956621, 35.454334334 ], [ 140.351606549, 35.454299037 ], [ 140.351653105, 35.454236774 ], [ 140.351561486, 35.453467584 ], [ 140.350875389, 35.45349417 ], [ 140.350902121, 35.454284326 ], [ 140.350938354, 35.454301904 ], [ 140.350956621, 35.454334334 ] ] ] ] } },
{ "type": "Feature", "properties": { "fid": 37, "field_id": 6208380, "location": "2024散布分", "地名地番": "福島大谷1761,1762", "防除面積": 25.6, "水田面積": 25.63, "地番": "1761,1762", "im_field_n": "福島大谷1761-1", "ポリゴン計算面積": 25.63 }, "geometry": { "type": "MultiPolygon", "coordinates": [ [ [ [ 140.3443924, 35.4526081 ], [ 140.3442856, 35.4535112 ], [ 140.344554499999987, 35.4535363 ], [ 140.34468050000001, 35.4526334 ], [ 140.3443924, 35.4526081 ] ] ] ] } },
{ "type": "Feature", "properties": { "fid": 38, "field_id": 6208381, "location": "2024散布分", "地名地番": "福島大谷1750,1752", "防除面積": 29.2, "水田面積": 29.16, "地番": "1750,1752", "im_field_n": "福島大谷1751-1", "ポリゴン計算面積": 29.16 }, "geometry": { "type": "MultiPolygon", "coordinates": [ [ [ [ 140.3433128, 35.4525133 ], [ 140.343209300000012, 35.4533527 ], [ 140.343248499999987, 35.4533561 ], [ 140.343245700000011, 35.453414 ], [ 140.343523800000014, 35.45344 ], [ 140.343529, 35.453398 ], [ 140.3436346, 35.4525416 ], [ 140.3433128, 35.4525133 ] ] ] ] } },
{ "type": "Feature", "properties": { "fid": 39, "field_id": 6208382, "location": "2024散布分", "地名地番": "福島井堰1933-1,2", "防除面積": 20.1, "水田面積": 20.1, "地番": "1933-1,2", "im_field_n": null, "ポリゴン計算面積": 20.1 }, "geometry": { "type": "MultiPolygon", "coordinates": [ [ [ [ 140.347823075, 35.454201118 ], [ 140.347785823, 35.453682396 ], [ 140.347780155, 35.45364467 ], [ 140.347370496999986, 35.4536664 ], [ 140.347371463, 35.453686434 ], [ 140.347386128000011, 35.453990538 ], [ 140.347397252, 35.454032682 ], [ 140.347764777, 35.454213204 ], [ 140.347783674999988, 35.454197579 ], [ 140.347823075, 35.454201118 ] ] ] ] } },
{ "type": "Feature", "properties": { "fid": 40, "field_id": 6208383, "location": "2024散布分", "地名地番": "福島井堰1860,1861", "防除面積": 28.1, "水田面積": 28.09, "地番": "1860,1861", "im_field_n": "福島井堰1860", "ポリゴン計算面積": 28.09 }, "geometry": { "type": "MultiPolygon", "coordinates": [ [ [ [ 140.351152, 35.4514324 ], [ 140.3510063, 35.4510138 ], [ 140.3503273, 35.4510425 ], [ 140.3503906, 35.451176 ], [ 140.350521, 35.4514614 ], [ 140.351152, 35.4514324 ] ] ] ] } },
{ "type": "Feature", "properties": { "fid": 41, "field_id": 6208385, "location": "2024散布分", "地名地番": "福島井堰2164", "防除面積": 65.2, "水田面積": 65.25, "地番": "2164", "im_field_n": "福島井堰2164", "ポリゴン計算面積": 65.25 }, "geometry": { "type": "MultiPolygon", "coordinates": [ [ [ [ 140.3508893, 35.45342669999998 ], [ 140.3515408, 35.4533923 ], [ 140.3515439, 35.453367400000019 ], [ 140.3515567, 35.453359400000011 ], [ 140.3513653, 35.452380799999986 ], [ 140.350709200000011, 35.452416200000016 ], [ 140.350728, 35.452548400000012 ], [ 140.350794400000012, 35.452644 ], [ 140.35082220000001, 35.452729199999979 ], [ 140.3508536, 35.452860399999977 ], [ 140.3508527, 35.452970800000017 ], [ 140.3508893, 35.45342669999998 ] ] ] ] } },
{ "type": "Feature", "properties": { "fid": 42, "field_id": 6208386, "location": "2024散布分", "地名地番": "福島井堰2158-12159", "防除面積": 31.0, "水田面積": 31.05, "地番": "2158-12159", "im_field_n": "福島井堰2158-1", "ポリゴン計算面積": 31.05 }, "geometry": { "type": "MultiPolygon", "coordinates": [ [ [ [ 140.348734900000011, 35.4526411 ], [ 140.349066099999988, 35.4526217 ], [ 140.3489946, 35.4517167 ], [ 140.3489672, 35.4517101 ], [ 140.3489616, 35.45169 ], [ 140.348665899999986, 35.4517025 ], [ 140.3486675, 35.4517249 ], [ 140.348734900000011, 35.4526411 ] ] ] ] } },
{ "type": "Feature", "properties": { "fid": 43, "field_id": 6208390, "location": "2024散布分", "地名地番": "福島大谷1815,1819", "防除面積": 63.9, "水田面積": 63.88, "地番": "1815,1819", "im_field_n": "福島大谷1814-2", "ポリゴン計算面積": 63.88 }, "geometry": { "type": "MultiPolygon", "coordinates": [ [ [ [ 140.344115456999987, 35.451582962 ], [ 140.344820757, 35.451634789 ], [ 140.344933164, 35.450746863 ], [ 140.344227839000013, 35.450689816 ], [ 140.344115456999987, 35.451582962 ] ] ] ] } },
{ "type": "Feature", "properties": { "fid": 44, "field_id": 6208391, "location": "2024散布分", "地名地番": "福島大谷1757,1760", "防除面積": 40.4, "水田面積": 40.39, "地番": "1757,1760", "im_field_n": "福島大谷1757", "ポリゴン計算面積": 40.39 }, "geometry": { "type": "MultiPolygon", "coordinates": [ [ [ [ 140.3439558, 35.4525698 ], [ 140.3438444, 35.4534218 ], [ 140.3438878, 35.4534277 ], [ 140.3438765, 35.453473 ], [ 140.3442856, 35.4535112 ], [ 140.3443924, 35.4526081 ], [ 140.3439558, 35.4525698 ] ] ] ] } },
{ "type": "Feature", "properties": { "fid": 45, "field_id": 6208392, "location": "2024散布分", "地名地番": "下沼2954", "防除面積": 40.0, "水田面積": 40.04, "地番": "2954", "im_field_n": null, "ポリゴン計算面積": 40.04 }, "geometry": { "type": "MultiPolygon", "coordinates": [ [ [ [ 140.3437121, 35.4544919 ], [ 140.3438313, 35.4536298 ], [ 140.343793299999987, 35.4536258 ], [ 140.3438011, 35.4535836 ], [ 140.3436051, 35.4535619 ], [ 140.3435288, 35.4535535 ], [ 140.343406, 35.45354 ], [ 140.3432769, 35.454453 ], [ 140.3433985, 35.4544639 ], [ 140.3435006, 35.454473 ], [ 140.3437121, 35.4544919 ] ] ] ] } },
{ "type": "Feature", "properties": { "fid": 46, "field_id": 6208396, "location": "2024散布分", "地名地番": "福島井堰1909", "防除面積": 12.9, "水田面積": 12.92, "地番": "1909", "im_field_n": "福島井堰1909", "ポリゴン計算面積": 12.92 }, "geometry": { "type": "MultiPolygon", "coordinates": [ [ [ [ 140.350024972999989, 35.45287603 ], [ 140.349556057, 35.452901333 ], [ 140.349582149000014, 35.453180195 ], [ 140.350054660000012, 35.453138086 ], [ 140.350024972999989, 35.45287603 ] ] ] ] } },
{ "type": "Feature", "properties": { "fid": 47, "field_id": 6208398, "location": "2024散布分", "地名地番": "福島井堰1907", "防除面積": 15.3, "水田面積": 15.34, "地番": "1907", "im_field_n": "福島井堰1907", "ポリゴン計算面積": 15.34 }, "geometry": { "type": "MultiPolygon", "coordinates": [ [ [ [ 140.349582149000014, 35.453180195 ], [ 140.349608819999986, 35.453465237 ], [ 140.349647772, 35.453486246 ], [ 140.350091888, 35.4534667 ], [ 140.350054660000012, 35.453138086 ], [ 140.349582149000014, 35.453180195 ] ] ] ] } },
{ "type": "Feature", "properties": { "fid": 48, "field_id": 6208401, "location": "2024散布分", "地名地番": "福島大谷1804,1808", "防除面積": 35.4, "水田面積": 35.44, "地番": "1804,1808", "im_field_n": "福島大谷1804", "ポリゴン計算面積": 35.44 }, "geometry": { "type": "MultiPolygon", "coordinates": [ [ [ [ 140.343745500000011, 35.4515519 ], [ 140.343837799999989, 35.4506496 ], [ 140.3434551, 35.4506101 ], [ 140.3433589, 35.4515194 ], [ 140.343745500000011, 35.4515519 ] ] ] ] } },
{ "type": "Feature", "properties": { "fid": 49, "field_id": 6208403, "location": "2024散布分", "地名地番": "福島井堰2150", "防除面積": 35.2, "水田面積": 35.21, "地番": "2150", "im_field_n": "福島井堰2150", "ポリゴン計算面積": 35.21 }, "geometry": { "type": "MultiPolygon", "coordinates": [ [ [ [ 140.347036824000014, 35.452727077 ], [ 140.347411881999989, 35.452708819 ], [ 140.347342769, 35.451790256 ], [ 140.347302062000011, 35.451790429 ], [ 140.347301992000013, 35.451779326 ], [ 140.346973741, 35.451798488 ], [ 140.346968440000012, 35.451818496 ], [ 140.347036824000014, 35.452727077 ] ] ] ] } },
{ "type": "Feature", "properties": { "fid": 50, "field_id": 6208404, "location": "2024散布分", "地名地番": "福島井堰2177,2178", "防除面積": 29.2, "水田面積": 29.17, "地番": "2177,2178", "im_field_n": "福島井堰2177", "ポリゴン計算面積": 29.17 }, "geometry": { "type": "MultiPolygon", "coordinates": [ [ [ [ 140.348342699999989, 35.4526828 ], [ 140.348009, 35.4526985 ], [ 140.348078, 35.4535533 ], [ 140.3481176, 35.4535551 ], [ 140.3481286, 35.453575 ], [ 140.3484053, 35.4535605 ], [ 140.3484038, 35.4535388 ], [ 140.348342699999989, 35.4526828 ] ] ] ] } },
{ "type": "Feature", "properties": { "fid": 51, "field_id": 6208406, "location": "2024散布分", "地名地番": "井堰1848~1850-2", "防除面積": 42.1, "水田面積": 42.09, "地番": "1848~1850-2", "im_field_n": null, "ポリゴン計算面積": 42.09 }, "geometry": { "type": "MultiPolygon", "coordinates": [ [ [ [ 140.348565855, 35.450703131 ], [ 140.349138127, 35.450672074 ], [ 140.349083411, 35.449987948 ], [ 140.349054192000011, 35.449986579 ], [ 140.349055865, 35.449962669 ], [ 140.34851234300001, 35.449946539 ], [ 140.348565855, 35.450703131 ] ] ] ] } },
{ "type": "Feature", "properties": { "fid": 52, "field_id": 6208407, "location": "2024散布分", "地名地番": "福島井堰2176", "防除面積": 44.8, "水田面積": 44.78, "地番": "2176", "im_field_n": "福島井堰2176", "ポリゴン計算面積": 44.78 }, "geometry": { "type": "MultiPolygon", "coordinates": [ [ [ [ 140.348905523000013, 35.453514613 ], [ 140.348853507, 35.452658836 ], [ 140.348342695000014, 35.452682837 ], [ 140.348403778, 35.453538752 ], [ 140.348445913, 35.453540377 ], [ 140.348448754, 35.45356035 ], [ 140.348904518000012, 35.453533978 ], [ 140.348905523000013, 35.453514613 ] ] ] ] } },
{ "type": "Feature", "properties": { "fid": 53, "field_id": 6208411, "location": "2024散布分", "地名地番": "福島大谷1821,1822", "防除面積": 37.3, "水田面積": 37.28, "地番": "1821,1822", "im_field_n": null, "ポリゴン計算面積": 37.28 }, "geometry": { "type": "MultiPolygon", "coordinates": [ [ [ [ 140.345032800000013, 35.4507024 ], [ 140.345449300000013, 35.450741 ], [ 140.3455392, 35.4498285 ], [ 140.3451483, 35.4497988 ], [ 140.345032800000013, 35.4507024 ] ] ] ] } },
{ "type": "Feature", "properties": { "fid": 54, "field_id": 6208412, "location": "2024散布分", "地名地番": "福島井堰2149", "防除面積": 60.5, "水田面積": 60.55, "地番": "2149", "im_field_n": "福島井堰2149", "ポリゴン計算面積": 60.55 }, "geometry": { "type": "MultiPolygon", "coordinates": [ [ [ [ 140.347036824000014, 35.452727077 ], [ 140.346968440000012, 35.451818496 ], [ 140.346938560000012, 35.451814182 ], [ 140.346932978000012, 35.451789779 ], [ 140.346322566999987, 35.451821242 ], [ 140.346401787, 35.452757989 ], [ 140.347036824000014, 35.452727077 ] ] ] ] } },
{ "type": "Feature", "properties": { "fid": 55, "field_id": 6208417, "location": "2024散布分", "地名地番": "福島井堰2179,2180", "防除面積": 86.5, "水田面積": 86.46, "地番": "2179,2180", "im_field_n": "福島井堰2179", "ポリゴン計算面積": 86.46 }, "geometry": { "type": "MultiPolygon", "coordinates": [ [ [ [ 140.348009, 35.4526985 ], [ 140.3477513, 35.4527106 ], [ 140.3470268, 35.4527478 ], [ 140.3471001, 35.4536178 ], [ 140.3476972, 35.453588 ], [ 140.3476997, 35.4535635 ], [ 140.3477432, 35.4535634 ], [ 140.3477461, 35.4535922 ], [ 140.3480798, 35.4535752 ], [ 140.348078, 35.4535533 ], [ 140.348009, 35.4526985 ] ] ] ] } },
{ "type": "Feature", "properties": { "fid": 56, "field_id": 6208421, "location": "2024散布分", "地名地番": "福島井堰2175-1,-2", "防除面積": 39.9, "水田面積": 39.91, "地番": "2175-1,-2", "im_field_n": "福島井堰2175-1", "ポリゴン計算面積": 39.91 }, "geometry": { "type": "MultiPolygon", "coordinates": [ [ [ [ 140.3489055, 35.4535146 ], [ 140.3489521, 35.4535122 ], [ 140.3489549, 35.4535323 ], [ 140.349356, 35.453511 ], [ 140.3493517, 35.4534858 ], [ 140.349367199999989, 35.4534858 ], [ 140.349297400000012, 35.452638 ], [ 140.3488535, 35.4526588 ], [ 140.3489055, 35.4535146 ] ] ] ] } },
{ "type": "Feature", "properties": { "fid": 57, "field_id": 6208422, "location": "2024散布分", "地名地番": "福島井堰21852187", "防除面積": 83.4, "水田面積": 83.37, "地番": "21852187", "im_field_n": null, "ポリゴン計算面積": 83.37 }, "geometry": { "type": "MultiPolygon", "coordinates": [ [ [ [ 140.348933411, 35.454472466 ], [ 140.348929601, 35.454444816 ], [ 140.348873737, 35.453626681 ], [ 140.347785823, 35.453682396 ], [ 140.347823075, 35.454201118 ], [ 140.347870672999989, 35.454221635 ], [ 140.347870855999986, 35.454250501 ], [ 140.348001574, 35.454321003 ], [ 140.348208390999986, 35.454408944 ], [ 140.348420395, 35.454459112 ], [ 140.348653926999987, 35.454480321 ], [ 140.348933411, 35.454472466 ] ] ] ] } },
{ "type": "Feature", "properties": { "fid": 58, "field_id": 6208425, "location": "2024散布分", "地名地番": "福島井堰2161,2162", "防除面積": 51.1, "水田面積": 51.09, "地番": "2161,2162", "im_field_n": "福島井堰2161", "ポリゴン計算面積": 51.09 }, "geometry": { "type": "MultiPolygon", "coordinates": [ [ [ [ 140.349386399999986, 35.4526042 ], [ 140.34968760000001, 35.4525877 ], [ 140.349975, 35.4525685 ], [ 140.3498215, 35.451693 ], [ 140.3497884, 35.4516596 ], [ 140.3497336, 35.4516508 ], [ 140.349312, 35.4516773 ], [ 140.3493148, 35.4517112 ], [ 140.349386399999986, 35.4526042 ] ] ] ] } },
{ "type": "Feature", "properties": { "fid": 59, "field_id": 6208434, "location": "2024散布分", "地名地番": "福島井堰2160", "防除面積": 30.0, "水田面積": 30.01, "地番": "2160", "im_field_n": "福島井堰2160", "ポリゴン計算面積": 30.01 }, "geometry": { "type": "MultiPolygon", "coordinates": [ [ [ [ 140.349066109, 35.45262173 ], [ 140.349386378, 35.452604194 ], [ 140.34931475, 35.451711172 ], [ 140.349287557, 35.451704283 ], [ 140.349279156, 35.451675188 ], [ 140.348997176000012, 35.451689838 ], [ 140.348994608999988, 35.451716739 ], [ 140.349066109, 35.45262173 ] ] ] ] } },
{ "type": "Feature", "properties": { "fid": 60, "field_id": 6208435, "location": "2024散布分", "地名地番": "福島大谷1753,1756", "防除面積": 28.9, "水田面積": 28.92, "地番": "1753,1756", "im_field_n": "福島大谷1752-2", "ポリゴン計算面積": 28.92 }, "geometry": { "type": "MultiPolygon", "coordinates": [ [ [ [ 140.3436346, 35.4525416 ], [ 140.343529, 35.453398 ], [ 140.3435739, 35.4534042 ], [ 140.3435699, 35.4534443 ], [ 140.3438382, 35.4534694 ], [ 140.3438444, 35.4534218 ], [ 140.3439558, 35.4525698 ], [ 140.3436346, 35.4525416 ] ] ] ] } },
{ "type": "Feature", "properties": { "fid": 61, "field_id": 6208439, "location": "2024散布分", "地名地番": "福島井堰2181", "防除面積": 55.4, "水田面積": 55.45, "地番": "2181", "im_field_n": "福島井堰2181", "ポリゴン計算面積": 55.45 }, "geometry": { "type": "MultiPolygon", "coordinates": [ [ [ [ 140.347026841, 35.452747786 ], [ 140.346807191000011, 35.452759053 ], [ 140.346446357, 35.452776131 ], [ 140.34639758, 35.452787442 ], [ 140.346462554999988, 35.453617662 ], [ 140.346495092, 35.453613082 ], [ 140.346519586999989, 35.453624081 ], [ 140.346530584, 35.453646239 ], [ 140.347100059000013, 35.453617802 ], [ 140.347026841, 35.452747786 ] ] ] ] } },
{ "type": "Feature", "properties": { "fid": 62, "field_id": 6208445, "location": "2024散布分", "地名地番": "福島井堰2155-1,-2", "防除面積": 31.9, "水田面積": 31.92, "地番": "2155-1,-2", "im_field_n": "福島井堰2155-1", "ポリゴン計算面積": 31.92 }, "geometry": { "type": "MultiPolygon", "coordinates": [ [ [ [ 140.3480513, 35.4526777 ], [ 140.34839310000001, 35.4526562 ], [ 140.348322200000013, 35.4517483 ], [ 140.3482924, 35.4517507 ], [ 140.3482922, 35.4517285 ], [ 140.3479883, 35.4517409 ], [ 140.3479858, 35.4517653 ], [ 140.3480513, 35.4526777 ] ] ] ] } },
{ "type": "Feature", "properties": { "fid": 63, "field_id": 6208451, "location": "2024散布分", "地名地番": "福島野中2206~2207", "防除面積": 169.4, "水田面積": 169.46, "地番": "2206~2207", "im_field_n": "福島野中2206-1", "ポリゴン計算面積": 169.46 }, "geometry": { "type": "MultiPolygon", "coordinates": [ [ [ [ 140.349919682, 35.455416902 ], [ 140.351772084, 35.455329165 ], [ 140.351704919000014, 35.454431016 ], [ 140.35166507400001, 35.454413455 ], [ 140.34985257400001, 35.454524662 ], [ 140.349919682, 35.455416902 ] ] ] ] } },
{ "type": "Feature", "properties": { "fid": 64, "field_id": 6208454, "location": "2024散布分", "地名地番": "福島野中2190", "防除面積": 39.2, "水田面積": 39.18, "地番": "2190", "im_field_n": "福島野中2190", "ポリゴン計算面積": 39.18 }, "geometry": { "type": "MultiPolygon", "coordinates": [ [ [ [ 140.34655308, 35.45464292 ], [ 140.347072819, 35.454619441 ], [ 140.347026581, 35.453990278 ], [ 140.347002143, 35.453988161 ], [ 140.346988531, 35.453981557 ], [ 140.346980263, 35.453961607 ], [ 140.346893166, 35.453922008 ], [ 140.346702818000011, 35.453862861 ], [ 140.346488172, 35.453823803 ], [ 140.34655308, 35.45464292 ] ] ] ] } },
{ "type": "Feature", "properties": { "fid": 65, "field_id": 6208455, "location": "2024散布分", "地名地番": "千町下沼3035,3036", "防除面積": 35.8, "水田面積": 35.76, "地番": "3035,3036", "im_field_n": "千町下沼3034", "ポリゴン計算面積": 35.76 }, "geometry": { "type": "MultiPolygon", "coordinates": [ [ [ [ 140.3456797, 35.4546437 ], [ 140.3457473, 35.4541651 ], [ 140.3457529, 35.4541339 ], [ 140.3457884, 35.4539376 ], [ 140.345801200000011, 35.4537194 ], [ 140.345427300000011, 35.4536924 ], [ 140.3453027, 35.4546125 ], [ 140.3456797, 35.4546437 ] ] ] ] } },
{ "type": "Feature", "properties": { "fid": 66, "field_id": 6208457, "location": "2024散布分", "地名地番": "福島野中2191-1", "防除面積": 18.1, "水田面積": 18.11, "地番": "2191-1", "im_field_n": "福島野中2191-1", "ポリゴン計算面積": 18.11 }, "geometry": { "type": "MultiPolygon", "coordinates": [ [ [ [ 140.347026581, 35.453990278 ], [ 140.347072819, 35.454619441 ], [ 140.34740020000001, 35.45460465 ], [ 140.34736286, 35.454150568 ], [ 140.347328456000014, 35.454146274 ], [ 140.347297615, 35.454133082 ], [ 140.347301064, 35.45410642 ], [ 140.347034667, 35.453981361 ], [ 140.347026581, 35.453990278 ] ] ] ] } },
{ "type": "Feature", "properties": { "fid": 67, "field_id": 6208461, "location": "2024散布分", "地名地番": "福島野中2201", "防除面積": 36.4, "水田面積": 36.45, "地番": "2201", "im_field_n": "福島野中2201", "ポリゴン計算面積": 36.45 }, "geometry": { "type": "MultiPolygon", "coordinates": [ [ [ [ 140.349367687000012, 35.454567781 ], [ 140.349431951000014, 35.455447242 ], [ 140.349823342, 35.455429011 ], [ 140.349823128999986, 35.455395703 ], [ 140.349844797, 35.455388948 ], [ 140.349771557999986, 35.454545443 ], [ 140.349367687000012, 35.454567781 ] ] ] ] } },
{ "type": "Feature", "properties": { "fid": 68, "field_id": 6208463, "location": "2024散布分", "地名地番": "福島野中2192-2,2193,2194", "防除面積": 20.7, "水田面積": 20.68, "地番": "2192-2,2193,2194", "im_field_n": "福島野中2192-2", "ポリゴン計算面積": 20.68 }, "geometry": { "type": "MultiPolygon", "coordinates": [ [ [ [ 140.34736286, 35.454150568 ], [ 140.34740020000001, 35.45460465 ], [ 140.348232177999989, 35.4545582 ], [ 140.348234722, 35.454531542 ], [ 140.348147972, 35.454502895 ], [ 140.347731483, 35.454304818 ], [ 140.347368193, 35.454135742 ], [ 140.34736286, 35.454150568 ] ] ] ] } },
{ "type": "Feature", "properties": { "fid": 69, "field_id": 6209081, "location": "2024散布分", "地名地番": "関羽貫761,762", "防除面積": 114.9, "水田面積": 114.94, "地番": "761,762", "im_field_n": null, "ポリゴン計算面積": 114.94 }, "geometry": { "type": "MultiPolygon", "coordinates": [ [ [ [ 140.3516608, 35.4533405 ], [ 140.3520505, 35.4532842 ], [ 140.352015200000011, 35.4531233 ], [ 140.3526611, 35.4530377 ], [ 140.3526056, 35.4528296 ], [ 140.3523841, 35.4520803 ], [ 140.3513836, 35.4520846 ], [ 140.3516353, 35.4533133 ], [ 140.351657, 35.4533102 ], [ 140.3516608, 35.4533405 ] ] ] ] } },
{ "type": "Feature", "properties": { "fid": 70, "field_id": 6209096, "location": "2024散布分", "地名地番": "福島大谷1817,1818", "防除面積": 41.3, "水田面積": 41.33, "地番": "1817,1818", "im_field_n": "福島大谷1817", "ポリゴン計算面積": 41.33 }, "geometry": { "type": "MultiPolygon", "coordinates": [ [ [ [ 140.344496600000014, 35.450661 ], [ 140.344949899999989, 35.4507001 ], [ 140.3450621, 35.4497861 ], [ 140.3446267, 35.449749 ], [ 140.344496600000014, 35.450661 ] ] ] ] } },
{ "type": "Feature", "properties": { "fid": 71, "field_id": 6209202, "location": "2024散布分", "地名地番": "千町柳保田3238", "防除面積": 29.6, "水田面積": 29.57, "地番": "3238", "im_field_n": "千町柳保田3238", "ポリゴン計算面積": 29.57 }, "geometry": { "type": "MultiPolygon", "coordinates": [ [ [ [ 140.341915064, 35.452382501 ], [ 140.341797027000013, 35.453264424 ], [ 140.34207662, 35.453290062 ], [ 140.342087929, 35.453241724 ], [ 140.342133753000013, 35.453244667 ], [ 140.342247182, 35.452408503 ], [ 140.341915064, 35.452382501 ] ] ] ] } },
{ "type": "Feature", "properties": { "fid": 72, "field_id": 6209368, "location": "2024散布分", "地名地番": "南吉田大谷1950", "防除面積": 31.3, "水田面積": 31.3, "地番": "1950", "im_field_n": "南吉田大谷1950", "ポリゴン計算面積": 31.3 }, "geometry": { "type": "MultiPolygon", "coordinates": [ [ [ [ 140.34228052, 35.458813189 ], [ 140.34225163, 35.458078758 ], [ 140.341826452, 35.458114562 ], [ 140.341848675, 35.458827467 ], [ 140.34228052, 35.458813189 ] ] ] ] } },
{ "type": "Feature", "properties": { "fid": 73, "field_id": 6209370, "location": "2024散布分", "地名地番": "南吉田大谷1946", "防除面積": 23.6, "水田面積": 23.55, "地番": "1946", "im_field_n": "南吉田大谷1946", "ポリゴン計算面積": 23.55 }, "geometry": { "type": "MultiPolygon", "coordinates": [ [ [ [ 140.343126069, 35.458791788 ], [ 140.343084761, 35.457951026 ], [ 140.342806544000013, 35.457993682 ], [ 140.34283832700001, 35.458799072 ], [ 140.343126069, 35.458791788 ] ] ] ] } },
{ "type": "Feature", "properties": { "fid": 74, "field_id": 6209372, "location": "2024散布分", "地名地番": "南吉田大谷1949", "防除面積": 24.5, "水田面積": 24.47, "地番": "1949", "im_field_n": "南吉田大谷1949", "ポリゴン計算面積": 24.47 }, "geometry": { "type": "MultiPolygon", "coordinates": [ [ [ [ 140.34228052, 35.458813189 ], [ 140.34260636, 35.458804942 ], [ 140.342567329, 35.458030357 ], [ 140.34225163, 35.458078758 ], [ 140.34228052, 35.458813189 ] ] ] ] } },
{ "type": "Feature", "properties": { "fid": 75, "field_id": 6209374, "location": "2024散布分", "地名地番": "南吉田南台1951-1", "防除面積": 16.3, "水田面積": 16.33, "地番": "1951-1", "im_field_n": "南吉田南台1951-1", "ポリゴン計算面積": 16.33 }, "geometry": { "type": "MultiPolygon", "coordinates": [ [ [ [ 140.341624449, 35.458834879 ], [ 140.341848675, 35.458827467 ], [ 140.341826452, 35.458114562 ], [ 140.341709058, 35.458124449 ], [ 140.341592586, 35.458136657 ], [ 140.341624449, 35.458834879 ] ] ] ] } },
{ "type": "Feature", "properties": { "fid": 76, "field_id": 6209384, "location": "2024散布分", "地名地番": "南吉田南台1952-1", "防除面積": 40.5, "水田面積": 40.52, "地番": "1952-1", "im_field_n": "南吉田南台1952-1", "ポリゴン計算面積": 40.52 }, "geometry": { "type": "MultiPolygon", "coordinates": [ [ [ [ 140.341026045, 35.45885466 ], [ 140.341624449, 35.458834879 ], [ 140.341592586, 35.458136657 ], [ 140.341006356, 35.458198104 ], [ 140.341026045, 35.45885466 ] ] ] ] } },
{ "type": "Feature", "properties": { "fid": 77, "field_id": 6209386, "location": "2024散布分", "地名地番": "下沼2953", "防除面積": 14.8, "水田面積": 14.78, "地番": "2953", "im_field_n": null, "ポリゴン計算面積": 14.78 }, "geometry": { "type": "MultiPolygon", "coordinates": [ [ [ [ 140.343125581737183, 35.454436770520346 ], [ 140.343273639687112, 35.454452501546712 ], [ 140.343402385719827, 35.453540096466611 ], [ 140.343232870097808, 35.453524365361901 ], [ 140.343125581737183, 35.454436770520346 ] ] ] ] } },
{ "type": "Feature", "properties": { "fid": 78, "field_id": 6209390, "location": "2024散布分", "地名地番": "井堰2157", "防除面積": 15.1, "水田面積": 15.08, "地番": "2157", "im_field_n": null, "ポリゴン計算面積": 15.08 }, "geometry": { "type": "MultiPolygon", "coordinates": [ [ [ [ 140.348732471498749, 35.452636420786703 ], [ 140.348661661197127, 35.451694280083089 ], [ 140.348500728656234, 35.451706515694937 ], [ 140.348575830508651, 35.452641664635365 ], [ 140.348732471498749, 35.452636420786703 ] ] ] ] } },
{ "type": "Feature", "properties": { "fid": 79, "field_id": 6209391, "location": "2024散布分", "地名地番": "井堰2156", "防除面積": 17.2, "水田面積": 17.21, "地番": "2156", "im_field_n": null, "ポリゴン計算面積": 17.21 }, "geometry": { "type": "MultiPolygon", "coordinates": [ [ [ [ 140.348399877548189, 35.452645160498761 ], [ 140.348577976210407, 35.452636420840022 ], [ 140.348494291338255, 35.451699523913163 ], [ 140.348309755308918, 35.451703019764125 ], [ 140.348399877548189, 35.452645160498761 ] ] ] ] } },
{ "type": "Feature", "properties": { "fid": 80, "field_id": 6209472, "location": "2024散布分", "地名地番": "茂原市千町南原3837-1~3", "防除面積": 1.0, "水田面積": 108.99, "地番": "3837-1~3", "im_field_n": null, "ポリゴン計算面積": 108.99 }, "geometry": { "type": "MultiPolygon", "coordinates": [ [ [ [ 140.348965995354263, 35.456549599829934 ], [ 140.348965995354263, 35.456549599829948 ], [ 140.348341248, 35.456709222 ], [ 140.348385703, 35.457345842 ], [ 140.348435618999986, 35.457348863 ], [ 140.348437991999987, 35.457377534 ], [ 140.349021367151551, 35.457347591397301 ], [ 140.34903105006228, 35.457347094407417 ], [ 140.349031059838808, 35.457347093905625 ], [ 140.349695169, 35.457313007 ], [ 140.349694951000032, 35.457278949 ], [ 140.34972123, 35.457277045 ], [ 140.349673881, 35.456391194 ], [ 140.349602132, 35.456387068 ], [ 140.348977505419981, 35.456546659027737 ], [ 140.348966023377869, 35.456549592669951 ], [ 140.348965995354263, 35.456549599829934 ] ] ] ] } },
{ "type": "Feature", "properties": { "fid": 81, "field_id": 6208225, "location": "2025年分", "地名地番": "福島西門2257", "防除面積": 51.1, "水田面積": 51.08, "地番": "2257", "im_field_n": "福島西門2257", "ポリゴン計算面積": 51.08 }, "geometry": { "type": "MultiPolygon", "coordinates": [ [ [ [ 140.351812021, 35.460179847 ], [ 140.351881967, 35.461044073 ], [ 140.351909962, 35.461053363 ], [ 140.35191842, 35.461090972 ], [ 140.352524570000014, 35.461057444 ], [ 140.352282135, 35.460153678 ], [ 140.351812021, 35.460179847 ] ] ] ] } },
{ "type": "Feature", "properties": { "fid": 82, "field_id": 6208239, "location": "2025年分", "地名地番": "福島西門2250", "防除面積": 67.8, "水田面積": 67.84, "地番": "2250", "im_field_n": null, "ポリゴン計算面積": 67.84 }, "geometry": { "type": "MultiPolygon", "coordinates": [ [ [ [ 140.351006259, 35.459266136 ], [ 140.351083776, 35.460179117 ], [ 140.351785092, 35.460147547 ], [ 140.351817507, 35.460145843 ], [ 140.351737545, 35.459228744 ], [ 140.351704824, 35.459230434 ], [ 140.35138811600001, 35.459245385 ], [ 140.351006259, 35.459266136 ] ] ] ] } },
{ "type": "Feature", "properties": { "fid": 83, "field_id": 6208262, "location": "2025年分", "地名地番": "千沢上ノ谷1372,福島西門1041-1", "防除面積": 23.0, "水田面積": 22.95, "地番": "1372,1041-1", "im_field_n": "千沢上ノ谷1372", "ポリゴン計算面積": 22.95 }, "geometry": { "type": "MultiPolygon", "coordinates": [ [ [ [ 140.352423556, 35.462264762 ], [ 140.353014373, 35.462139532 ], [ 140.352955939, 35.461856095 ], [ 140.352174075, 35.461980465 ], [ 140.35233931, 35.462279752 ], [ 140.352423556, 35.462264762 ] ] ] ] } },
{ "type": "Feature", "properties": { "fid": 84, "field_id": 6208270, "location": "2025年分", "地名地番": "福島西門2258,2259-2", "防除面積": 64.6, "水田面積": 64.61, "地番": "2258,2259-2", "im_field_n": "福島西門2258", "ポリゴン計算面積": 64.61 }, "geometry": { "type": "MultiPolygon", "coordinates": [ [ [ [ 140.35117360000001, 35.4610821 ], [ 140.351244900000012, 35.4611181 ], [ 140.351373, 35.4611148 ], [ 140.351379400000013, 35.4610933 ], [ 140.3514419, 35.4610903 ], [ 140.351447, 35.4611145 ], [ 140.3518609, 35.4610872 ], [ 140.351882, 35.4610441 ], [ 140.351812, 35.4601798 ], [ 140.3511043, 35.4602192 ], [ 140.35117360000001, 35.4610821 ] ] ] ] } },
{ "type": "Feature", "properties": { "fid": 85, "field_id": 6208273, "location": "2025年分", "地名地番": "福島西門2251", "防除面積": 37.4, "水田面積": 37.43, "地番": "2251", "im_field_n": null, "ポリゴン計算面積": 37.43 }, "geometry": { "type": "MultiPolygon", "coordinates": [ [ [ [ 140.352283527, 35.460098585 ], [ 140.352163745000013, 35.459597724 ], [ 140.352078002000013, 35.459211162 ], [ 140.351737545, 35.459228744 ], [ 140.351817507, 35.460145843 ], [ 140.352247051, 35.460123265 ], [ 140.352283527, 35.460098585 ] ] ] ] } },
{ "type": "Feature", "properties": { "fid": 86, "field_id": 6208307, "location": "2025年分", "地名地番": "千町南原3071-1", "防除面積": 18.3, "水田面積": 18.32, "地番": "3071-1", "im_field_n": "千町南原3071-1", "ポリゴン計算面積": 18.32 }, "geometry": { "type": "MultiPolygon", "coordinates": [ [ [ [ 140.347963485, 35.457401575 ], [ 140.347906674, 35.456503553 ], [ 140.347688038, 35.456513232 ], [ 140.347749067, 35.457216306 ], [ 140.347783352, 35.457271686 ], [ 140.347806857, 35.457410402 ], [ 140.347963485, 35.457401575 ] ] ] ] } },
{ "type": "Feature", "properties": { "fid": 87, "field_id": 6208284, "location": "2025年分", "地名地番": "福島西門2261", "防除面積": 55.9, "水田面積": 55.87, "地番": "2261", "im_field_n": "福島西門2261", "ポリゴン計算面積": 55.87 }, "geometry": { "type": "MultiPolygon", "coordinates": [ [ [ [ 140.352118764000011, 35.461893369 ], [ 140.352811215, 35.461795884 ], [ 140.35284067500001, 35.461757955 ], [ 140.352556005, 35.461113837 ], [ 140.351784006, 35.461157659 ], [ 140.352118764000011, 35.461893369 ] ] ] ] } },
{ "type": "Feature", "properties": { "fid": 88, "field_id": 6208298, "location": "2025年分", "地名地番": "福島西門2247-1,2", "防除面積": 84.8, "水田面積": 84.8, "地番": "2247-1,2", "im_field_n": null, "ポリゴン計算面積": 84.8 }, "geometry": { "type": "MultiPolygon", "coordinates": [ [ [ [ 140.350822672, 35.459226813 ], [ 140.35173427, 35.45917998 ], [ 140.351658133, 35.458254847 ], [ 140.35075160400001, 35.45830763 ], [ 140.350822672, 35.459226813 ] ] ] ] } },
{ "type": "Feature", "properties": { "fid": 89, "field_id": 6208311, "location": "2025年分", "地名地番": "福島島田2295", "防除面積": 43.3, "水田面積": 43.32, "地番": "2295", "im_field_n": "福島島田2295", "ポリゴン計算面積": 43.32 }, "geometry": { "type": "MultiPolygon", "coordinates": [ [ [ [ 140.35271622, 35.458178599 ], [ 140.353190506, 35.458151248 ], [ 140.353114506999987, 35.457242856 ], [ 140.352648957000014, 35.457263815 ], [ 140.35271622, 35.458178599 ] ] ] ] } },
{ "type": "Feature", "properties": { "fid": 90, "field_id": 6208313, "location": "2025年分", "地名地番": "福島島田2296-1", "防除面積": 56.9, "水田面積": 56.93, "地番": "2296-1", "im_field_n": "福島島田2296-1", "ポリゴン計算面積": 56.93 }, "geometry": { "type": "MultiPolygon", "coordinates": [ [ [ [ 140.352104452, 35.458181798 ], [ 140.352152765, 35.458205233 ], [ 140.35271622, 35.458178599 ], [ 140.352648957000014, 35.457263815 ], [ 140.352032917, 35.457291548 ], [ 140.352092793999986, 35.458116172 ], [ 140.352104452, 35.458181798 ] ] ] ] } },
{ "type": "Feature", "properties": { "fid": 91, "field_id": 6208328, "location": "2025年分", "地名地番": "千町南原3842-1~5", "防除面積": 114.0, "水田面積": 114.04, "地番": "3842-1~5", "im_field_n": "千町南原3842-1", "ポリゴン計算面積": 114.04 }, "geometry": { "type": "MultiPolygon", "coordinates": [ [ [ [ 140.348739996, 35.457432473 ], [ 140.348812307, 35.458333749 ], [ 140.3500558, 35.458280172 ], [ 140.349981933, 35.45736614 ], [ 140.348739996, 35.457432473 ] ] ] ] } },
{ "type": "Feature", "properties": { "fid": 92, "field_id": 6208330, "location": "2025年分", "地名地番": "福島西門2246-16", "防除面積": 33.3, "水田面積": 33.29, "地番": "2246-16", "im_field_n": null, "ポリゴン計算面積": 33.29 }, "geometry": { "type": "MultiPolygon", "coordinates": [ [ [ [ 140.351658133, 35.458254847 ], [ 140.35173427, 35.45917998 ], [ 140.352082878, 35.459162068 ], [ 140.352019953, 35.458233778 ], [ 140.351658133, 35.458254847 ] ] ] ] } },
{ "type": "Feature", "properties": { "fid": 95, "field_id": 6208347, "location": "2025年分", "地名地番": "福島西門2248-1-5", "防除面積": 58.1, "水田面積": 58.09, "地番": "2248-1-5", "im_field_n": null, "ポリゴン計算面積": 58.09 }, "geometry": { "type": "MultiPolygon", "coordinates": [ [ [ [ 140.350822672, 35.459226813 ], [ 140.35075160400001, 35.45830763 ], [ 140.350125491999989, 35.458344081 ], [ 140.350185493, 35.459161245 ], [ 140.350223242999988, 35.459257266 ], [ 140.350822672, 35.459226813 ] ] ] ] } },
{ "type": "Feature", "properties": { "fid": 96, "field_id": 6208354, "location": "2025年分", "地名地番": "福島半貫2300-1", "防除面積": 60.5, "水田面積": 60.47, "地番": "2300-1", "im_field_n": "福島半貫2300-1", "ポリゴン計算面積": 60.47 }, "geometry": { "type": "MultiPolygon", "coordinates": [ [ [ [ 140.352050212, 35.45723473 ], [ 140.352705406000013, 35.457193417 ], [ 140.352643449, 35.456293635 ], [ 140.351976946, 35.456324786 ], [ 140.352050212, 35.45723473 ] ] ] ] } },
{ "type": "Feature", "properties": { "fid": 97, "field_id": 6208355, "location": "2025年分", "地名地番": "島田2294", "防除面積": 35.9, "水田面積": 35.92, "地番": "2294", "im_field_n": null, "ポリゴン計算面積": 35.92 }, "geometry": { "type": "MultiPolygon", "coordinates": [ [ [ [ 140.353190506, 35.458151248 ], [ 140.353578488000011, 35.458131812 ], [ 140.353509456000012, 35.457225073 ], [ 140.353114506999987, 35.457242856 ], [ 140.353190506, 35.458151248 ] ] ] ] } },
{ "type": "Feature", "properties": { "fid": 98, "field_id": 6208452, "location": "2025年分", "地名地番": "千町下沼3032", "防除面積": 26.1, "水田面積": 26.15, "地番": "3032", "im_field_n": "千町下沼3032", "ポリゴン計算面積": 26.15 }, "geometry": { "type": "MultiPolygon", "coordinates": [ [ [ [ 140.345302685, 35.454612541 ], [ 140.345427323, 35.453692359 ], [ 140.345135561, 35.453671244 ], [ 140.345035099, 35.454590455 ], [ 140.345302685, 35.454612541 ] ] ] ] } },
{ "type": "Feature", "properties": { "fid": 99, "field_id": 6209014, "location": "2025年分", "地名地番": "福島島田2276", "防除面積": 29.1, "水田面積": 29.08, "地番": "2276", "im_field_n": null, "ポリゴン計算面積": 29.08 }, "geometry": { "type": "MultiPolygon", "coordinates": [ [ [ [ 140.354516655, 35.460024153 ], [ 140.355136781999988, 35.459912295 ], [ 140.355379254000013, 35.459866853 ], [ 140.355512291, 35.459828402 ], [ 140.355509500000011, 35.4597238 ], [ 140.355497271, 35.459632651 ], [ 140.355490834, 35.459573226 ], [ 140.355233341, 35.459613425 ], [ 140.354478031000014, 35.459728779 ], [ 140.354516655, 35.460024153 ] ] ] ] } },
{ "type": "Feature", "properties": { "fid": 100, "field_id": 6209016, "location": "2025年分", "地名地番": "千沢広田45-1", "防除面積": 70.2, "水田面積": 70.15, "地番": "45-1", "im_field_n": "千沢広田45-1", "ポリゴン計算面積": 70.15 }, "geometry": { "type": "MultiPolygon", "coordinates": [ [ [ [ 140.3555829, 35.463397 ], [ 140.356413300000014, 35.4632071 ], [ 140.3562111, 35.462562599999984 ], [ 140.3559966, 35.4625635 ], [ 140.355231800000013, 35.462693800000011 ], [ 140.3552594, 35.462890700000031 ], [ 140.355323, 35.4630147 ], [ 140.3555829, 35.463397 ] ] ] ] } },
{ "type": "Feature", "properties": { "fid": 101, "field_id": 6209022, "location": "2025年分", "地名地番": "福島島田2268-13", "防除面積": 32.8, "水田面積": 32.78, "地番": "2268-13", "im_field_n": "福島島田2268-1", "ポリゴン計算面積": 32.78 }, "geometry": { "type": "MultiPolygon", "coordinates": [ [ [ [ 140.354534199999989, 35.4600986 ], [ 140.3545718, 35.4602384 ], [ 140.3545969, 35.4603449 ], [ 140.3546499, 35.4603546 ], [ 140.3556431, 35.4602452 ], [ 140.355546800000013, 35.4599144 ], [ 140.3555141, 35.4599012 ], [ 140.354534199999989, 35.4600986 ] ] ] ] } },
{ "type": "Feature", "properties": { "fid": 102, "field_id": 6209023, "location": "2025年分", "地名地番": "福島島田2038,2039", "防除面積": 24.8, "水田面積": 24.8, "地番": "2038,2039", "im_field_n": "福島島田2038-1", "ポリゴン計算面積": 24.8 }, "geometry": { "type": "MultiPolygon", "coordinates": [ [ [ [ 140.355584, 35.4618691 ], [ 140.355724, 35.4625449 ], [ 140.3561456, 35.4624661 ], [ 140.3561617, 35.4623985 ], [ 140.3560938, 35.4621072 ], [ 140.3558926, 35.4621351 ], [ 140.355844499999989, 35.4618383 ], [ 140.355584, 35.4618691 ] ] ] ] } },
{ "type": "Feature", "properties": { "fid": 103, "field_id": 6209025, "location": "2025年分", "地名地番": "福島島田2036,2037", "防除面積": 39.7, "水田面積": 39.65, "地番": "2036,2037", "im_field_n": "福島島田2036-1", "ポリゴン計算面積": 39.65 }, "geometry": { "type": "MultiPolygon", "coordinates": [ [ [ [ 140.3551402, 35.4626541 ], [ 140.355724, 35.4625449 ], [ 140.355584, 35.4618691 ], [ 140.3553731, 35.4619159 ], [ 140.355241400000011, 35.4619705 ], [ 140.355101499999989, 35.4620364 ], [ 140.355124600000011, 35.4621735 ], [ 140.3551342, 35.4622302 ], [ 140.3549726, 35.4622552 ], [ 140.355033100000014, 35.4624196 ], [ 140.3551402, 35.4626541 ] ] ] ] } },
{ "type": "Feature", "properties": { "fid": 104, "field_id": 6209028, "location": "2025年分", "地名地番": "福島島田2267", "防除面積": 93.9, "水田面積": 93.88, "地番": "2267", "im_field_n": "福島島田2267", "ポリゴン計算面積": 93.88 }, "geometry": { "type": "MultiPolygon", "coordinates": [ [ [ [ 140.3556431, 35.460245200000017 ], [ 140.3546499, 35.4603546 ], [ 140.354633799999988, 35.4603813 ], [ 140.3545973, 35.460401500000017 ], [ 140.3546311, 35.4606012 ], [ 140.354691800000012, 35.4611638 ], [ 140.3547204, 35.461187 ], [ 140.3558505, 35.461073 ], [ 140.3557425, 35.4605864 ], [ 140.3556431, 35.460245200000017 ] ] ] ] } },
{ "type": "Feature", "properties": { "fid": 105, "field_id": 6209055, "location": "2025年分", "地名地番": "福島島田2288", "防除面積": 37.3, "水田面積": 37.27, "地番": "2288", "im_field_n": "福島島田2288", "ポリゴン計算面積": 37.27 }, "geometry": { "type": "MultiPolygon", "coordinates": [ [ [ [ 140.354159671, 35.457570844 ], [ 140.355204554000011, 35.45746795 ], [ 140.355163388, 35.457160366 ], [ 140.354040481999988, 35.457206554 ], [ 140.354159671, 35.457570844 ] ] ] ] } },
{ "type": "Feature", "properties": { "fid": 106, "field_id": 6209060, "location": "2025年分", "地名地番": "福島島田2293", "防除面積": 49.6, "水田面積": 49.6, "地番": "2293", "im_field_n": "福島島田2293", "ポリゴン計算面積": 49.6 }, "geometry": { "type": "MultiPolygon", "coordinates": [ [ [ [ 140.353578488000011, 35.458131812 ], [ 140.354107539000012, 35.458102884 ], [ 140.354163457999988, 35.458070478 ], [ 140.354142789, 35.457852525 ], [ 140.354116105, 35.457697647 ], [ 140.354047242, 35.457474648 ], [ 140.353968442, 35.457204405 ], [ 140.353509456000012, 35.457225073 ], [ 140.353578488000011, 35.458131812 ] ] ] ] } },
{ "type": "Feature", "properties": { "fid": 107, "field_id": 6209066, "location": "2025年分", "地名地番": "福島島田2286", "防除面積": 27.8, "水田面積": 27.78, "地番": "2286", "im_field_n": "福島島田2286-1", "ポリゴン計算面積": 27.78 }, "geometry": { "type": "MultiPolygon", "coordinates": [ [ [ [ 140.3542487, 35.4581023 ], [ 140.3552793, 35.4579957 ], [ 140.3552405, 35.4577362 ], [ 140.354244200000011, 35.4578292 ], [ 140.354249900000013, 35.4578669 ], [ 140.3542119, 35.4578693 ], [ 140.3542487, 35.4581023 ] ] ] ] } },
{ "type": "Feature", "properties": { "fid": 108, "field_id": 6209070, "location": "2025年分", "地名地番": "福島島田2281", "防除面積": 52.3, "水田面積": 52.29, "地番": "2281", "im_field_n": "福島島田2281", "ポリゴン計算面積": 52.29 }, "geometry": { "type": "MultiPolygon", "coordinates": [ [ [ [ 140.354329876, 35.458673393 ], [ 140.355362652999986, 35.458572019 ], [ 140.355291311, 35.458095923 ], [ 140.355246423000011, 35.458079463 ], [ 140.354257786, 35.458176998 ], [ 140.354329876, 35.458673393 ] ] ] ] } },
{ "type": "Feature", "properties": { "fid": 109, "field_id": 6209071, "location": "2025年分", "地名地番": "福島島田2280", "防除面積": 29.0, "水田面積": 29.04, "地番": "2280", "im_field_n": "福島島田2280", "ポリゴン計算面積": 29.04 }, "geometry": { "type": "MultiPolygon", "coordinates": [ [ [ [ 140.354370087, 35.458950271 ], [ 140.355403578, 35.458845121 ], [ 140.355362652999986, 35.458572019 ], [ 140.354329876, 35.458673393 ], [ 140.354370087, 35.458950271 ] ] ] ] } },
{ "type": "Feature", "properties": { "fid": 110, "field_id": 6209073, "location": "2025年分", "地名地番": "福島島田2279", "防除面積": 26.0, "水田面積": 25.96, "地番": "2279", "im_field_n": null, "ポリゴン計算面積": 25.96 }, "geometry": { "type": "MultiPolygon", "coordinates": [ [ [ [ 140.355405808, 35.458851826 ], [ 140.354358673, 35.458953199 ], [ 140.354388714, 35.459203133 ], [ 140.355431557, 35.459089526 ], [ 140.355405808, 35.458851826 ] ] ] ] } },
{ "type": "Feature", "properties": { "fid": 111, "field_id": 6209240, "location": "2025年分", "地名地番": "南吉田蒲谷2483", "防除面積": 47.0, "水田面積": 47.02, "地番": "2483", "im_field_n": null, "ポリゴン計算面積": 47.02 }, "geometry": { "type": "MultiPolygon", "coordinates": [ [ [ [ 140.341452112000013, 35.462743646 ], [ 140.341482613000011, 35.463652454 ], [ 140.341997723, 35.463639996 ], [ 140.341963607, 35.462731114 ], [ 140.341452112000013, 35.462743646 ] ] ] ] } },
{ "type": "Feature", "properties": { "fid": 112, "field_id": 6209307, "location": "2025年分", "地名地番": "南吉田赤早稲田2450", "防除面積": 39.1, "水田面積": 39.06, "地番": "2450", "im_field_n": "南吉田赤早稲田2450", "ポリゴン計算面積": 39.06 }, "geometry": { "type": "MultiPolygon", "coordinates": [ [ [ [ 140.342456954999989, 35.462661019 ], [ 140.342425897999988, 35.461746634 ], [ 140.342298774999989, 35.461749147 ], [ 140.342003234, 35.461757892 ], [ 140.342031394, 35.462670353 ], [ 140.342456954999989, 35.462661019 ] ] ] ] } },
{ "type": "Feature", "properties": { "fid": 113, "field_id": 6209347, "location": "2025年分", "地名地番": "南吉田赤早稲田2436", "防除面積": 19.3, "水田面積": 19.3, "地番": "2436", "im_field_n": "南吉田赤早稲田2436", "ポリゴン計算面積": 19.3 }, "geometry": { "type": "MultiPolygon", "coordinates": [ [ [ [ 140.340743154, 35.461796815 ], [ 140.340773782000014, 35.462713569 ], [ 140.340981395, 35.462708037 ], [ 140.340977286, 35.462605954 ], [ 140.340944716, 35.462387711 ], [ 140.340933087, 35.462192068 ], [ 140.340942667, 35.462061566 ], [ 140.340990286, 35.461957434 ], [ 140.341062029999989, 35.461789802 ], [ 140.340743154, 35.461796815 ] ] ] ] } },
{ "type": "Feature", "properties": { "fid": 114, "field_id": 6209352, "location": "2025年分", "地名地番": "南吉田赤早稲田2449", "防除面積": 24.7, "水田面積": 24.67, "地番": "2449", "im_field_n": "南吉田赤早稲田2449", "ポリゴン計算面積": 24.67 }, "geometry": { "type": "MultiPolygon", "coordinates": [ [ [ [ 140.342031394, 35.462670353 ], [ 140.342003234, 35.461757892 ], [ 140.341943053, 35.461759672 ], [ 140.341907299000013, 35.461775619 ], [ 140.341769926000012, 35.461859687 ], [ 140.34172797, 35.461889872 ], [ 140.341744728, 35.462676639 ], [ 140.342031394, 35.462670353 ] ] ] ] } },
{ "type": "Feature", "properties": { "fid": 115, "field_id": 6208335, "location": "2025年分", "地名地番": "福島半貫2301-1~2305", "防除面積": 57.8, "水田面積": 57.8, "地番": "2301-1~2305", "im_field_n": "福島半貫2301-1", "ポリゴン計算面積": 57.8 }, "geometry": { "type": "MultiPolygon", "coordinates": [ [ [ [ 140.352705406000013, 35.457193417 ], [ 140.35334450900001, 35.457161855 ], [ 140.353331847, 35.456993728 ], [ 140.35331513, 35.456771733 ], [ 140.353304536, 35.456631054 ], [ 140.353276896000011, 35.456264027 ], [ 140.352643449, 35.456293635 ], [ 140.352705406000013, 35.457193417 ] ] ] ] } },
{ "type": "Feature", "properties": { "fid": 116, "field_id": 6209033, "location": "2025年分", "地名地番": "福島島田2264,2266", "防除面積": 70.0, "水田面積": 70.0, "地番": "2264,2266", "im_field_n": "福島島田2264", "ポリゴン計算面積": 70.0 }, "geometry": { "type": "MultiPolygon", "coordinates": [ [ [ [ 140.3558505, 35.461073 ], [ 140.3547204, 35.461187 ], [ 140.3547003, 35.4612204 ], [ 140.3547051, 35.4613403 ], [ 140.3547345, 35.4614536 ], [ 140.35478, 35.4615931 ], [ 140.3548687, 35.4617852 ], [ 140.355152299999986, 35.4617542 ], [ 140.3553633, 35.4617236 ], [ 140.3555182, 35.4616905 ], [ 140.355981500000013, 35.4616579 ], [ 140.355885, 35.4612286 ], [ 140.3558505, 35.461073 ] ] ] ] } },
{ "type": "Feature", "properties": { "fid": 117, "field_id": 6209042, "location": "2025年分", "地名地番": "福島島田2287", "防除面積": 27.7, "水田面積": 27.66, "地番": "2287", "im_field_n": "福島島田2286-2", "ポリゴン計算面積": 27.66 }, "geometry": { "type": "MultiPolygon", "coordinates": [ [ [ [ 140.354244200000011, 35.4578292 ], [ 140.3552405, 35.4577362 ], [ 140.3552046, 35.457468 ], [ 140.3541597, 35.4575708 ], [ 140.354244200000011, 35.4578292 ] ] ] ] } },
{ "type": "Feature", "properties": { "fid": 118, "field_id": 6209074, "location": "2025年分", "地名地番": "福島島田2278", "防除面積": 23.7, "水田面積": 23.67, "地番": "2278", "im_field_n": null, "ポリゴン計算面積": 23.67 }, "geometry": { "type": "MultiPolygon", "coordinates": [ [ [ [ 140.3554316, 35.459093 ], [ 140.3543866, 35.4592014 ], [ 140.35443380000001, 35.4594251 ], [ 140.355465900000013, 35.4593132 ], [ 140.3554316, 35.459093 ] ] ] ] } },
{ "type": "Feature", "properties": { "fid": 119, "field_id": 6209075, "location": "2025年分", "地名地番": "福島島田2277", "防除面積": 29.5, "水田面積": 29.54, "地番": "2277", "im_field_n": null, "ポリゴン計算面積": 29.54 }, "geometry": { "type": "MultiPolygon", "coordinates": [ [ [ [ 140.355465084, 35.459312806 ], [ 140.3544295, 35.4594251 ], [ 140.35447374, 35.459730526 ], [ 140.355486542, 35.459571478 ], [ 140.355465084, 35.459312806 ] ] ] ] } },
{ "type": "Feature", "properties": { "fid": 123, "field_id": 6209473, "location": "2025年分", "地名地番": "道路分", "防除面積": 1.0, "水田面積": 28.93, "地番": "道路分", "im_field_n": null, "ポリゴン計算面積": 28.93 }, "geometry": { "type": "MultiPolygon", "coordinates": [ [ [ [ 140.348339, 35.4567057 ], [ 140.3496328, 35.4563731 ], [ 140.3496213, 35.456153 ], [ 140.3483218, 35.4564902 ], [ 140.348339, 35.4567057 ] ] ] ] } },
{ "type": "Feature", "properties": { "fid": 124, "field_id": 6209474, "location": "2025年分", "地名地番": "鍋島2000m2 か", "防除面積": 1.0, "水田面積": 24.66, "地番": "2000m2 ", "im_field_n": null, "ポリゴン計算面積": 24.66 }, "geometry": { "type": "MultiPolygon", "coordinates": [ [ [ [ 140.3448445, 35.4561547 ], [ 140.3452744, 35.4561946 ], [ 140.345338700000013, 35.4556347 ], [ 140.3448985, 35.4555991 ], [ 140.3448445, 35.4561547 ] ] ] ] } },
{ "type": "Feature", "properties": { "fid": 127, "field_id": 6209477, "location": "2025年分", "地名地番": "南吉田古屋敷1866,1867", "防除面積": 1.0, "水田面積": 44.47, "地番": "1866,1867", "im_field_n": null, "ポリゴン計算面積": 44.47 }, "geometry": { "type": "MultiPolygon", "coordinates": [ [ [ [ 140.3451155, 35.4645181 ], [ 140.3456061, 35.4645133 ], [ 140.3455711, 35.4636071 ], [ 140.3450863, 35.4636142 ], [ 140.3451155, 35.4645181 ] ] ] ] } },
{ "type": "Feature", "properties": { "fid": 128, "field_id": 6209478, "location": "2025年分", "地名地番": "南吉田南台1969", "防除面積": 1.0, "水田面積": 20.98, "地番": "1969", "im_field_n": null, "ポリゴン計算面積": 20.98 }, "geometry": { "type": "MultiPolygon", "coordinates": [ [ [ [ 140.3410538, 35.4607767 ], [ 140.341271400000011, 35.4607725 ], [ 140.3412433, 35.4598381 ], [ 140.3410154, 35.4598423 ], [ 140.3410538, 35.4607767 ] ] ] ] } },
{ "type": "Feature", "properties": { "fid": 130, "field_id": null, "location": null, "地名地番": "福島大谷1827-1", "防除面積": null, "水田面積": null, "地番": "1827-1", "im_field_n": null, "ポリゴン計算面積": 37.17 }, "geometry": { "type": "MultiPolygon", "coordinates": [ [ [ [ 140.345449300000013, 35.450741 ], [ 140.345828072168928, 35.450775326440613 ], [ 140.345961432101575, 35.449864908632833 ], [ 140.3455392, 35.4498285 ], [ 140.345449300000013, 35.450741 ] ] ] ] } },
{ "type": "Feature", "properties": { "fid": 131, "field_id": null, "location": null, "地名地番": "福島井堰1862", "防除面積": null, "水田面積": null, "地番": "1862", "im_field_n": null, "ポリゴン計算面積": 5.44 }, "geometry": { "type": "MultiPolygon", "coordinates": [ [ [ [ 140.350560774659812, 35.451549234081149 ], [ 140.350521, 35.4514614 ], [ 140.351152, 35.4514324 ], [ 140.351177170568889, 35.45151458150022 ], [ 140.350560774659812, 35.451549234081149 ] ] ] ] } },
{ "type": "Feature", "properties": { "fid": 132, "field_id": null, "location": null, "地名地番": "福島井堰1898", "防除面積": null, "水田面積": null, "地番": "1898", "im_field_n": null, "ポリゴン計算面積": 12.7 }, "geometry": { "type": "MultiPolygon", "coordinates": [ [ [ [ 140.350614328648533, 35.451789701991153 ], [ 140.350585976536848, 35.45158703689669 ], [ 140.351193971820237, 35.451557634706816 ], [ 140.351234924870425, 35.451762399957701 ], [ 140.350614328648533, 35.451789701991153 ] ] ] ] } }
]
}
