{
"type": "FeatureCollection",
"name": "けいよう【千葉市】",
"crs": { "type": "name", "properties": { "name": "urn:ogc:def:crs:OGC:1.3:CRS84" } },
"features": [
{ "type": "Feature", "properties": { "fid": 1, "location": "2025年分", "field_no": "落井町212", "farmer_cd": "c1", "farmer": "高澤義信", "area": 37.72, "calc_area": 37.72, "im_field_n": "千葉県千葉市緑区落井町212", "地番": "212" }, "geometry": { "type": "MultiPolygon", "coordinates": [ [ [ [ 140.159312631003672, 35.544174384174333 ], [ 140.159409976774214, 35.543903154858583 ], [ 140.158626115429314, 35.543783503397776 ], [ 140.158479118213137, 35.544446185382711 ], [ 140.159039878944526, 35.544521524414264 ], [ 140.158868994571719, 35.544419984822802 ], [ 140.15885493339448, 35.544365569956319 ], [ 140.159076377119703, 35.54410511095714 ], [ 140.159113492399996, 35.544086802664822 ], [ 140.15919730419526, 35.544101295875478 ], [ 140.159295598575738, 35.544170707484135 ], [ 140.159312631003672, 35.544174384174333 ] ] ] ] } },
{ "type": "Feature", "properties": { "fid": 2, "location": "2025年分", "field_no": "落井町217", "farmer_cd": "c1", "farmer": "高澤義信", "area": 17.05, "calc_area": 17.05, "im_field_n": "千葉県千葉市緑区落井町217", "地番": "217" }, "geometry": { "type": "MultiPolygon", "coordinates": [ [ [ [ 140.160058168195775, 35.543969581377368 ], [ 140.160060043794516, 35.543855550761585 ], [ 140.159489614877174, 35.543823887795718 ], [ 140.159362649912424, 35.54421599221336 ], [ 140.159389496579337, 35.544273797724955 ], [ 140.159414858159806, 35.544256251243688 ], [ 140.159455385064234, 35.544230686465184 ], [ 140.159561913911261, 35.544170996882364 ], [ 140.159645490313693, 35.544135508475385 ], [ 140.159784734774661, 35.544082319307876 ], [ 140.159887684151983, 35.544042992459033 ], [ 140.15995513331552, 35.544017697132553 ], [ 140.160038118414491, 35.543986058980082 ], [ 140.160058168195775, 35.543969581377368 ] ] ] ] } },
{ "type": "Feature", "properties": { "fid": 3, "location": "2025年分", "field_no": "富岡町389", "farmer_cd": "c1", "farmer": "高澤義信", "area": 30.93, "calc_area": 30.93, "im_field_n": "千葉県千葉市緑区富岡町389", "地番": "389" }, "geometry": { "type": "MultiPolygon", "coordinates": [ [ [ [ 140.162336381363986, 35.543658069359175 ], [ 140.16233777438498, 35.543637297588504 ], [ 140.162315768338601, 35.543601311134495 ], [ 140.162259079227027, 35.543506504588329 ], [ 140.16205277525728, 35.543168767327543 ], [ 140.161916757178744, 35.542949587018498 ], [ 140.161594691920612, 35.543129678036301 ], [ 140.162029872390775, 35.543840002980744 ], [ 140.162053223839138, 35.543843544879593 ], [ 140.16223783420881, 35.543713611266547 ], [ 140.162336381363986, 35.543658069359175 ] ] ] ] } },
{ "type": "Feature", "properties": { "fid": 4, "location": "2025年分", "field_no": "富岡町399", "farmer_cd": "c1", "farmer": "高澤義信", "area": 10.12, "calc_area": 10.12, "im_field_n": "千葉県千葉市緑区富岡町399", "地番": "399" }, "geometry": { "type": "MultiPolygon", "coordinates": [ [ [ [ 140.163586409148962, 35.542967083048332 ], [ 140.163544195267519, 35.542898107282795 ], [ 140.163100254244085, 35.54308059114036 ], [ 140.163230568355317, 35.543290339162546 ], [ 140.1632466330868, 35.543313560028501 ], [ 140.163273574075475, 35.543323780167441 ], [ 140.163395652585962, 35.543291780351524 ], [ 140.163408848030741, 35.543279557474122 ], [ 140.163414487835524, 35.54322134845232 ], [ 140.163421481760849, 35.543184083971759 ], [ 140.163432085146326, 35.543155643209239 ], [ 140.163586409148962, 35.542967083048332 ] ] ] ] } },
{ "type": "Feature", "properties": { "fid": 5, "location": "2025年分", "field_no": "富岡町424", "farmer_cd": "c1", "farmer": "高澤義信", "area": 7.26, "calc_area": 7.26, "im_field_n": "千葉県千葉市緑区富岡町424", "地番": "424" }, "geometry": { "type": "MultiPolygon", "coordinates": [ [ [ [ 140.164795650499173, 35.541463153100139 ], [ 140.164652758186264, 35.541236179688426 ], [ 140.164393087589815, 35.541336865751148 ], [ 140.164547661293142, 35.541561824332454 ], [ 140.164795650499173, 35.541463153100139 ] ] ] ] } },
{ "type": "Feature", "properties": { "fid": 6, "location": "2025年分", "field_no": "富岡町400", "farmer_cd": "c3", "farmer": "古澤　努", "area": 12.59, "calc_area": 12.59, "im_field_n": "千葉県千葉市緑区富岡町400", "地番": "400" }, "geometry": { "type": "MultiPolygon", "coordinates": [ [ [ [ 140.163544195267519, 35.542898107282795 ], [ 140.163404147052717, 35.542673278971677 ], [ 140.163059662884024, 35.542815153323374 ], [ 140.162961472424911, 35.542855073801825 ], [ 140.163100254244085, 35.54308059114036 ], [ 140.163544195267519, 35.542898107282795 ] ] ] ] } },
{ "type": "Feature", "properties": { "fid": 7, "location": "2025年分", "field_no": "落井町266", "farmer_cd": "c2", "farmer": "高沢利明", "area": 22.33, "calc_area": 22.33, "im_field_n": "千葉県千葉市緑区落井町266", "地番": "266" }, "geometry": { "type": "MultiPolygon", "coordinates": [ [ [ [ 140.158681633937078, 35.542248722875392 ], [ 140.158735739766769, 35.542002867556675 ], [ 140.157905140043198, 35.541884013468213 ], [ 140.157804155465811, 35.542136899198745 ], [ 140.158681633937078, 35.542248722875392 ] ] ] ] } },
{ "type": "Feature", "properties": { "fid": 8, "location": "2025年分", "field_no": "富岡町431", "farmer_cd": "c1", "farmer": "高澤義信", "area": 3.49, "calc_area": 3.49, "im_field_n": "千葉県千葉市緑区富岡町431", "地番": "431" }, "geometry": { "type": "MultiPolygon", "coordinates": [ [ [ [ 140.16631467459618, 35.54136777499194 ], [ 140.166308080620212, 35.541298656752879 ], [ 140.166302080356218, 35.541245103841298 ], [ 140.166291430069208, 35.541245881398702 ], [ 140.166104675350084, 35.541264902369036 ], [ 140.166050307095588, 35.54127609438229 ], [ 140.166032979186326, 35.541294260083639 ], [ 140.166024351318981, 35.541306741065938 ], [ 140.166018138841054, 35.541329941899484 ], [ 140.166014833544921, 35.541357434332639 ], [ 140.166014983406143, 35.541393723792979 ], [ 140.16631467459618, 35.54136777499194 ] ] ] ] } },
{ "type": "Feature", "properties": { "fid": 9, "location": "2025年分", "field_no": "中西町403", "farmer_cd": "c2", "farmer": "高沢利明", "area": 12.36, "calc_area": 12.36, "im_field_n": "千葉県千葉市緑区中西町403", "地番": "403" }, "geometry": { "type": "MultiPolygon", "coordinates": [ [ [ [ 140.158668703161794, 35.537260610211717 ], [ 140.158068180529796, 35.5370342675009 ], [ 140.157944214721482, 35.537083231152778 ], [ 140.157979018452352, 35.537192629154283 ], [ 140.15858201240016, 35.537419001691362 ], [ 140.158668703161794, 35.537260610211717 ] ] ] ] } },
{ "type": "Feature", "properties": { "fid": 13, "location": "2026年追加分", "field_no": "椎名崎町1267-1・2", "farmer_cd": null, "farmer": "山田正行", "area": 1195.0, "calc_area": 1195.0, "im_field_n": "千葉県千葉市緑区椎名崎町1267-1", "地番": "1267-1・2" }, "geometry": { "type": "MultiPolygon", "coordinates": [ [ [ [ 140.1536709185375, 35.551014897232356 ], [ 140.153596310639955, 35.551006009435248 ], [ 140.153497674355322, 35.550995743175157 ], [ 140.153600525888976, 35.55031865474821 ], [ 140.153701443658605, 35.550328707546903 ], [ 140.153772757554577, 35.550335954497235 ], [ 140.1536709185375, 35.551014897232356 ] ] ] ] } },
{ "type": "Feature", "properties": { "fid": 14, "location": "2026年追加分", "field_no": "椎名崎町1247-1～5", "farmer_cd": null, "farmer": "山田正行", "area": 3328.0, "calc_area": 3328.0, "im_field_n": "千葉県千葉市緑区椎名崎町1247-1,千葉県千葉市緑区椎名崎町1247-2,千葉県千葉市緑区椎名崎町1247-4", "地番": "1247-1～5" }, "geometry": { "type": "MultiPolygon", "coordinates": [ [ [ [ 140.154316685142049, 35.549834328244273 ], [ 140.15428627493597, 35.549814587692296 ], [ 140.154256099995052, 35.549792989649362 ], [ 140.154117640598514, 35.549683920683314 ], [ 140.154091189623642, 35.549835748549484 ], [ 140.154080217799731, 35.549902885989852 ], [ 140.154062469307263, 35.550018761414755 ], [ 140.154019331367209, 35.55028721901639 ], [ 140.154041509865579, 35.550308811343029 ], [ 140.15417220837071, 35.550324517357382 ], [ 140.154683642201292, 35.550376265186287 ], [ 140.154713824607484, 35.550208941435216 ], [ 140.154740475158036, 35.550046584714089 ], [ 140.154759970102958, 35.549926368866167 ], [ 140.15460443382176, 35.549910783748103 ], [ 140.154411690752511, 35.549891475625877 ], [ 140.154396651951089, 35.549884593017765 ], [ 140.154347362515097, 35.549854681020321 ], [ 140.154316685142049, 35.549834328244273 ] ] ] ] } }
]
}
