{
"type": "FeatureCollection",
"name": "久寺家",
"crs": { "type": "name", "properties": { "name": "urn:ogc:def:crs:OGC:1.3:CRS84" } },
"features": [
{ "type": "Feature", "properties": { "fid": 78, "氏名": "中谷 富士男", "明細/圃場地番": "北新田1436", "地番": "1436", "layer": "久寺家", "面積": 41.21, "ｗｋｔ": "1c3442a3a0472687b513cc06cf348508", "計算面積": 41 }, "geometry": { "type": "MultiPolygon", "coordinates": [ [ [ [ 140.0259405, 35.8911746 ], [ 140.024893100000014, 35.8917683 ], [ 140.025129600000014, 35.8920356 ], [ 140.0261672, 35.89143 ], [ 140.0259405, 35.8911746 ] ] ] ] } },
{ "type": "Feature", "properties": { "fid": 79, "氏名": "中谷 富士男", "明細/圃場地番": "北新田1437", "地番": "1437", "layer": "久寺家", "面積": 30.81, "ｗｋｔ": "ce2fe1c89003dd1c36d1a081d5f7732c", "計算面積": 31 }, "geometry": { "type": "MultiPolygon", "coordinates": [ [ [ [ 140.025129600000014, 35.8920356 ], [ 140.0253011, 35.8922293 ], [ 140.026342, 35.891627 ], [ 140.0261672, 35.89143 ], [ 140.025129600000014, 35.8920356 ] ] ] ] } },
{ "type": "Feature", "properties": { "fid": 80, "氏名": "中谷 富士男", "明細/圃場地番": "北新田1438", "地番": "1438", "layer": "久寺家", "面積": 31.04, "ｗｋｔ": "57be509f0a2183f752ac5fb41d99ea06", "計算面積": 31 }, "geometry": { "type": "MultiPolygon", "coordinates": [ [ [ [ 140.0253011, 35.8922293 ], [ 140.0254746, 35.8924255 ], [ 140.0265172, 35.8918243 ], [ 140.026342, 35.891627 ], [ 140.0253011, 35.8922293 ] ] ] ] } },
{ "type": "Feature", "properties": { "fid": 83, "氏名": "小川 成義", "明細/圃場地番": "北新田891", "地番": "891", "layer": "久寺家", "面積": 33.95, "ｗｋｔ": "9313ccb347d4bf336e770e3e24904292", "計算面積": 34 }, "geometry": { "type": "MultiPolygon", "coordinates": [ [ [ [ 140.030142399999988, 35.8829427 ], [ 140.029954300000014, 35.882724 ], [ 140.0288735, 35.8833194 ], [ 140.029057099999989, 35.8835244 ], [ 140.030142399999988, 35.8829427 ] ] ] ] } },
{ "type": "Feature", "properties": { "fid": 84, "氏名": "小川 成義", "明細/圃場地番": "北新田892", "地番": "892", "layer": "久寺家", "面積": 32.0, "ｗｋｔ": "568b224ebbcae7a152596398deb820b8", "計算面積": 32 }, "geometry": { "type": "MultiPolygon", "coordinates": [ [ [ [ 140.029954300000014, 35.882724 ], [ 140.0297713, 35.882511 ], [ 140.028708099999989, 35.8831346 ], [ 140.0288735, 35.8833194 ], [ 140.029954300000014, 35.882724 ] ] ] ] } },
{ "type": "Feature", "properties": { "fid": 85, "氏名": "小川 成義", "明細/圃場地番": "北新田953", "地番": "953", "layer": "久寺家", "面積": 29.66, "ｗｋｔ": "a31759ca56790006e9060f55c8aef622", "計算面積": 30 }, "geometry": { "type": "MultiPolygon", "coordinates": [ [ [ [ 140.0316489, 35.8865145 ], [ 140.0314698, 35.8863199 ], [ 140.030431599999986, 35.8869004 ], [ 140.0305904, 35.8870851 ], [ 140.0316489, 35.8865145 ] ] ] ] } },
{ "type": "Feature", "properties": { "fid": 86, "氏名": "小川 成義", "明細/圃場地番": "北新田954", "地番": "954", "layer": "久寺家", "面積": 29.56, "ｗｋｔ": "324cc3f92f63bc741bf72ede7065af8c", "計算面積": 30 }, "geometry": { "type": "MultiPolygon", "coordinates": [ [ [ [ 140.030598, 35.8870885 ], [ 140.0307766, 35.8872962 ], [ 140.031795499999987, 35.8866821 ], [ 140.031643300000013, 35.8865093 ], [ 140.030598, 35.8870885 ] ] ] ] } },
{ "type": "Feature", "properties": { "fid": 87, "氏名": "小川 成義", "明細/圃場地番": "北新田1003", "地番": "1003", "layer": "久寺家", "面積": 29.59, "ｗｋｔ": "869ac11ecb8d589e1258b29578537913", "計算面積": 30 }, "geometry": { "type": "MultiPolygon", "coordinates": [ [ [ [ 140.0372188, 35.8928628 ], [ 140.0370601, 35.8926853 ], [ 140.0360059, 35.8932792 ], [ 140.0361872, 35.893472 ], [ 140.0372188, 35.8928628 ] ] ] ] } },
{ "type": "Feature", "properties": { "fid": 88, "氏名": "小川 成義", "明細/圃場地番": "北新田874", "地番": "874", "layer": "久寺家", "面積": 34.48, "ｗｋｔ": "1d1f4c40d62386241a18365e06215c39", "計算面積": 34 }, "geometry": { "type": "MultiPolygon", "coordinates": [ [ [ [ 140.031825700000013, 35.8848703 ], [ 140.030778, 35.8854699 ], [ 140.0309724, 35.8856949 ], [ 140.0320126, 35.8850834 ], [ 140.031825700000013, 35.8848703 ] ] ] ] } },
{ "type": "Feature", "properties": { "fid": 89, "氏名": "小川 成義", "明細/圃場地番": "北新田730", "地番": "730", "layer": "久寺家", "面積": 31.9, "ｗｋｔ": "eef2258bae460368e50fc52964f7ca07", "計算面積": 32 }, "geometry": { "type": "MultiPolygon", "coordinates": [ [ [ [ 140.0312183, 35.8804777 ], [ 140.0310422, 35.8802766 ], [ 140.0299987, 35.8808768 ], [ 140.03017890000001, 35.8810812 ], [ 140.0312183, 35.8804777 ] ] ] ] } },
{ "type": "Feature", "properties": { "fid": 90, "氏名": "小川 成義", "明細/圃場地番": "北新田731", "地番": "731", "layer": "久寺家", "面積": 27.76, "ｗｋｔ": "0fee85fc0f7bb21679c594371296394a", "計算面積": 28 }, "geometry": { "type": "MultiPolygon", "coordinates": [ [ [ [ 140.029845099999989, 35.8807026 ], [ 140.0299987, 35.8808768 ], [ 140.0310422, 35.8802766 ], [ 140.0308861, 35.8800981 ], [ 140.029845099999989, 35.8807026 ] ] ] ] } },
{ "type": "Feature", "properties": { "fid": 91, "氏名": "小川 成義", "明細/圃場地番": "北新田1393", "地番": "1393", "layer": "久寺家", "面積": 21.54, "ｗｋｔ": "c926263ef87557cb37cacf87f4a85fe8", "計算面積": 22 }, "geometry": { "type": "MultiPolygon", "coordinates": [ [ [ [ 140.0236184, 35.8884554 ], [ 140.0237382, 35.8885929 ], [ 140.0247747, 35.887985 ], [ 140.0246536, 35.8878486 ], [ 140.0236184, 35.8884554 ] ] ] ] } },
{ "type": "Feature", "properties": { "fid": 92, "氏名": "小川 成義", "明細/圃場地番": "北新田1394", "地番": "1394", "layer": "久寺家", "面積": 30.5, "ｗｋｔ": "ab66d43005d9784add2a8a1b46a23f29", "計算面積": 31 }, "geometry": { "type": "MultiPolygon", "coordinates": [ [ [ [ 140.0236184, 35.8884554 ], [ 140.0246536, 35.8878486 ], [ 140.024481400000013, 35.8876547 ], [ 140.023448800000011, 35.8882608 ], [ 140.0236184, 35.8884554 ] ] ] ] } },
{ "type": "Feature", "properties": { "fid": 93, "氏名": "小川 成義", "明細/圃場地番": "北新田1395", "地番": "1395", "layer": "久寺家", "面積": 31.0, "ｗｋｔ": "d6edae53e3e6d4d17498d245a5370978", "計算面積": 31 }, "geometry": { "type": "MultiPolygon", "coordinates": [ [ [ [ 140.023448800000011, 35.8882608 ], [ 140.024481400000013, 35.8876547 ], [ 140.0243075, 35.8874589 ], [ 140.0232747, 35.888061 ], [ 140.023448800000011, 35.8882608 ] ] ] ] } },
{ "type": "Feature", "properties": { "fid": 94, "氏名": "小川 成義", "明細/圃場地番": "北新田1441", "地番": "1441", "layer": "久寺家", "面積": 10.93, "ｗｋｔ": "23be2a9a8c34f54b675baec0e0f44271", "計算面積": 11 }, "geometry": { "type": "MultiPolygon", "coordinates": [ [ [ [ 140.0255848, 35.8925546 ], [ 140.0256464, 35.8926268 ], [ 140.0266861, 35.8920156 ], [ 140.0266269, 35.8919487 ], [ 140.0255848, 35.8925546 ] ] ] ] } },
{ "type": "Feature", "properties": { "fid": 95, "氏名": "大島 行夫", "明細/圃場地番": "北新田933", "地番": "933", "layer": "久寺家", "面積": 6.36, "ｗｋｔ": "5bb6b57e5241733c418cd36a859faad1", "計算面積": 6 }, "geometry": { "type": "MultiPolygon", "coordinates": [ [ [ [ 140.028331900000012, 35.8827454 ], [ 140.0281697, 35.8828394 ], [ 140.028380700000014, 35.8830959 ], [ 140.0285539, 35.8829969 ], [ 140.028331900000012, 35.8827454 ] ] ] ] } },
{ "type": "Feature", "properties": { "fid": 96, "氏名": "大島 行夫", "明細/圃場地番": "北新田934", "地番": "934", "layer": "久寺家", "面積": 29.07, "ｗｋｔ": "f7bfa85f309d111a8ef88f26670ef454", "計算面積": 29 }, "geometry": { "type": "MultiPolygon", "coordinates": [ [ [ [ 140.0277034, 35.883483 ], [ 140.028380700000014, 35.8830959 ], [ 140.0281697, 35.8828394 ], [ 140.0273138, 35.8833354 ], [ 140.0273381, 35.8833582 ], [ 140.0277034, 35.883483 ] ] ] ] } },
{ "type": "Feature", "properties": { "fid": 97, "氏名": "大島 行夫", "明細/圃場地番": "北新田970", "地番": "970", "layer": "久寺家", "面積": 17.71, "ｗｋｔ": "031c87baf265d344042f629f65a774cd", "計算面積": 18 }, "geometry": { "type": "MultiPolygon", "coordinates": [ [ [ [ 140.0329405, 35.8897848 ], [ 140.033040699999987, 35.8898995 ], [ 140.034094900000014, 35.8892898 ], [ 140.0340021, 35.889181 ], [ 140.0329405, 35.8897848 ] ] ] ] } },
{ "type": "Feature", "properties": { "fid": 98, "氏名": "大島 行夫", "明細/圃場地番": "北新田1037", "地番": "1037", "layer": "久寺家", "面積": 31.09, "ｗｋｔ": "e502bbe79064add5aeebe8c61acfab3f", "計算面積": 31 }, "geometry": { "type": "MultiPolygon", "coordinates": [ [ [ [ 140.0322563, 35.8890938 ], [ 140.0322333, 35.8890331 ], [ 140.032097, 35.8888886 ], [ 140.031047300000012, 35.8895027 ], [ 140.0312219, 35.8896939 ], [ 140.0322563, 35.8890938 ] ] ] ] } },
{ "type": "Feature", "properties": { "fid": 99, "氏名": "大島 行夫", "明細/圃場地番": "北新田1038", "地番": "1038", "layer": "久寺家", "面積": 20.42, "ｗｋｔ": "832ce3e68c76b3a7bca1f3afceede31c", "計算面積": 20 }, "geometry": { "type": "MultiPolygon", "coordinates": [ [ [ [ 140.0321028, 35.8888901 ], [ 140.0319857, 35.8887657 ], [ 140.0309398, 35.8893767 ], [ 140.031051100000013, 35.8895073 ], [ 140.0321028, 35.8888901 ] ] ] ] } },
{ "type": "Feature", "properties": { "fid": 100, "氏名": "大島 行夫", "明細/圃場地番": "北新田1392", "地番": "1392", "layer": "久寺家", "面積": 11.89, "ｗｋｔ": "443875a730eff10c0574161d7512f643", "計算面積": 12 }, "geometry": { "type": "MultiPolygon", "coordinates": [ [ [ [ 140.0238047, 35.8886693 ], [ 140.0248023, 35.8880829 ], [ 140.0248272, 35.8880625 ], [ 140.0248209, 35.888037 ], [ 140.0247747, 35.887985 ], [ 140.0237382, 35.8885929 ], [ 140.0238047, 35.8886693 ] ] ] ] } },
{ "type": "Feature", "properties": { "fid": 101, "氏名": "大島 行夫", "明細/圃場地番": "北新田1472", "地番": "1472", "layer": "久寺家", "面積": 20.57, "ｗｋｔ": "08f7c5b74054e1cf8eb996214dae122e", "計算面積": 21 }, "geometry": { "type": "MultiPolygon", "coordinates": [ [ [ [ 140.0294992, 35.8969957 ], [ 140.0305593, 35.8963867 ], [ 140.030440700000014, 35.896259 ], [ 140.029388, 35.896867 ], [ 140.0294992, 35.8969957 ] ] ] ] } },
{ "type": "Feature", "properties": { "fid": 102, "氏名": "大島 行夫", "明細/圃場地番": "北新田1473", "地番": "1473", "layer": "久寺家", "面積": 35.69, "ｗｋｔ": "9b469e554441dc28e03be7d0df65db72", "計算面積": 36 }, "geometry": { "type": "MultiPolygon", "coordinates": [ [ [ [ 140.0296979, 35.8972225 ], [ 140.0307503, 35.8966089 ], [ 140.0305593, 35.8963867 ], [ 140.0294992, 35.8969957 ], [ 140.0296979, 35.8972225 ] ] ] ] } },
{ "type": "Feature", "properties": { "fid": 103, "氏名": "石山 新一", "明細/圃場地番": "北新田1435", "地番": "1435", "layer": "久寺家", "面積": 20.72, "ｗｋｔ": "c0140ae97e1f35aca7ace5633001e7e8", "計算面積": 21 }, "geometry": { "type": "MultiPolygon", "coordinates": [ [ [ [ 140.0259405, 35.8911746 ], [ 140.0258225, 35.8910408 ], [ 140.0247795, 35.8916383 ], [ 140.024893100000014, 35.8917683 ], [ 140.0259405, 35.8911746 ] ] ] ] } },
{ "type": "Feature", "properties": { "fid": 104, "氏名": "鈴木 孝太郎", "明細/圃場地番": "北新田1507", "地番": "1507", "layer": "久寺家", "面積": 35.0, "ｗｋｔ": "43a56cf18434b4ef50c9b214c0b703da", "計算面積": 35 }, "geometry": { "type": "MultiPolygon", "coordinates": [ [ [ [ 140.026148799999987, 35.8932634 ], [ 140.0251135, 35.8938724 ], [ 140.0252979, 35.8940939 ], [ 140.026346499999988, 35.8934902 ], [ 140.026148799999987, 35.8932634 ] ] ] ] } },
{ "type": "Feature", "properties": { "fid": 105, "氏名": "鈴木 孝太郎", "明細/圃場地番": "北新田1533", "地番": "1533", "layer": "久寺家", "面積": 20.7, "ｗｋｔ": "aad97ce1bcb81e47fd64317e5d86e0ec", "計算面積": 21 }, "geometry": { "type": "MultiPolygon", "coordinates": [ [ [ [ 140.0220904, 35.8904312 ], [ 140.0231315, 35.8898265 ], [ 140.0230349, 35.8897146 ], [ 140.023009, 35.8897277 ], [ 140.0229928, 35.8897086 ], [ 140.021975, 35.8902984 ], [ 140.0220904, 35.8904312 ] ] ] ] } },
{ "type": "Feature", "properties": { "fid": 106, "氏名": "鈴木 孝太郎", "明細/圃場地番": "北新田1534", "地番": "1534", "layer": "久寺家", "面積": 38.9, "ｗｋｔ": "34e05d0e735661b7bb2659342182e76c", "計算面積": 39 }, "geometry": { "type": "MultiPolygon", "coordinates": [ [ [ [ 140.0229928, 35.8897086 ], [ 140.0229793, 35.8896926 ], [ 140.0230003, 35.8896815 ], [ 140.0227974, 35.8894448 ], [ 140.0217604, 35.8900517 ], [ 140.021975, 35.8902984 ], [ 140.0229928, 35.8897086 ] ] ] ] } },
{ "type": "Feature", "properties": { "fid": 107, "氏名": "日暮 正昭", "明細/圃場地番": "北新田1272", "地番": "1272", "layer": "久寺家", "面積": 32.54, "ｗｋｔ": "539eb7bffd4fd4d3019042efaf74fa17", "計算面積": 33 }, "geometry": { "type": "MultiPolygon", "coordinates": [ [ [ [ 140.0233471, 35.8844473 ], [ 140.0235294, 35.8846537 ], [ 140.0245713, 35.8840499 ], [ 140.0243903, 35.8838435 ], [ 140.023625900000013, 35.884286 ], [ 140.0233471, 35.8844473 ] ] ] ] } },
{ "type": "Feature", "properties": { "fid": 110, "氏名": "日暮 正昭", "明細/圃場地番": "北新田950", "地番": "950", "layer": "久寺家", "面積": 30.9, "ｗｋｔ": "1b0df7fc90d08ea4a8d6ff058e199501", "計算面積": 31 }, "geometry": { "type": "MultiPolygon", "coordinates": [ [ [ [ 140.0312889, 35.8861028 ], [ 140.0311099, 35.8858975 ], [ 140.030081, 35.8865034 ], [ 140.0302491, 35.8866936 ], [ 140.0312889, 35.8861028 ] ] ] ] } },
{ "type": "Feature", "properties": { "fid": 111, "氏名": "飯田 等", "明細/圃場地番": "北新田1263", "地番": "1263", "layer": "久寺家", "面積": 41.33, "ｗｋｔ": "b706d19a9f0e4f1ff7297395ef8b71a3", "計算面積": 41 }, "geometry": { "type": "MultiPolygon", "coordinates": [ [ [ [ 140.024389, 35.8856353 ], [ 140.0246146, 35.8858964 ], [ 140.02564240000001, 35.8852942 ], [ 140.0256402, 35.8852501 ], [ 140.0254416, 35.8850196 ], [ 140.024389, 35.8856353 ] ] ] ] } },
{ "type": "Feature", "properties": { "fid": 112, "氏名": "飯田 等", "明細/圃場地番": "北新田1264", "地番": "1264", "layer": "久寺家", "面積": 31.03, "ｗｋｔ": "ea726bf1c23525ab691897d441b44ce3", "計算面積": 31 }, "geometry": { "type": "MultiPolygon", "coordinates": [ [ [ [ 140.0242177, 35.885437 ], [ 140.024389, 35.8856353 ], [ 140.0254416, 35.8850196 ], [ 140.025361, 35.884926 ], [ 140.0252724, 35.8848283 ], [ 140.0242177, 35.885437 ] ] ] ] } },
{ "type": "Feature", "properties": { "fid": 113, "氏名": "飯田 等", "明細/圃場地番": "北新田1390", "地番": "1390", "layer": "久寺家", "面積": 37.84, "ｗｋｔ": "6bdb579aca8cf9b79f28e75db5c7d900", "計算面積": 38 }, "geometry": { "type": "MultiPolygon", "coordinates": [ [ [ [ 140.0241331, 35.8890538 ], [ 140.0251659, 35.8884586 ], [ 140.0249478, 35.8882113 ], [ 140.0239239, 35.8888158 ], [ 140.0241331, 35.8890538 ] ] ] ] } },
{ "type": "Feature", "properties": { "fid": 116, "氏名": "鈴木 孝夫", "明細/圃場地番": "北新田1520", "地番": "1520", "layer": "久寺家", "面積": 30.78, "ｗｋｔ": "b6a1167259166f95b53751a5633a87cb", "計算面積": 31 }, "geometry": { "type": "MultiPolygon", "coordinates": [ [ [ [ 140.024918, 35.8918616 ], [ 140.0238693, 35.8924654 ], [ 140.024058, 35.892657 ], [ 140.0250504, 35.892077 ], [ 140.025033900000011, 35.8920529 ], [ 140.0250733, 35.8920368 ], [ 140.024918, 35.8918616 ] ] ] ] } },
{ "type": "Feature", "properties": { "fid": 117, "氏名": "鈴木 孝夫", "明細/圃場地番": "北新田1521", "地番": "1521", "layer": "久寺家", "面積": 31.13, "ｗｋｔ": "c7ec411a03edf0b38369043ab2ad1555", "計算面積": 31 }, "geometry": { "type": "MultiPolygon", "coordinates": [ [ [ [ 140.0236969, 35.8922722 ], [ 140.023716799999988, 35.892295 ], [ 140.0238693, 35.8924654 ], [ 140.024918, 35.8918616 ], [ 140.0247427, 35.8916628 ], [ 140.0247204, 35.8916758 ], [ 140.0236969, 35.8922722 ] ] ] ] } },
{ "type": "Feature", "properties": { "fid": 118, "氏名": "鈴木 孝夫", "明細/圃場地番": "北新田1522", "地番": "1522", "layer": "久寺家", "面積": 31.2, "ｗｋｔ": "be86a4257c75ba7de5c2804bd3a39557", "計算面積": 31 }, "geometry": { "type": "MultiPolygon", "coordinates": [ [ [ [ 140.0235231, 35.8920728 ], [ 140.0236969, 35.8922722 ], [ 140.0247204, 35.8916758 ], [ 140.024709699999988, 35.8916589 ], [ 140.0247287, 35.8916469 ], [ 140.0245701, 35.8914671 ], [ 140.0235231, 35.8920728 ] ] ] ] } },
{ "type": "Feature", "properties": { "fid": 119, "氏名": "鈴木 孝夫", "明細/圃場地番": "久寺家字根耕地840-1", "地番": "840-1", "layer": "久寺家", "面積": 13.04, "ｗｋｔ": "753dd4fb36ed4bcfc22ccf66455ac663", "計算面積": 13 }, "geometry": { "type": "MultiPolygon", "coordinates": [ [ [ [ 140.0190044, 35.8875285 ], [ 140.0195283, 35.8876948 ], [ 140.0195283, 35.8876948 ], [ 140.01954, 35.8876985 ], [ 140.0195478, 35.8877009 ], [ 140.0195478, 35.8877009 ], [ 140.019782600000013, 35.8877744 ], [ 140.0198902, 35.8878081 ], [ 140.0199548, 35.8876853 ], [ 140.0196167, 35.8875777 ], [ 140.0196168, 35.8875776 ], [ 140.019605, 35.887574 ], [ 140.019597299999987, 35.8875715 ], [ 140.0195972, 35.8875716 ], [ 140.0190232, 35.8873939 ], [ 140.0190044, 35.8875285 ] ] ] ] } },
{ "type": "Feature", "properties": { "fid": 120, "氏名": "鈴木 孝夫", "明細/圃場地番": "久寺家字根耕地840-2", "地番": "840-2", "layer": "久寺家", "面積": 5.11, "ｗｋｔ": "f925c132702f47cf0c0d7b26d8bc181f", "計算面積": 5 }, "geometry": { "type": "MultiPolygon", "coordinates": [ [ [ [ 140.0203588, 35.8878243 ], [ 140.0200137, 35.8877145 ], [ 140.0199404, 35.8876912 ], [ 140.0198852, 35.8877961 ], [ 140.020144499999986, 35.8878772 ], [ 140.020305900000011, 35.8879294 ], [ 140.0203588, 35.8878243 ] ] ] ] } },
{ "type": "Feature", "properties": { "fid": 123, "氏名": "中村 弘", "明細/圃場地番": "北新田1289", "地番": "1289", "layer": "久寺家", "面積": 46.6, "ｗｋｔ": "4fa34d478b53ab2827477369b8c762fb", "計算面積": 47 }, "geometry": { "type": "MultiPolygon", "coordinates": [ [ [ [ 140.02453220000001, 35.8858416 ], [ 140.0245268, 35.8858354 ], [ 140.0245267, 35.8858354 ], [ 140.0244549, 35.8857529 ], [ 140.0234328, 35.8863401 ], [ 140.023392300000012, 35.8863634 ], [ 140.023421500000012, 35.8863971 ], [ 140.0234939, 35.8864524 ], [ 140.0236636, 35.88665 ], [ 140.0247111, 35.8860488 ], [ 140.0245401, 35.8858508 ], [ 140.0245401, 35.8858507 ], [ 140.02453220000001, 35.8858416 ] ] ] ] } },
{ "type": "Feature", "properties": { "fid": 124, "氏名": "中村 弘", "明細/圃場地番": "北新田1290", "地番": "1290", "layer": "久寺家", "面積": 31.19, "ｗｋｔ": "287b69caf69e02d66e922655bd0e8dbc", "計算面積": 31 }, "geometry": { "type": "MultiPolygon", "coordinates": [ [ [ [ 140.0238401, 35.8868401 ], [ 140.024869700000011, 35.8862476 ], [ 140.0246956, 35.8860461 ], [ 140.0236658, 35.8866372 ], [ 140.0238401, 35.8868401 ] ] ] ] } },
{ "type": "Feature", "properties": { "fid": 125, "氏名": "中村 弘", "明細/圃場地番": "北新田1508", "地番": "1508", "layer": "久寺家", "面積": 28.55, "ｗｋｔ": "fbb2afb9067ae58e949836794bdf4ddc", "計算面積": 29 }, "geometry": { "type": "MultiPolygon", "coordinates": [ [ [ [ 140.0259916, 35.8930817 ], [ 140.0249519, 35.893692 ], [ 140.0251135, 35.8938724 ], [ 140.026148799999987, 35.8932634 ], [ 140.0259916, 35.8930817 ] ] ] ] } },
{ "type": "Feature", "properties": { "fid": 126, "氏名": "成島 誠", "明細/圃場地番": "北新田1482", "地番": "1482", "layer": "久寺家", "面積": 21.68, "ｗｋｔ": "bef13fa7067e27ec28199a00acb334e3", "計算面積": 22 }, "geometry": { "type": "MultiPolygon", "coordinates": [ [ [ [ 140.0293792, 35.8978654 ], [ 140.029135599999989, 35.8975581 ], [ 140.028638300000011, 35.8978633 ], [ 140.0288895, 35.8981416 ], [ 140.0293792, 35.8978654 ] ] ] ] } },
{ "type": "Feature", "properties": { "fid": 127, "氏名": "成島 誠", "明細/圃場地番": "北新田1483", "地番": "1483", "layer": "久寺家", "面積": 34.62, "ｗｋｔ": "957260e4d81688d48ca524dda59b08a3", "計算面積": 35 }, "geometry": { "type": "MultiPolygon", "coordinates": [ [ [ [ 140.029663699999986, 35.8972465 ], [ 140.029492, 35.8970306 ], [ 140.02842290000001, 35.8976287 ], [ 140.0286511, 35.8978467 ], [ 140.029663699999986, 35.8972465 ] ] ] ] } },
{ "type": "Feature", "properties": { "fid": 128, "氏名": "成島 誠", "明細/圃場地番": "北新田1484", "地番": "1484", "layer": "久寺家", "面積": 32.85, "ｗｋｔ": "712c4390f969f24ddda2984bb3607657", "計算面積": 33 }, "geometry": { "type": "MultiPolygon", "coordinates": [ [ [ [ 140.0294945, 35.8970326 ], [ 140.029294599999986, 35.8968312 ], [ 140.028248600000012, 35.8974355 ], [ 140.0284306, 35.897637 ], [ 140.0294945, 35.8970326 ] ] ] ] } },
{ "type": "Feature", "properties": { "fid": 129, "氏名": "成島 誠", "明細/圃場地番": "北新田1485", "地番": "1485", "layer": "久寺家", "面積": 28.81, "ｗｋｔ": "31b5c07c6fe80db3793ef8f79513b55e", "計算面積": 29 }, "geometry": { "type": "MultiPolygon", "coordinates": [ [ [ [ 140.0292844, 35.8968322 ], [ 140.0291382, 35.8966556 ], [ 140.0280871, 35.8972434 ], [ 140.0282512, 35.8974407 ], [ 140.0292844, 35.8968322 ] ] ] ] } },
{ "type": "Feature", "properties": { "fid": 130, "氏名": "成島 誠", "明細/圃場地番": "北新田1486", "地番": "1486", "layer": "久寺家", "面積": 33.84, "ｗｋｔ": "776052a88eb7c36016fd2de3246ebea4", "計算面積": 34 }, "geometry": { "type": "MultiPolygon", "coordinates": [ [ [ [ 140.0280871, 35.8972436 ], [ 140.0291336, 35.8966475 ], [ 140.0289411, 35.8964345 ], [ 140.0278899, 35.8970346 ], [ 140.0280871, 35.8972436 ] ] ] ] } },
{ "type": "Feature", "properties": { "fid": 131, "氏名": "成島 誠", "明細/圃場地番": "北新田1487", "地番": "1487", "layer": "久寺家", "面積": 37.64, "ｗｋｔ": "28f66b32a62d93d5d8deb6c58c279166", "計算面積": 38 }, "geometry": { "type": "MultiPolygon", "coordinates": [ [ [ [ 140.0278899, 35.8970346 ], [ 140.0289411, 35.8964345 ], [ 140.0287304, 35.8961927 ], [ 140.027683200000013, 35.8968005 ], [ 140.0278899, 35.8970346 ] ] ] ] } },
{ "type": "Feature", "properties": { "fid": 132, "氏名": "成島 誠", "明細/圃場地番": "北新田1442", "地番": "1442", "layer": "久寺家", "面積": 14.38, "ｗｋｔ": "eaf3dc220ac87a5efe26dde447fb1ae9", "計算面積": 14 }, "geometry": { "type": "MultiPolygon", "coordinates": [ [ [ [ 140.0256464, 35.8926268 ], [ 140.025722800000011, 35.8927164 ], [ 140.0267682, 35.8921087 ], [ 140.0266861, 35.8920156 ], [ 140.0256464, 35.8926268 ] ] ] ] } },
{ "type": "Feature", "properties": { "fid": 133, "氏名": "成島 誠", "明細/圃場地番": "北新田1536", "地番": "1536", "layer": "久寺家", "面積": 33.85, "ｗｋｔ": "737106fe9ce67fcbf8a240c3338e1493", "計算面積": 34 }, "geometry": { "type": "MultiPolygon", "coordinates": [ [ [ [ 140.021450499999986, 35.8897121 ], [ 140.021644, 35.8899278 ], [ 140.022651700000011, 35.8893336 ], [ 140.0226649, 35.8893157 ], [ 140.0226626, 35.8892997 ], [ 140.0224954, 35.8891036 ], [ 140.021450499999986, 35.8897121 ] ] ] ] } },
{ "type": "Feature", "properties": { "fid": 134, "氏名": "成島 誠", "明細/圃場地番": "北新田1443", "地番": "1443", "layer": "久寺家", "面積": 9.96, "ｗｋｔ": "f74dc597de80896aa5ad3a168a4fc321", "計算面積": 10 }, "geometry": { "type": "MultiPolygon", "coordinates": [ [ [ [ 140.025722800000011, 35.8927164 ], [ 140.0257743, 35.8927767 ], [ 140.0268265, 35.8921747 ], [ 140.0267682, 35.8921087 ], [ 140.025722800000011, 35.8927164 ] ] ] ] } },
{ "type": "Feature", "properties": { "fid": 135, "氏名": "成島 誠", "明細/圃場地番": "北新田1467", "地番": "1467", "layer": "久寺家", "面積": 35.16, "ｗｋｔ": "a09ba28741f548743abcbb56182dab8f", "計算面積": 35 }, "geometry": { "type": "MultiPolygon", "coordinates": [ [ [ [ 140.028984799999989, 35.8964002 ], [ 140.0300382, 35.8957946 ], [ 140.02983, 35.8955785 ], [ 140.0287892, 35.8961784 ], [ 140.028984799999989, 35.8964002 ] ] ] ] } },
{ "type": "Feature", "properties": { "fid": 136, "氏名": "成島 誠", "明細/圃場地番": "久寺家字中耕地917", "地番": "917", "layer": "久寺家", "面積": 5.33, "ｗｋｔ": "243fb5df1d032e4253300e9eb839dbac", "計算面積": 5 }, "geometry": { "type": "MultiPolygon", "coordinates": [ [ [ [ 140.021271500000012, 35.8865348 ], [ 140.0214516, 35.8866077 ], [ 140.0215284, 35.8866326 ], [ 140.0215811, 35.8866468 ], [ 140.021600799999987, 35.8866307 ], [ 140.0216555, 35.8865753 ], [ 140.021689400000014, 35.8865338 ], [ 140.0213484, 35.8864012 ], [ 140.0212934, 35.8864957 ], [ 140.021275800000012, 35.8865118 ], [ 140.0212934, 35.8865225 ], [ 140.021271500000012, 35.8865348 ] ] ] ] } },
{ "type": "Feature", "properties": { "fid": 137, "氏名": "成島 誠", "明細/圃場地番": "久寺家字中耕地918", "地番": "918", "layer": "久寺家", "面積": 14.04, "ｗｋｔ": "1cffa277ac83d225d866696bf899016d", "計算面積": 14 }, "geometry": { "type": "MultiPolygon", "coordinates": [ [ [ [ 140.02157170000001, 35.8867082 ], [ 140.0212262, 35.8865659 ], [ 140.0211452, 35.8867053 ], [ 140.0210325, 35.8868959 ], [ 140.0213791, 35.8870328 ], [ 140.02157170000001, 35.8867082 ] ] ] ] } },
{ "type": "Feature", "properties": { "fid": 138, "氏名": "森茂", "明細/圃場地番": "北新田354", "地番": "354", "layer": "久寺家", "面積": 31.65, "ｗｋｔ": "c8b3d2f45acea9d9cd183eb943418b75", "計算面積": 32 }, "geometry": { "type": "MultiPolygon", "coordinates": [ [ [ [ 140.041645499999987, 35.8849115 ], [ 140.0414782, 35.8847182 ], [ 140.0404188, 35.8853224 ], [ 140.0405155, 35.8854409 ], [ 140.040549199999987, 35.8854572 ], [ 140.0406958, 35.8854797 ], [ 140.041645499999987, 35.8849115 ] ] ] ] } },
{ "type": "Feature", "properties": { "fid": 139, "氏名": "森茂", "明細/圃場地番": "北新田445", "地番": "445", "layer": "久寺家", "面積": 37.32, "ｗｋｔ": "6fad91c4c9d97112ea27c7b26e0379da", "計算面積": 37 }, "geometry": { "type": "MultiPolygon", "coordinates": [ [ [ [ 140.039013899999986, 35.885568 ], [ 140.0390418, 35.8855982 ], [ 140.0393372, 35.8859368 ], [ 140.0393372, 35.8859368 ], [ 140.039345200000014, 35.8859459 ], [ 140.0393506, 35.8859521 ], [ 140.0393506, 35.8859521 ], [ 140.0393937, 35.8860016 ], [ 140.0395245, 35.88615 ], [ 140.0395742, 35.8861211 ], [ 140.0402906, 35.885705 ], [ 140.039859299999989, 35.8856394 ], [ 140.039135, 35.8855292 ], [ 140.039000499999986, 35.8855215 ], [ 140.039013899999986, 35.885568 ] ] ] ] } },
{ "type": "Feature", "properties": { "fid": 140, "氏名": "森茂", "明細/圃場地番": "北新田446", "地番": "446", "layer": "久寺家", "面積": 29.52, "ｗｋｔ": "43959e575fea53ed8353207a5ecc33ab", "計算面積": 30 }, "geometry": { "type": "MultiPolygon", "coordinates": [ [ [ [ 140.040261, 35.8857106 ], [ 140.039569199999988, 35.8861124 ], [ 140.0395509, 35.8861647 ], [ 140.0397238, 35.8863609 ], [ 140.040729, 35.8857818 ], [ 140.040261, 35.8857106 ] ] ] ] } },
{ "type": "Feature", "properties": { "fid": 141, "氏名": "森茂", "明細/圃場地番": "北新田506", "地番": "506", "layer": "久寺家", "面積": 30.41, "ｗｋｔ": "446ef55f3f7f5b0c0e9d804ad405d83a", "計算面積": 30 }, "geometry": { "type": "MultiPolygon", "coordinates": [ [ [ [ 140.0380195, 35.8863165 ], [ 140.0381904, 35.8865124 ], [ 140.0391962, 35.8859228 ], [ 140.0391817, 35.8859039 ], [ 140.0392076, 35.8858793 ], [ 140.0390612, 35.8857114 ], [ 140.0380195, 35.8863165 ] ] ] ] } },
{ "type": "Feature", "properties": { "fid": 142, "氏名": "森茂", "明細/圃場地番": "北新田998", "地番": "998", "layer": "久寺家", "面積": 33.94, "ｗｋｔ": "fec55732c53abcc142d26b184ea45510", "計算面積": 34 }, "geometry": { "type": "MultiPolygon", "coordinates": [ [ [ [ 140.036672900000013, 35.8922434 ], [ 140.0364787, 35.8920239 ], [ 140.035481800000014, 35.8925975 ], [ 140.0354465, 35.8926288 ], [ 140.0356265, 35.8928353 ], [ 140.036672900000013, 35.8922434 ] ] ] ] } },
{ "type": "Feature", "properties": { "fid": 143, "氏名": "森茂", "明細/圃場地番": "北新田1149", "地番": "1149", "layer": "久寺家", "面積": 30.4, "ｗｋｔ": "156d86deea7dc8a53d6ea4e285c5103b", "計算面積": 30 }, "geometry": { "type": "MultiPolygon", "coordinates": [ [ [ [ 140.0254649, 35.8850044 ], [ 140.026511699999986, 35.8843953 ], [ 140.0263476, 35.8842044 ], [ 140.025295, 35.8848104 ], [ 140.0254649, 35.8850044 ] ] ] ] } },
{ "type": "Feature", "properties": { "fid": 145, "氏名": "森茂", "明細/圃場地番": "北新田1069", "地番": "1069", "layer": "久寺家", "面積": 24.89, "ｗｋｔ": "46d51bec6c133e872d4c70c8313ca9d2", "計算面積": 25 }, "geometry": { "type": "MultiPolygon", "coordinates": [ [ [ [ 140.0265501, 35.8843757 ], [ 140.0274954, 35.8838136 ], [ 140.0272625, 35.8837813 ], [ 140.0271008, 35.8837506 ], [ 140.0263779, 35.8841764 ], [ 140.0265501, 35.8843757 ] ] ] ] } },
{ "type": "Feature", "properties": { "fid": 147, "氏名": "森茂", "明細/圃場地番": "北新田1245", "地番": "1245", "layer": "久寺家", "面積": 19.74, "ｗｋｔ": "f288c1a93e2bca559a958dcbd003b1c1", "計算面積": 20 }, "geometry": { "type": "MultiPolygon", "coordinates": [ [ [ [ 140.027422300000012, 35.8891014 ], [ 140.028483, 35.8884926 ], [ 140.0283698, 35.8883656 ], [ 140.0273177, 35.8889816 ], [ 140.027422300000012, 35.8891014 ] ] ] ] } },
{ "type": "Feature", "properties": { "fid": 148, "氏名": "森茂", "明細/圃場地番": "北新田1246", "地番": "1246", "layer": "久寺家", "面積": 31.01, "ｗｋｔ": "5824616a23d9f6bf5667874d02e2a275", "計算面積": 31 }, "geometry": { "type": "MultiPolygon", "coordinates": [ [ [ [ 140.0273177, 35.8889816 ], [ 140.0283698, 35.8883656 ], [ 140.0281952, 35.8881698 ], [ 140.0271495, 35.888789 ], [ 140.0273177, 35.8889816 ] ] ] ] } },
{ "type": "Feature", "properties": { "fid": 149, "氏名": "森茂", "明細/圃場地番": "北新田1247", "地番": "1247", "layer": "久寺家", "面積": 30.71, "ｗｋｔ": "ab9c491dfb2a794f207894a8dd0c2628", "計算面積": 31 }, "geometry": { "type": "MultiPolygon", "coordinates": [ [ [ [ 140.0271495, 35.888789 ], [ 140.0281952, 35.8881698 ], [ 140.028027, 35.8879811 ], [ 140.0269776, 35.8885921 ], [ 140.0271495, 35.888789 ] ] ] ] } },
{ "type": "Feature", "properties": { "fid": 150, "氏名": "森茂", "明細/圃場地番": "北新田1248", "地番": "1248", "layer": "久寺家", "面積": 15.01, "ｗｋｔ": "adb5311a56ebe2b7d56e733109d7a180", "計算面積": 15 }, "geometry": { "type": "MultiPolygon", "coordinates": [ [ [ [ 140.0269776, 35.8885921 ], [ 140.028027, 35.8879811 ], [ 140.027943099999987, 35.8878869 ], [ 140.026895, 35.8884975 ], [ 140.0269776, 35.8885921 ] ] ] ] } },
{ "type": "Feature", "properties": { "fid": 151, "氏名": "森茂", "明細/圃場地番": "北新田1256", "地番": "1256", "layer": "久寺家", "面積": 30.32, "ｗｋｔ": "56680b73ffd8b6c4c0f4e868ea12c939", "計算面積": 30 }, "geometry": { "type": "MultiPolygon", "coordinates": [ [ [ [ 140.025774399999989, 35.8872017 ], [ 140.0268006, 35.8865984 ], [ 140.026629500000013, 35.8864035 ], [ 140.0256042, 35.8870074 ], [ 140.025774399999989, 35.8872017 ] ] ] ] } },
{ "type": "Feature", "properties": { "fid": 152, "氏名": "森茂", "明細/圃場地番": "北新田1257", "地番": "1257", "layer": "久寺家", "面積": 30.5, "ｗｋｔ": "303233b7b2af798162970faccaa3f71f", "計算面積": 30 }, "geometry": { "type": "MultiPolygon", "coordinates": [ [ [ [ 140.0256042, 35.8870074 ], [ 140.026629500000013, 35.8864035 ], [ 140.0264593, 35.8862095 ], [ 140.025431200000014, 35.8868096 ], [ 140.0256042, 35.8870074 ] ] ] ] } },
{ "type": "Feature", "properties": { "fid": 153, "氏名": "森茂", "明細/圃場地番": "北新田1261", "地番": "1261", "layer": "久寺家", "面積": 40.73, "ｗｋｔ": "065f97a53e56b6a171a02e036d8d6141", "計算面積": 41 }, "geometry": { "type": "MultiPolygon", "coordinates": [ [ [ [ 140.0249703, 35.8862831 ], [ 140.025997100000012, 35.8856827 ], [ 140.025767699999989, 35.8854214 ], [ 140.0247407, 35.8860208 ], [ 140.0249703, 35.8862831 ] ] ] ] } },
{ "type": "Feature", "properties": { "fid": 154, "氏名": "森茂", "明細/圃場地番": "北新田1262", "地番": "1262", "layer": "久寺家", "面積": 20.82, "ｗｋｔ": "b4b0c2a0a766a1a1ef19ebd32d5a4942", "計算面積": 21 }, "geometry": { "type": "MultiPolygon", "coordinates": [ [ [ [ 140.0247407, 35.8860208 ], [ 140.025767699999989, 35.8854214 ], [ 140.0257599, 35.885389 ], [ 140.0256867, 35.8853041 ], [ 140.02564240000001, 35.8852942 ], [ 140.0246146, 35.8858964 ], [ 140.0247407, 35.8860208 ] ] ] ] } },
{ "type": "Feature", "properties": { "fid": 155, "氏名": "森茂", "明細/圃場地番": "北新田1387", "地番": "1387", "layer": "久寺家", "面積": 30.29, "ｗｋｔ": "c1adbec800857bad6ff5c2419fe467d1", "計算面積": 30 }, "geometry": { "type": "MultiPolygon", "coordinates": [ [ [ [ 140.0246484, 35.8896399 ], [ 140.0256827, 35.8890446 ], [ 140.0255147, 35.888854 ], [ 140.0244748, 35.8894424 ], [ 140.0246484, 35.8896399 ] ] ] ] } },
{ "type": "Feature", "properties": { "fid": 156, "氏名": "森茂", "明細/圃場地番": "北新田1388", "地番": "1388", "layer": "久寺家", "面積": 40.97, "ｗｋｔ": "3bed035d43db5d0def2225f65fba4ef2", "計算面積": 41 }, "geometry": { "type": "MultiPolygon", "coordinates": [ [ [ [ 140.0244748, 35.8894424 ], [ 140.0255147, 35.888854 ], [ 140.0252778, 35.8885855 ], [ 140.024249200000014, 35.8891858 ], [ 140.0244748, 35.8894424 ] ] ] ] } },
{ "type": "Feature", "properties": { "fid": 157, "氏名": "森茂", "明細/圃場地番": "北新田1416", "地番": "1416", "layer": "久寺家", "面積": 30.69, "ｗｋｔ": "279a311ab1a0f46052f2d6713a7aa3cf", "計算面積": 31 }, "geometry": { "type": "MultiPolygon", "coordinates": [ [ [ [ 140.0220282, 35.8884858 ], [ 140.0221972, 35.8886844 ], [ 140.02222470000001, 35.8886684 ], [ 140.023238600000013, 35.8880806 ], [ 140.0230673, 35.887887 ], [ 140.0220406, 35.8884786 ], [ 140.0220282, 35.8884858 ] ] ] ] } },
{ "type": "Feature", "properties": { "fid": 158, "氏名": "森茂", "明細/圃場地番": "北新田1423", "地番": "1423", "layer": "久寺家", "面積": 10.17, "ｗｋｔ": "5bb4092cf6822c27752b914b103619f8", "計算面積": 10 }, "geometry": { "type": "MultiPolygon", "coordinates": [ [ [ [ 140.023300400000011, 35.889931 ], [ 140.023358, 35.8899964 ], [ 140.0243786, 35.8893935 ], [ 140.024321500000013, 35.8893278 ], [ 140.023300400000011, 35.889931 ] ] ] ] } },
{ "type": "Feature", "properties": { "fid": 159, "氏名": "森茂", "明細/圃場地番": "北新田1426", "地番": "1426", "layer": "久寺家", "面積": 30.66, "ｗｋｔ": "c9e4974607cf661df374568128db4daf", "計算面積": 31 }, "geometry": { "type": "MultiPolygon", "coordinates": [ [ [ [ 140.023592799999989, 35.8902632 ], [ 140.023768499999989, 35.8904629 ], [ 140.0247853, 35.8898623 ], [ 140.0246144, 35.8896653 ], [ 140.023592799999989, 35.8902632 ] ] ] ] } },
{ "type": "Feature", "properties": { "fid": 160, "氏名": "森茂", "明細/圃場地番": "北新田1492", "地番": "1492", "layer": "久寺家", "面積": 16.35, "ｗｋｔ": "0a705c29817a7003b670441592033f97", "計算面積": 16 }, "geometry": { "type": "MultiPolygon", "coordinates": [ [ [ [ 140.0282245, 35.8956416 ], [ 140.028131, 35.8955339 ], [ 140.0270988, 35.8961324 ], [ 140.0271884, 35.8962349 ], [ 140.0282245, 35.8956416 ] ] ] ] } },
{ "type": "Feature", "properties": { "fid": 161, "氏名": "森茂", "明細/圃場地番": "北新田1554", "地番": "1554,1555", "layer": "久寺家", "面積": 41.55, "ｗｋｔ": "f2f59ee16e5f05b041e5db3e17ae0327", "計算面積": 42 }, "geometry": { "type": "MultiPolygon", "coordinates": [ [ [ [ 140.0198072, 35.8896725 ], [ 140.0200388, 35.8899358 ], [ 140.0210901, 35.8893291 ], [ 140.0208604, 35.8890693 ], [ 140.0198072, 35.8896725 ] ] ] ] } },
{ "type": "Feature", "properties": { "fid": 162, "氏名": "森茂", "明細/圃場地番": "北新田1255", "地番": "1255", "layer": "久寺家", "面積": 32.81, "ｗｋｔ": "8aed32b38495be393380a15febbf603a", "計算面積": 33 }, "geometry": { "type": "MultiPolygon", "coordinates": [ [ [ [ 140.025957, 35.8874103 ], [ 140.026987100000014, 35.8868109 ], [ 140.0268006, 35.8865984 ], [ 140.025774399999989, 35.8872017 ], [ 140.025957, 35.8874103 ] ] ] ] } },
{ "type": "Feature", "properties": { "fid": 163, "氏名": "中谷 富士男", "明細/圃場地番": "北新田1516,北新田1517", "地番": "1515~1517", "layer": "久寺家", "面積": 63.0, "ｗｋｔ": "a86449fd103a9d669bea54889480fd62", "計算面積": 32 }, "geometry": { "type": "MultiPolygon", "coordinates": [ [ [ [ 140.0242261, 35.8928531 ], [ 140.024397, 35.8930524 ], [ 140.0254362, 35.8924547 ], [ 140.0252538, 35.8922506 ], [ 140.0242261, 35.8928531 ] ] ] ] } },
{ "type": "Feature", "properties": { "fid": 166, "氏名": "森茂", "明細/圃場地番": "北新田1446", "地番": "1446", "layer": "久寺家", "面積": 31.26, "ｗｋｔ": "592dfde7d687cdff3e064bbbd2667d7d", "計算面積": 31 }, "geometry": { "type": "MultiPolygon", "coordinates": [ [ [ [ 140.0258744, 35.8928797 ], [ 140.0260414, 35.8930732 ], [ 140.0270854, 35.8924622 ], [ 140.026904, 35.8922604 ], [ 140.0258744, 35.8928797 ] ] ] ] } },
{ "type": "Feature", "properties": { "fid": 168, "氏名": "石山 尚", "明細/圃場地番": "北新田1294", "地番": "1294", "layer": "久寺家", "面積": 31.33, "ｗｋｔ": "8ddbf0cefe34d8a18ee0314f2bf1b88a", "計算面積": 31 }, "geometry": { "type": "MultiPolygon", "coordinates": [ [ [ [ 140.0245242, 35.8876366 ], [ 140.0255526, 35.8870379 ], [ 140.025376, 35.8868335 ], [ 140.0243518, 35.8874359 ], [ 140.0245242, 35.8876366 ] ] ] ] } },
{ "type": "Feature", "properties": { "fid": 169, "氏名": "石山 尚", "明細/圃場地番": "北新田1295", "地番": "1295", "layer": "久寺家", "面積": 30.27, "ｗｋｔ": "7fa39615d0aca4c584e907c01681977f", "計算面積": 30 }, "geometry": { "type": "MultiPolygon", "coordinates": [ [ [ [ 140.024691600000011, 35.8878315 ], [ 140.0257221, 35.8872342 ], [ 140.0255526, 35.8870379 ], [ 140.0245242, 35.8876366 ], [ 140.024691600000011, 35.8878315 ] ] ] ] } },
{ "type": "Feature", "properties": { "fid": 170, "氏名": "石山 尚", "明細/圃場地番": "北新田1296", "地番": "1296", "layer": "久寺家", "面積": 31.89, "ｗｋｔ": "5f6b0996d4afc2b14ff7ae2bdfc1e9fa", "計算面積": 32 }, "geometry": { "type": "MultiPolygon", "coordinates": [ [ [ [ 140.0248987, 35.88802 ], [ 140.025900799999988, 35.8874409 ], [ 140.0257221, 35.8872342 ], [ 140.024691600000011, 35.8878315 ], [ 140.02483620000001, 35.8879997 ], [ 140.024858099999989, 35.888015 ], [ 140.0248987, 35.88802 ] ] ] ] } },
{ "type": "Feature", "properties": { "fid": 171, "氏名": "石山 尚", "明細/圃場地番": "北新田1514", "地番": "1514", "layer": "久寺家", "面積": 30.91, "ｗｋｔ": "2a002cb244e153e44158abb3f69408fd", "計算面積": 31 }, "geometry": { "type": "MultiPolygon", "coordinates": [ [ [ [ 140.0254362, 35.8924547 ], [ 140.024397, 35.8930524 ], [ 140.024569899999989, 35.8932541 ], [ 140.0256082, 35.892647 ], [ 140.0254362, 35.8924547 ] ] ] ] } },
{ "type": "Feature", "properties": { "fid": 172, "氏名": "石山 尚", "明細/圃場地番": "北新田1532", "地番": "1532", "layer": "久寺家", "面積": 10.76, "ｗｋｔ": "cf45181a1c9d11a2b5872c495f828943", "計算面積": 11 }, "geometry": { "type": "MultiPolygon", "coordinates": [ [ [ [ 140.0221486, 35.8904982 ], [ 140.02319270000001, 35.8898964 ], [ 140.0231315, 35.8898265 ], [ 140.0220904, 35.8904312 ], [ 140.0221486, 35.8904982 ] ] ] ] } },
{ "type": "Feature", "properties": { "fid": 175, "氏名": "岩出廣", "明細/圃場地番": "北新田1530", "地番": "1530", "layer": "久寺家", "面積": 16.48, "ｗｋｔ": "aa648b4a4b1b9873b59c7c326323f28a", "計算面積": 16 }, "geometry": { "type": "MultiPolygon", "coordinates": [ [ [ [ 140.0224163, 35.8908036 ], [ 140.0234571, 35.8901984 ], [ 140.0233663, 35.8900947 ], [ 140.022322800000012, 35.8906985 ], [ 140.0224163, 35.8908036 ] ] ] ] } },
{ "type": "Feature", "properties": { "fid": 176, "氏名": "岩出廣", "明細/圃場地番": "北新田1531", "地番": "1531", "layer": "久寺家", "面積": 31.34, "ｗｋｔ": "250724a3f5919c2660d13b2cef6b2bb7", "計算面積": 31 }, "geometry": { "type": "MultiPolygon", "coordinates": [ [ [ [ 140.022322800000012, 35.8906985 ], [ 140.0233663, 35.8900947 ], [ 140.02319270000001, 35.8898964 ], [ 140.0221486, 35.8904982 ], [ 140.022322800000012, 35.8906985 ] ] ] ] } },
{ "type": "Feature", "properties": { "fid": 177, "氏名": "岩出廣", "明細/圃場地番": "北新田1538", "地番": "1538", "layer": "久寺家", "面積": 31.71, "ｗｋｔ": "505cd578013eccb57b6c3d6d468d4e3f", "計算面積": 32 }, "geometry": { "type": "MultiPolygon", "coordinates": [ [ [ [ 140.022296, 35.8889276 ], [ 140.022280599999988, 35.8889118 ], [ 140.0223136, 35.8888927 ], [ 140.022152299999988, 35.8887062 ], [ 140.021104, 35.8893176 ], [ 140.021278599999988, 35.8895164 ], [ 140.022296, 35.8889276 ] ] ] ] } },
{ "type": "Feature", "properties": { "fid": 178, "氏名": "岩出廣", "明細/圃場地番": "北新田1539", "地番": "1539", "layer": "久寺家", "面積": 29.99, "ｗｋｔ": "5fdba3ba0cd32f2576c8feedaf9ff430", "計算面積": 30 }, "geometry": { "type": "MultiPolygon", "coordinates": [ [ [ [ 140.022152299999988, 35.8887062 ], [ 140.021991, 35.8885199 ], [ 140.0219519, 35.8885399 ], [ 140.0209369, 35.8891273 ], [ 140.021104, 35.8893176 ], [ 140.022152299999988, 35.8887062 ] ] ] ] } },
{ "type": "Feature", "properties": { "fid": 179, "氏名": "岩出廣", "明細/圃場地番": "北新田1540", "地番": "1540", "layer": "久寺家", "面積": 31.83, "ｗｋｔ": "e9f82a1f1db9a7ca56be681c71ab2eb6", "計算面積": 32 }, "geometry": { "type": "MultiPolygon", "coordinates": [ [ [ [ 140.0219519, 35.8885399 ], [ 140.02192740000001, 35.8885147 ], [ 140.021963199999988, 35.8884933 ], [ 140.0218059, 35.8883166 ], [ 140.0207619, 35.888928 ], [ 140.0209369, 35.8891273 ], [ 140.0219519, 35.8885399 ] ] ] ] } },
{ "type": "Feature", "properties": { "fid": 180, "氏名": "岩出廣", "明細/圃場地番": "北新田1541", "地番": "1541", "layer": "久寺家", "面積": 21.34, "ｗｋｔ": "72f1e05d7535fbcd51db5ef0b3538ec9", "計算面積": 21 }, "geometry": { "type": "MultiPolygon", "coordinates": [ [ [ [ 140.0218059, 35.8883166 ], [ 140.0216855, 35.8881812 ], [ 140.0206446, 35.8887944 ], [ 140.0207619, 35.888928 ], [ 140.0218059, 35.8883166 ] ] ] ] } },
{ "type": "Feature", "properties": { "fid": 181, "氏名": "澁谷 明弘", "明細/圃場地番": "北新田1382", "地番": "1382", "layer": "久寺家", "面積": 15.91, "ｗｋｔ": "21e1d38023119cc802ed19d4cbbdcaa8", "計算面積": 16 }, "geometry": { "type": "MultiPolygon", "coordinates": [ [ [ [ 140.0253376, 35.8904237 ], [ 140.0254266, 35.8905299 ], [ 140.026465699999989, 35.8899295 ], [ 140.026377200000013, 35.8898319 ], [ 140.0253376, 35.8904237 ] ] ] ] } },
{ "type": "Feature", "properties": { "fid": 182, "氏名": "澁谷 明弘", "明細/圃場地番": "北新田1528", "地番": "1528", "layer": "久寺家", "面積": 30.88, "ｗｋｔ": "1e92169c8f7f826c3a1bf825483f7e6d", "計算面積": 31 }, "geometry": { "type": "MultiPolygon", "coordinates": [ [ [ [ 140.022666, 35.89109 ], [ 140.023706800000014, 35.8904838 ], [ 140.0235353, 35.8902879 ], [ 140.0224945, 35.8908933 ], [ 140.022666, 35.89109 ] ] ] ] } },
{ "type": "Feature", "properties": { "fid": 183, "氏名": "澁谷 明弘", "明細/圃場地番": "北新田1529", "地番": "1529", "layer": "久寺家", "面積": 14.08, "ｗｋｔ": "6a5f828998afc74fb7d692c2790fa331", "計算面積": 14 }, "geometry": { "type": "MultiPolygon", "coordinates": [ [ [ [ 140.0224945, 35.8908933 ], [ 140.0235353, 35.8902879 ], [ 140.0234571, 35.8901984 ], [ 140.0224163, 35.8908036 ], [ 140.0224945, 35.8908933 ] ] ] ] } },
{ "type": "Feature", "properties": { "fid": 187, "氏名": "澁谷 明弘", "明細/圃場地番": "北新田840", "地番": "840", "layer": "久寺家", "面積": 61.79, "ｗｋｔ": "b8fcc60763f8ea71df6baeccbcb29ff9", "計算面積": 62 }, "geometry": { "type": "MultiPolygon", "coordinates": [ [ [ [ 140.0372284, 35.8910301 ], [ 140.0361943, 35.8916343 ], [ 140.0365377, 35.8920283 ], [ 140.0375386, 35.8914455 ], [ 140.0375225, 35.8914252 ], [ 140.037559499999986, 35.8913981 ], [ 140.0372284, 35.8910301 ] ] ] ] } },
{ "type": "Feature", "properties": { "fid": 188, "氏名": "日暮 久修", "明細/圃場地番": "北新田1427", "地番": "1427", "layer": "久寺家", "面積": 30.4, "ｗｋｔ": "3c5fe4fe4edefb3e26a437266c38ade5", "計算面積": 30 }, "geometry": { "type": "MultiPolygon", "coordinates": [ [ [ [ 140.023768499999989, 35.8904629 ], [ 140.0239402, 35.890658 ], [ 140.0249579, 35.8900612 ], [ 140.0247853, 35.8898623 ], [ 140.023768499999989, 35.8904629 ] ] ] ] } },
{ "type": "Feature", "properties": { "fid": 189, "氏名": "日暮 久修", "明細/圃場地番": "北新田1428", "地番": "1428", "layer": "久寺家", "面積": 29.71, "ｗｋｔ": "020146c2dfa82051ba66438bc2646013", "計算面積": 30 }, "geometry": { "type": "MultiPolygon", "coordinates": [ [ [ [ 140.0239402, 35.890658 ], [ 140.024099, 35.8908506 ], [ 140.0251295, 35.8902556 ], [ 140.0249579, 35.8900612 ], [ 140.0239402, 35.890658 ] ] ] ] } },
{ "type": "Feature", "properties": { "fid": 192, "氏名": "日暮 久修", "明細/圃場地番": "北新田1490", "地番": "1490", "layer": "久寺家", "面積": 33.81, "ｗｋｔ": "706f7f0f518f8b7402c55483545a178b", "計算面積": 34 }, "geometry": { "type": "MultiPolygon", "coordinates": [ [ [ [ 140.0275509, 35.8966494 ], [ 140.028597, 35.8960391 ], [ 140.028404, 35.8958343 ], [ 140.0273593, 35.8964303 ], [ 140.0275509, 35.8966494 ] ] ] ] } },
{ "type": "Feature", "properties": { "fid": 193, "氏名": "日暮 久修", "明細/圃場地番": "北新田1491", "地番": "1491", "layer": "久寺家", "面積": 30.66, "ｗｋｔ": "932a24a4d97e0653402f10b0dcecdc35", "計算面積": 31 }, "geometry": { "type": "MultiPolygon", "coordinates": [ [ [ [ 140.0273593, 35.8964303 ], [ 140.028404, 35.8958343 ], [ 140.0282245, 35.8956416 ], [ 140.0271884, 35.8962349 ], [ 140.0273593, 35.8964303 ] ] ] ] } },
{ "type": "Feature", "properties": { "fid": 194, "氏名": "日暮 久修", "明細/圃場地番": "北新田1493", "地番": "1493", "layer": "久寺家", "面積": 11.88, "ｗｋｔ": "9ae98c2142e4e8f04352ef4fe14e841d", "計算面積": 12 }, "geometry": { "type": "MultiPolygon", "coordinates": [ [ [ [ 140.028131, 35.8955339 ], [ 140.028068100000013, 35.8954614 ], [ 140.027028699999988, 35.8960523 ], [ 140.0270988, 35.8961324 ], [ 140.028131, 35.8955339 ] ] ] ] } },
{ "type": "Feature", "properties": { "fid": 195, "氏名": "日暮 久修", "明細/圃場地番": "北新田1523", "地番": "1523", "layer": "久寺家", "面積": 30.72, "ｗｋｔ": "7daa0fb79871beb106cde1c51450c985", "計算面積": 31 }, "geometry": { "type": "MultiPolygon", "coordinates": [ [ [ [ 140.023354223000013, 35.891879146 ], [ 140.023523114999989, 35.89207285 ], [ 140.024570065, 35.891467061 ], [ 140.024414035, 35.89129013 ], [ 140.024383169, 35.891301108 ], [ 140.024369187, 35.891287457 ], [ 140.023354223000013, 35.891879146 ] ] ] ] } },
{ "type": "Feature", "properties": { "fid": 196, "氏名": "日暮 久修", "明細/圃場地番": "北新田1524", "地番": "1524", "layer": "久寺家", "面積": 31.3, "ｗｋｔ": "6ff0daddf18efccafc4e892ef7a9f6c8", "計算面積": 31 }, "geometry": { "type": "MultiPolygon", "coordinates": [ [ [ [ 140.023180069, 35.891679408 ], [ 140.023354223000013, 35.891879146 ], [ 140.024369187, 35.891287457 ], [ 140.02435773900001, 35.891267826 ], [ 140.024378352000014, 35.891249667 ], [ 140.024222720000012, 35.891073187 ], [ 140.023180069, 35.891679408 ] ] ] ] } },
{ "type": "Feature", "properties": { "fid": 197, "氏名": "日暮 久修", "明細/圃場地番": "北新田1525", "地番": "1525", "layer": "久寺家", "面積": 30.68, "ｗｋｔ": "826f3208e5646ba53e6cd96b09ff76e5", "計算面積": 31 }, "geometry": { "type": "MultiPolygon", "coordinates": [ [ [ [ 140.023180069, 35.891679408 ], [ 140.024222720000012, 35.891073187 ], [ 140.024052531, 35.890878755 ], [ 140.023009878000011, 35.891484273 ], [ 140.023180069, 35.891679408 ] ] ] ] } },
{ "type": "Feature", "properties": { "fid": 198, "氏名": "増田 昌一", "明細/圃場地番": "北新田939", "地番": "939", "layer": "久寺家", "面積": 28.01, "ｗｋｔ": "01497d49ebaf125cc2a47fcce27d6acb", "計算面積": 28 }, "geometry": { "type": "MultiPolygon", "coordinates": [ [ [ [ 140.0285022, 35.8847209 ], [ 140.0295614, 35.8841189 ], [ 140.0291255, 35.8840624 ], [ 140.0283291, 35.8845236 ], [ 140.0285022, 35.8847209 ] ] ] ] } },
{ "type": "Feature", "properties": { "fid": 199, "氏名": "増田 昌一", "明細/圃場地番": "北新田941", "地番": "941", "layer": "久寺家", "面積": 33.75, "ｗｋｔ": "bb4c46de7b50958bf722d081af4f59c6", "計算面積": 34 }, "geometry": { "type": "MultiPolygon", "coordinates": [ [ [ [ 140.029759, 35.8843172 ], [ 140.0297507, 35.8843082 ], [ 140.029745600000012, 35.8843018 ], [ 140.029745, 35.8843021 ], [ 140.0296626, 35.8842135 ], [ 140.0295633, 35.8841063 ], [ 140.0284866, 35.8847183 ], [ 140.02867, 35.8849272 ], [ 140.028754600000013, 35.8848778 ], [ 140.0296892, 35.8843464 ], [ 140.0297406, 35.8843186 ], [ 140.029759, 35.8843172 ] ] ] ] } },
{ "type": "Feature", "properties": { "fid": 200, "氏名": "増田 昌一", "明細/圃場地番": "北新田1000", "地番": "1000", "layer": "久寺家", "面積": 7.72, "ｗｋｔ": "3cefc15583b0a50e22a34b86e074ffd8", "計算面積": 8 }, "geometry": { "type": "MultiPolygon", "coordinates": [ [ [ [ 140.03571, 35.8929151 ], [ 140.0357486, 35.8929689 ], [ 140.0367776, 35.8923628 ], [ 140.0367283, 35.8923177 ], [ 140.03571, 35.8929151 ] ] ] ] } },
{ "type": "Feature", "properties": { "fid": 203, "氏名": "中谷 富士男", "明細/圃場地番": "北新田1415", "地番": "1415", "layer": "久寺家", "面積": 39.91, "ｗｋｔ": "11e52c99ecc6785907d49662e1bc7e95", "計算面積": 40 }, "geometry": { "type": "MultiPolygon", "coordinates": [ [ [ [ 140.021977111000012, 35.888425812 ], [ 140.022013959, 35.8884691 ], [ 140.022032040999989, 35.888462856 ], [ 140.022040598808672, 35.888478600691727 ], [ 140.0220406, 35.8884786 ], [ 140.023010580802662, 35.887919682455582 ], [ 140.023067271, 35.887887014 ], [ 140.022840556, 35.887630763 ], [ 140.021805514, 35.888232809 ], [ 140.021977111000012, 35.888425812 ] ] ] ] } },
{ "type": "Feature", "properties": { "fid": 204, "氏名": "中谷 富士男", "明細/圃場地番": "北新田1283", "地番": "1283", "layer": "久寺家", "面積": 27.01, "ｗｋｔ": "e48788094ae21df42e84916a645e3c26", "計算面積": 27 }, "geometry": { "type": "MultiPolygon", "coordinates": [ [ [ [ 140.022524898, 35.885292525 ], [ 140.022513259, 35.885317774 ], [ 140.022519182, 35.885348706 ], [ 140.022621711, 35.88546527 ], [ 140.023663957999986, 35.884860717 ], [ 140.023512036999989, 35.884686409 ], [ 140.022577397, 35.885230559 ], [ 140.022551136, 35.885256782 ], [ 140.022524898, 35.885292525 ] ] ] ] } },
{ "type": "Feature", "properties": { "fid": 205, "氏名": "中谷 富士男", "明細/圃場地番": "北新田1284", "地番": "1284", "layer": "久寺家", "面積": 37.12, "ｗｋｔ": "a24d5efe365e8f5d439cfa25c893185b", "計算面積": 37 }, "geometry": { "type": "MultiPolygon", "coordinates": [ [ [ [ 140.023870362, 35.885097533 ], [ 140.023663957999986, 35.884860717 ], [ 140.022621711, 35.88546527 ], [ 140.022809976, 35.885679303 ], [ 140.022844596999988, 35.885667608 ], [ 140.022856368, 35.885685691 ], [ 140.023870362, 35.885097533 ] ] ] ] } },
{ "type": "Feature", "properties": { "fid": 208, "氏名": "中谷 富士男", "明細/圃場地番": "北新田1287", "地番": "1287", "layer": "久寺家", "面積": 30.1, "ｗｋｔ": "85df10b01f9ee81335bd51104dc37e61", "計算面積": 30 }, "geometry": { "type": "MultiPolygon", "coordinates": [ [ [ [ 140.023308104, 35.886251216 ], [ 140.024350019, 35.885647857 ], [ 140.024181612, 35.885454642 ], [ 140.02317110300001, 35.886042809 ], [ 140.023184824, 35.88606408 ], [ 140.023161012, 35.886081744 ], [ 140.023308104, 35.886251216 ] ] ] ] } },
{ "type": "Feature", "properties": { "fid": 209, "氏名": "中谷 富士男", "明細/圃場地番": "北新田1288", "地番": "1288", "layer": "久寺家", "面積": 16.99, "ｗｋｔ": "4a8247611072a877384e0d19efaba135", "計算面積": 17 }, "geometry": { "type": "MultiPolygon", "coordinates": [ [ [ [ 140.024350019, 35.885647857 ], [ 140.023308104, 35.886251216 ], [ 140.023387168999989, 35.886342312 ], [ 140.023422371, 35.88633028 ], [ 140.023431279919151, 35.88634097451564 ], [ 140.0234328, 35.8863401 ], [ 140.024446020532025, 35.88575800128519 ], [ 140.024350019, 35.885647857 ] ] ] ] } },
{ "type": "Feature", "properties": { "fid": 210, "氏名": "中谷 富士男", "明細/圃場地番": "北新田1267", "地番": "1267", "layer": "久寺家", "面積": 30.78, "ｗｋｔ": "10130e3692f767d74c7cf1ec34433f43", "計算面積": 31 }, "geometry": { "type": "MultiPolygon", "coordinates": [ [ [ [ 140.023700909000013, 35.884843623 ], [ 140.023871089000011, 35.885037791 ], [ 140.024889472000012, 35.884448718 ], [ 140.024883071, 35.884433854 ], [ 140.024891944, 35.884408682 ], [ 140.024737439, 35.88423827 ], [ 140.023700909000013, 35.884843623 ] ] ] ] } },
{ "type": "Feature", "properties": { "fid": 212, "氏名": "鈴木 孝太郎", "明細/圃場地番": "北新田1398", "地番": "1398", "layer": "久寺家", "面積": 31.23, "ｗｋｔ": "c6a302c7d1e4533dce610428664cd1ad", "計算面積": 31 }, "geometry": { "type": "MultiPolygon", "coordinates": [ [ [ [ 140.022937103, 35.887673607 ], [ 140.023958637, 35.887066005 ], [ 140.023783097, 35.886868316 ], [ 140.02275989200001, 35.887470247 ], [ 140.022937103, 35.887673607 ] ] ] ] } },
{ "type": "Feature", "properties": { "fid": 214, "氏名": "森茂", "明細/圃場地番": "北新田604-2", "地番": "604-2", "layer": "久寺家", "面積": 22.61, "ｗｋｔ": "d2bf76577041e9dacf468cf06a648d48", "計算面積": 23 }, "geometry": { "type": "MultiPolygon", "coordinates": [ [ [ [ 140.03579516100001, 35.884724841 ], [ 140.036291979, 35.884432091 ], [ 140.036092653, 35.884201977 ], [ 140.035301413000013, 35.884656185 ], [ 140.03579516100001, 35.884724841 ] ] ] ] } },
{ "type": "Feature", "properties": { "fid": 217, "氏名": "日暮 正昭", "明細/圃場地番": "北新田1425,北新田1424", "地番": "1424,1425", "layer": "久寺家", "面積": 82.88, "ｗｋｔ": "4db9480879213f749a1c6d023e4d15bf", "計算面積": 41 }, "geometry": { "type": "MultiPolygon", "coordinates": [ [ [ [ 140.023592799999989, 35.8902632 ], [ 140.0246144, 35.8896653 ], [ 140.0243786, 35.8893935 ], [ 140.0233629, 35.8899977 ], [ 140.023592799999989, 35.8902632 ] ] ] ] } },
{ "type": "Feature", "properties": { "fid": 225, "氏名": null, "明細/圃場地番": "北新田1556", "地番": "1556", "layer": "久寺家", "面積": 39.11, "ｗｋｔ": "32bb073495e2b1e51669e71d264d8202", "計算面積": 39 }, "geometry": { "type": "MultiPolygon", "coordinates": [ [ [ [ 140.020261041757493, 35.890182004636209 ], [ 140.020057331414648, 35.889930047106894 ], [ 140.021108047919881, 35.889324276876835 ], [ 140.021301036665733, 35.88959231680164 ], [ 140.020261041757493, 35.890182004636209 ] ] ] ] } },
{ "type": "Feature", "properties": { "fid": 226, "氏名": null, "明細/圃場地番": "北新田1405", "地番": "1405", "layer": "久寺家", "面積": 37.63, "ｗｋｔ": "16b3dca2ff59c3d2d77b926f07bc086c", "計算面積": 38 }, "geometry": { "type": "MultiPolygon", "coordinates": [ [ [ [ 140.022046187656713, 35.886649238427296 ], [ 140.021955054082298, 35.88653666165888 ], [ 140.022153403626646, 35.886156044965659 ], [ 140.022844946632631, 35.885770067473942 ], [ 140.023064739370966, 35.886022025003257 ], [ 140.022046187656713, 35.886649238427296 ] ] ] ] } },
{ "type": "Feature", "properties": { "fid": 229, "氏名": "鈴木 孝夫", "明細/圃場地番": "北新田1518,北新田1519", "地番": "1518,1519", "layer": "久寺家", "面積": 60.32, "ｗｋｔ": "d7d4e019530b6551324c2d9566f4f7f4", "計算面積": 30 }, "geometry": { "type": "MultiPolygon", "coordinates": [ [ [ [ 140.024058, 35.892657 ], [ 140.0242261, 35.8928531 ], [ 140.0252538, 35.8922506 ], [ 140.0250866, 35.8920636 ], [ 140.0250504, 35.892077 ], [ 140.024058, 35.892657 ] ] ] ] } },
{ "type": "Feature", "properties": { "fid": 243, "氏名": "鈴木 孝夫", "明細/圃場地番": "久寺家字根耕地870-1,久寺家字根耕地870-2", "地番": "870-1,2", "layer": "久寺家", "面積": 12.42, "ｗｋｔ": "2a290b3e935707cea58139f119aa12e9", "計算面積": 6 }, "geometry": { "type": "MultiPolygon", "coordinates": [ [ [ [ 140.0215145, 35.885522 ], [ 140.0213934, 35.8857214 ], [ 140.021648199999987, 35.8858261 ], [ 140.021758799999986, 35.8856257 ], [ 140.0215145, 35.885522 ] ] ] ] } },
{ "type": "Feature", "properties": { "fid": 290, "氏名": "森茂", "明細/圃場地番": "北新田1150,北新田1151", "地番": "1150,1151", "layer": "久寺家", "面積": 63.78, "ｗｋｔ": "766e81356ec3a1461f094278a0d574d1", "計算面積": 32 }, "geometry": { "type": "MultiPolygon", "coordinates": [ [ [ [ 140.0266852, 35.8845972 ], [ 140.026511699999986, 35.8843953 ], [ 140.0254649, 35.8850044 ], [ 140.0256425, 35.8852071 ], [ 140.0266852, 35.8845972 ] ] ] ] } },
{ "type": "Feature", "properties": { "fid": 329, "氏名": "森茂", "明細/圃場地番": "北新田1429,北新田1430", "地番": "1429,1430", "layer": "久寺家", "面積": 93.98, "ｗｋｔ": "5e844bb363e3aa5ad2cb85d49b6cc020", "計算面積": 47 }, "geometry": { "type": "MultiPolygon", "coordinates": [ [ [ [ 140.0251295, 35.8902556 ], [ 140.024099, 35.8908506 ], [ 140.0242327, 35.8910128 ], [ 140.024359299999986, 35.8911577 ], [ 140.0253918, 35.8905528 ], [ 140.0251295, 35.8902556 ] ] ] ] } },
{ "type": "Feature", "properties": { "fid": 330, "氏名": "森茂", "明細/圃場地番": "北新田1512,北新田1513", "地番": "1512,1513", "layer": "久寺家", "面積": 60.98, "ｗｋｔ": "1e675550b40472fffe12cebf8b8ccef3", "計算面積": 30 }, "geometry": { "type": "MultiPolygon", "coordinates": [ [ [ [ 140.024569899999989, 35.8932541 ], [ 140.0247411, 35.8934538 ], [ 140.0257269, 35.8928658 ], [ 140.025717, 35.8928391 ], [ 140.025763, 35.8928203 ], [ 140.0256082, 35.892647 ], [ 140.024569899999989, 35.8932541 ] ] ] ] } },
{ "type": "Feature", "properties": { "fid": 347, "氏名": "森 義昭", "明細/圃場地番": "北新田1418,北新田1419", "地番": "1418,1419", "layer": "久寺家", "面積": 148.9, "ｗｋｔ": "17893dac5ba49b541786eb9447f9cd23", "計算面積": 74 }, "geometry": { "type": "MultiPolygon", "coordinates": [ [ [ [ 140.0227162, 35.8892869 ], [ 140.0227404, 35.8892797 ], [ 140.0227645, 35.8892689 ], [ 140.0227907, 35.889251 ], [ 140.0228244, 35.8892386 ], [ 140.023760900000013, 35.8886863 ], [ 140.023543100000012, 35.8884248 ], [ 140.0233572, 35.8882147 ], [ 140.0223121, 35.8888185 ], [ 140.0227162, 35.8892869 ] ] ] ] } },
{ "type": "Feature", "properties": { "fid": 381, "氏名": "日暮 久修", "明細/圃場地番": "北新田1488,北新田1489", "地番": "1488,1489", "layer": "久寺家", "面積": 48.16, "ｗｋｔ": "17954b50e8f10066988ef7e482fa5f5b", "計算面積": 24 }, "geometry": { "type": "MultiPolygon", "coordinates": [ [ [ [ 140.028597, 35.8960391 ], [ 140.0275509, 35.8966494 ], [ 140.027683200000013, 35.8968005 ], [ 140.0287304, 35.8961927 ], [ 140.028597, 35.8960391 ] ] ] ] } },
{ "type": "Feature", "properties": { "fid": 413, "氏名": "中谷 富士男", "明細/圃場地番": "北新田1285,北新田1286", "地番": "1285,1286", "layer": "久寺家", "面積": 112.18, "ｗｋｔ": "bd3d35591f4ba1555b383e7526f8398d", "計算面積": 56 }, "geometry": { "type": "MultiPolygon", "coordinates": [ [ [ [ 140.02317110300001, 35.886042809 ], [ 140.024181612, 35.885454642 ], [ 140.023870362, 35.885097533 ], [ 140.022856368, 35.885685691 ], [ 140.022868098, 35.885710414 ], [ 140.022846786, 35.885721152 ], [ 140.0229415, 35.88582883 ], [ 140.023141947999989, 35.886059778 ], [ 140.02317110300001, 35.886042809 ] ] ] ] } },
{ "type": "Feature", "properties": { "fid": 555, "氏名": "澁谷 明弘", "明細/圃場地番": "北新田685,北新田686,北新田687", "地番": "685~687", "layer": "久寺家", "面積": 88.05, "ｗｋｔ": "6c75359742890f950a658d86a2579519", "計算面積": 29 }, "geometry": { "type": "MultiPolygon", "coordinates": [ [ [ [ 140.0360996, 35.8878338 ], [ 140.037133899999986, 35.8872055 ], [ 140.0369786, 35.8870301 ], [ 140.0359302, 35.8876395 ], [ 140.0360996, 35.8878338 ] ] ] ] } }
]
}
