{
"type": "FeatureCollection",
"name": "古戸",
"crs": { "type": "name", "properties": { "name": "urn:ogc:def:crs:OGC:1.3:CRS84" } },
"features": [
{ "type": "Feature", "properties": { "fid": 1, "明細/氏名": "宮久保 由美江", "明細/地名地番": "新木字根株120、121", "検索_AreaOnRegistry": 2810, "検索_Address": "新木字根株120,新木字根株121", "検索_Tiban": "120,121", "地番": "120、121" }, "geometry": { "type": "MultiPolygon", "coordinates": [ [ [ [ 140.106100790999989, 35.873117774 ], [ 140.105963154, 35.872873624 ], [ 140.104926524, 35.873251258 ], [ 140.105066884, 35.873503322 ], [ 140.106100790999989, 35.873117774 ] ] ] ] } },
{ "type": "Feature", "properties": { "fid": 2, "明細/氏名": "染谷 正", "明細/地名地番": "古戸字坂下473-1~3", "検索_AreaOnRegistry": 3500, "検索_Address": "古戸字坂下473-1,古戸字坂下473-2,古戸字坂下473-3", "検索_Tiban": "473-1,473-2,473-3", "地番": "473-1~3" }, "geometry": { "type": "MultiPolygon", "coordinates": [ [ [ [ 140.098655226, 35.873688169 ], [ 140.099684758, 35.873302257 ], [ 140.099526520000012, 35.873012188 ], [ 140.098490401, 35.873401492 ], [ 140.098655226, 35.873688169 ] ] ] ] } },
{ "type": "Feature", "properties": { "fid": 3, "明細/氏名": "染谷 正", "明細/地名地番": "古戸字坂下474", "検索_AreaOnRegistry": 3391, "検索_Address": "古戸字坂下474", "検索_Tiban": "474", "地番": "474" }, "geometry": { "type": "MultiPolygon", "coordinates": [ [ [ [ 140.098490401, 35.873401492 ], [ 140.099526520000012, 35.873012188 ], [ 140.099376525999986, 35.87273622 ], [ 140.098337242000014, 35.873125845 ], [ 140.098490401, 35.873401492 ] ] ] ] } },
{ "type": "Feature", "properties": { "fid": 4, "明細/氏名": "染谷 清", "明細/地名地番": "古戸字永婦491", "検索_AreaOnRegistry": 4051, "検索_Address": "古戸字永婦491-1", "検索_Tiban": "491-1", "地番": "491" }, "geometry": { "type": "MultiPolygon", "coordinates": [ [ [ [ 140.100706057999986, 35.872734142 ], [ 140.100517393, 35.872401532 ], [ 140.099481824, 35.872787245 ], [ 140.099663373999988, 35.873112011 ], [ 140.100706057999986, 35.872734142 ] ] ] ] } },
{ "type": "Feature", "properties": { "fid": 5, "明細/氏名": "染谷 清", "明細/地名地番": "古戸字戸幡741", "検索_AreaOnRegistry": 3512, "検索_Address": "古戸字戸幡741", "検索_Tiban": "741", "地番": "741" }, "geometry": { "type": "MultiPolygon", "coordinates": [ [ [ [ 140.103438983, 35.875227209 ], [ 140.104476204, 35.874847309 ], [ 140.104317859, 35.874555657 ], [ 140.103282318, 35.87494224 ], [ 140.103438983, 35.875227209 ] ] ] ] } },
{ "type": "Feature", "properties": { "fid": 6, "明細/氏名": "阿曽 弘", "明細/地名地番": "古戸字溜之内345", "検索_AreaOnRegistry": 1227, "検索_Address": "古戸字溜之内345", "検索_Tiban": "345", "地番": "345" }, "geometry": { "type": "MultiPolygon", "coordinates": [ [ [ [ 140.094982058999989, 35.869312325 ], [ 140.094865077, 35.869085871 ], [ 140.094396317, 35.869261831 ], [ 140.094519872, 35.869486486 ], [ 140.094982058999989, 35.869312325 ] ] ] ] } },
{ "type": "Feature", "properties": { "fid": 7, "明細/氏名": "阿曽 弘", "明細/地名地番": "古戸字溜之内348", "検索_AreaOnRegistry": 1357, "検索_Address": "古戸字溜之内348", "検索_Tiban": "348", "地番": "348" }, "geometry": { "type": "MultiPolygon", "coordinates": [ [ [ [ 140.09509374000001, 35.869960589 ], [ 140.09525366, 35.869904902 ], [ 140.095288697, 35.86988876 ], [ 140.095282006, 35.869854858 ], [ 140.094990865, 35.869355661 ], [ 140.094793686, 35.86942744 ], [ 140.09509374000001, 35.869960589 ] ] ] ] } },
{ "type": "Feature", "properties": { "fid": 8, "明細/氏名": "阿曽 弘", "明細/地名地番": "古戸字永婦494", "検索_AreaOnRegistry": 2990, "検索_Address": "古戸字永婦494", "検索_Tiban": "494", "地番": "494" }, "geometry": { "type": "MultiPolygon", "coordinates": [ [ [ [ 140.099814292, 35.873381979 ], [ 140.099960585, 35.873622039 ], [ 140.09998148, 35.873614304 ], [ 140.100989935, 35.873240998 ], [ 140.100854908, 35.872996557 ], [ 140.099814292, 35.873381979 ] ] ] ] } },
{ "type": "Feature", "properties": { "fid": 9, "明細/氏名": "阿曽 弘", "明細/地名地番": "古戸字永婦495", "検索_AreaOnRegistry": 1947, "検索_Address": "古戸字永婦495", "検索_Tiban": "495", "地番": "495" }, "geometry": { "type": "MultiPolygon", "coordinates": [ [ [ [ 140.100989935, 35.873240998 ], [ 140.09998148, 35.873614304 ], [ 140.099988444, 35.873628367 ], [ 140.099968733999987, 35.873636952 ], [ 140.100048606, 35.873783124 ], [ 140.101075216999988, 35.873395384 ], [ 140.100989935, 35.873240998 ] ] ] ] } },
{ "type": "Feature", "properties": { "fid": 10, "明細/氏名": "阿曽 弘", "明細/地名地番": "古戸字永婦498", "検索_AreaOnRegistry": 2933, "検索_Address": "古戸字永婦498", "検索_Tiban": "498", "地番": "498" }, "geometry": { "type": "MultiPolygon", "coordinates": [ [ [ [ 140.100048606, 35.873783124 ], [ 140.100169435, 35.874004246 ], [ 140.100180629, 35.874024736 ], [ 140.101211471999989, 35.873642046 ], [ 140.101075216999988, 35.873395384 ], [ 140.100048606, 35.873783124 ] ] ] ] } },
{ "type": "Feature", "properties": { "fid": 11, "明細/氏名": "深山 幸雄", "明細/地名地番": "古戸字永婦688、689", "検索_AreaOnRegistry": 4208, "検索_Address": "古戸字永婦688,古戸字永婦689", "検索_Tiban": "688,689", "地番": "688、689" }, "geometry": { "type": "MultiPolygon", "coordinates": [ [ [ [ 140.103403910999987, 35.870674644 ], [ 140.103216008, 35.87033901 ], [ 140.10318479, 35.870349255 ], [ 140.102214022, 35.870705017 ], [ 140.10240699, 35.871051263 ], [ 140.103403910999987, 35.870674644 ] ] ] ] } },
{ "type": "Feature", "properties": { "fid": 12, "明細/氏名": "深山 幸雄", "明細/地名地番": "古戸字谷下779", "検索_AreaOnRegistry": 3679, "検索_Address": "古戸字谷下779", "検索_Tiban": "779", "地番": "779" }, "geometry": { "type": "MultiPolygon", "coordinates": [ [ [ [ 140.106558315, 35.873884125 ], [ 140.107599448, 35.873501444 ], [ 140.107406807, 35.873155555 ], [ 140.106369668000013, 35.873545988 ], [ 140.106558315, 35.873884125 ] ] ] ] } },
{ "type": "Feature", "properties": { "fid": 13, "明細/氏名": "深山 幸雄", "明細/地名地番": "古戸字谷下780", "検索_AreaOnRegistry": 3480, "検索_Address": "古戸字谷下780", "検索_Tiban": "780", "地番": "780" }, "geometry": { "type": "MultiPolygon", "coordinates": [ [ [ [ 140.106369668000013, 35.873545988 ], [ 140.107406807, 35.873155555 ], [ 140.107262424999988, 35.87289631 ], [ 140.106226907, 35.873290098 ], [ 140.106369668000013, 35.873545988 ] ] ] ] } },
{ "type": "Feature", "properties": { "fid": 14, "明細/氏名": "染谷 薫", "明細/地名地番": "古戸字永婦674、675", "検索_AreaOnRegistry": 6144, "検索_Address": "古戸字永婦674,古戸字永婦675", "検索_Tiban": "674,675", "地番": "674、675" }, "geometry": { "type": "MultiPolygon", "coordinates": [ [ [ [ 140.102948031000011, 35.874264667 ], [ 140.102973016, 35.874259523 ], [ 140.103934482, 35.873913951 ], [ 140.103648881999987, 35.873404484 ], [ 140.102644438999988, 35.873776491 ], [ 140.102916775000011, 35.874264737 ], [ 140.102948031000011, 35.874264667 ] ] ] ] } },
{ "type": "Feature", "properties": { "fid": 15, "明細/氏名": "染谷 薫", "明細/地名地番": "古戸字戸幡721、722", "検索_AreaOnRegistry": 6613, "検索_Address": "古戸字戸幡721,古戸字戸幡722", "検索_Tiban": "721,722", "地番": "721、722" }, "geometry": { "type": "MultiPolygon", "coordinates": [ [ [ [ 140.100914462, 35.875275607 ], [ 140.100893723000013, 35.875292578 ], [ 140.101177798, 35.875824715 ], [ 140.102216427, 35.875443219 ], [ 140.101913951, 35.874884513 ], [ 140.1009118, 35.875256994 ], [ 140.100914462, 35.875275607 ] ] ] ] } },
{ "type": "Feature", "properties": { "fid": 16, "明細/氏名": "増田 建男", "明細/地名地番": "古戸字坂下437", "検索_AreaOnRegistry": 1387, "検索_Address": "古戸字坂下437", "検索_Tiban": "437", "地番": "437" }, "geometry": { "type": "MultiPolygon", "coordinates": [ [ [ [ 140.097722353, 35.872064674 ], [ 140.097591042, 35.87182384 ], [ 140.097227917999987, 35.871964759 ], [ 140.097161922999987, 35.871998532 ], [ 140.097144171, 35.87204453 ], [ 140.097115542000012, 35.872133149 ], [ 140.097085596999989, 35.872239706 ], [ 140.097040404000012, 35.872317151 ], [ 140.097722353, 35.872064674 ] ] ] ] } },
{ "type": "Feature", "properties": { "fid": 17, "明細/氏名": "増田 建男", "明細/地名地番": "古戸字谷下762", "検索_AreaOnRegistry": 4884, "検索_Address": "古戸字谷下762", "検索_Tiban": "762", "地番": "762" }, "geometry": { "type": "MultiPolygon", "coordinates": [ [ [ [ 140.10516741, 35.873678749 ], [ 140.105388137, 35.874087635 ], [ 140.106426814, 35.873711886 ], [ 140.106200231, 35.873301826 ], [ 140.10516741, 35.873678749 ] ] ] ] } },
{ "type": "Feature", "properties": { "fid": 18, "明細/氏名": "栗山 和夫", "明細/地名地番": "古戸字永婦657", "検索_AreaOnRegistry": 4508, "検索_Address": "古戸字永婦657", "検索_Tiban": "657", "地番": "657" }, "geometry": { "type": "MultiPolygon", "coordinates": [ [ [ [ 140.100763584, 35.87278608 ], [ 140.101775807, 35.872414059 ], [ 140.101574860999989, 35.872044734 ], [ 140.100554706999986, 35.872412005 ], [ 140.100763584, 35.87278608 ] ] ] ] } },
{ "type": "Feature", "properties": { "fid": 19, "明細/氏名": "栗山 正", "明細/地名地番": "古戸字坂下450", "検索_AreaOnRegistry": 3000, "検索_Address": "古戸字坂下450", "検索_Tiban": "450", "地番": "450" }, "geometry": { "type": "MultiPolygon", "coordinates": [ [ [ [ 140.098430382, 35.87335119 ], [ 140.097406423, 35.873737293 ], [ 140.097484348, 35.873871321 ], [ 140.098505001, 35.873485705 ], [ 140.098430382, 35.87335119 ] ] ] ] } },
{ "type": "Feature", "properties": { "fid": 20, "明細/氏名": "栗山 正", "明細/地名地番": "古戸字坂下451", "検索_AreaOnRegistry": 1218, "検索_Address": "古戸字坂下451", "検索_Tiban": "451", "地番": "451" }, "geometry": { "type": "MultiPolygon", "coordinates": [ [ [ [ 140.098626166, 35.873700137 ], [ 140.098569506, 35.873599152 ], [ 140.097542731, 35.873975704 ], [ 140.097598033999986, 35.874080167 ], [ 140.098626166, 35.873700137 ] ] ] ] } },
{ "type": "Feature", "properties": { "fid": 21, "明細/氏名": "栗山 正", "明細/地名地番": "古戸字坂下452", "検索_AreaOnRegistry": 3000, "検索_Address": "古戸字坂下452", "検索_Tiban": "452", "地番": "452" }, "geometry": { "type": "MultiPolygon", "coordinates": [ [ [ [ 140.098764165, 35.873946093 ], [ 140.098626166, 35.873700137 ], [ 140.097598033999986, 35.874080167 ], [ 140.097735155, 35.874325535 ], [ 140.098764165, 35.873946093 ] ] ] ] } },
{ "type": "Feature", "properties": { "fid": 22, "明細/氏名": "栗山 正", "明細/地名地番": "古戸字坂下453", "検索_AreaOnRegistry": 3000, "検索_Address": "古戸字坂下453", "検索_Tiban": "453", "地番": "453" }, "geometry": { "type": "MultiPolygon", "coordinates": [ [ [ [ 140.098900883, 35.874189763 ], [ 140.098764165, 35.873946093 ], [ 140.097735155, 35.874325535 ], [ 140.097870642, 35.874567977 ], [ 140.098900883, 35.874189763 ] ] ] ] } },
{ "type": "Feature", "properties": { "fid": 23, "明細/氏名": "染谷 勝己", "明細/地名地番": "古戸字永婦670", "検索_AreaOnRegistry": 5040, "検索_Address": "古戸字永婦670", "検索_Tiban": "670", "地番": "670" }, "geometry": { "type": "MultiPolygon", "coordinates": [ [ [ [ 140.102055184, 35.872720048 ], [ 140.103057179, 35.872348955 ], [ 140.102832436999989, 35.871941849 ], [ 140.101833037, 35.872320768 ], [ 140.102055184, 35.872720048 ] ] ] ] } },
{ "type": "Feature", "properties": { "fid": 24, "明細/氏名": "増田 一敏", "明細/地名地番": "古戸字坂下429", "検索_AreaOnRegistry": 2862, "検索_Address": "古戸字坂下429", "検索_Tiban": "429", "地番": "429" }, "geometry": { "type": "MultiPolygon", "coordinates": [ [ [ [ 140.098871623, 35.871837981 ], [ 140.098739711, 35.871597236 ], [ 140.097704596, 35.871980485 ], [ 140.097840009, 35.872233713 ], [ 140.098851027, 35.871856523 ], [ 140.098871623, 35.871837981 ] ] ] ] } },
{ "type": "Feature", "properties": { "fid": 25, "明細/氏名": "増田 一敏", "明細/地名地番": "古戸字坂下480", "検索_AreaOnRegistry": 3036, "検索_Address": "古戸字坂下480", "検索_Tiban": "480", "地番": "480" }, "geometry": { "type": "MultiPolygon", "coordinates": [ [ [ [ 140.099052389, 35.872160405 ], [ 140.098929013, 35.871939229 ], [ 140.098881705, 35.871917792 ], [ 140.097872141000011, 35.872290811 ], [ 140.09801823, 35.872553099 ], [ 140.099052389, 35.872160405 ] ] ] ] } },
{ "type": "Feature", "properties": { "fid": 26, "明細/氏名": "増田 一敏", "明細/地名地番": "古戸字永婦655", "検索_AreaOnRegistry": 3111, "検索_Address": "古戸字永婦655", "検索_Tiban": "655", "地番": "655" }, "geometry": { "type": "MultiPolygon", "coordinates": [ [ [ [ 140.10105447, 35.873312366 ], [ 140.102067452999989, 35.87293592 ], [ 140.10192694700001, 35.872691844 ], [ 140.100911711, 35.873063187 ], [ 140.10105447, 35.873312366 ] ] ] ] } },
{ "type": "Feature", "properties": { "fid": 27, "明細/氏名": "島田 幸一", "明細/地名地番": "古戸字坂下472", "検索_AreaOnRegistry": 2513, "検索_Address": "古戸字坂下472", "検索_Tiban": "472", "地番": "472" }, "geometry": { "type": "MultiPolygon", "coordinates": [ [ [ [ 140.098655226, 35.873688169 ], [ 140.098773834000013, 35.873894462 ], [ 140.099801189, 35.873515686 ], [ 140.099684758, 35.873302257 ], [ 140.098655226, 35.873688169 ] ] ] ] } },
{ "type": "Feature", "properties": { "fid": 28, "明細/氏名": "金子 弘行", "明細/地名地番": "古戸字永婦686", "検索_AreaOnRegistry": 2742, "検索_Address": "古戸字永婦686", "検索_Tiban": "686", "地番": "686" }, "geometry": { "type": "MultiPolygon", "coordinates": [ [ [ [ 140.102633514, 35.871457715 ], [ 140.103633648, 35.871084998 ], [ 140.103509981, 35.870864104 ], [ 140.102509589, 35.871233462 ], [ 140.102633514, 35.871457715 ] ] ] ] } },
{ "type": "Feature", "properties": { "fid": 29, "明細/氏名": "染谷 智毅", "明細/地名地番": "古戸字永婦486", "検索_AreaOnRegistry": 3000, "検索_Address": "古戸字永婦486", "検索_Tiban": "486", "地番": "486" }, "geometry": { "type": "MultiPolygon", "coordinates": [ [ [ [ 140.100150467, 35.871754644 ], [ 140.100011261, 35.871509221 ], [ 140.098983749000013, 35.871896244 ], [ 140.099116345, 35.872133446 ], [ 140.100150467, 35.871754644 ] ] ] ] } },
{ "type": "Feature", "properties": { "fid": 30, "明細/氏名": "染谷 智毅", "明細/地名地番": "古戸字永婦487", "検索_AreaOnRegistry": 3000, "検索_Address": "古戸字永婦487", "検索_Tiban": "487", "地番": "487" }, "geometry": { "type": "MultiPolygon", "coordinates": [ [ [ [ 140.100292194, 35.872004508 ], [ 140.100150467, 35.871754644 ], [ 140.099116345, 35.872133446 ], [ 140.099254627, 35.872380818 ], [ 140.100292194, 35.872004508 ] ] ] ] } },
{ "type": "Feature", "properties": { "fid": 31, "明細/氏名": "染谷 智毅", "明細/地名地番": "古戸字永婦488", "検索_AreaOnRegistry": 2806, "検索_Address": "古戸字永婦488", "検索_Tiban": "488", "地番": "488" }, "geometry": { "type": "MultiPolygon", "coordinates": [ [ [ [ 140.100418725999987, 35.872227584 ], [ 140.100292194, 35.872004508 ], [ 140.099254627, 35.872380818 ], [ 140.099380268, 35.872605574 ], [ 140.100418725999987, 35.872227584 ] ] ] ] } },
{ "type": "Feature", "properties": { "fid": 32, "明細/氏名": "染谷 智毅", "明細/地名地番": "古戸字永婦652、653", "検索_AreaOnRegistry": 4200, "検索_Address": "古戸字永婦652,古戸字永婦653", "検索_Tiban": "652,653", "地番": "652、653" }, "geometry": { "type": "MultiPolygon", "coordinates": [ [ [ [ 140.102405675999989, 35.873523448 ], [ 140.10220933, 35.873182375 ], [ 140.101191644000011, 35.873553278 ], [ 140.101388056, 35.87390468 ], [ 140.102405675999989, 35.873523448 ] ] ] ] } },
{ "type": "Feature", "properties": { "fid": 33, "明細/氏名": "阿曽 義弘", "明細/地名地番": "古戸字溜之内349", "検索_AreaOnRegistry": 2468, "検索_Address": "古戸字溜之内349", "検索_Tiban": "349", "地番": "349" }, "geometry": { "type": "MultiPolygon", "coordinates": [ [ [ [ 140.094384082, 35.86957655 ], [ 140.094657628, 35.870061505 ], [ 140.094732177999987, 35.870055987 ], [ 140.094819840000014, 35.87003616 ], [ 140.094933790999988, 35.87000735 ], [ 140.09509374000001, 35.869960589 ], [ 140.094793686, 35.86942744 ], [ 140.094384082, 35.86957655 ] ] ] ] } },
{ "type": "Feature", "properties": { "fid": 34, "明細/氏名": "阿曽 義弘", "明細/地名地番": "古戸字坂下454、455", "検索_AreaOnRegistry": 4107, "検索_Address": "古戸字坂下454,古戸字坂下455", "検索_Tiban": "454,455", "地番": "454、455" }, "geometry": { "type": "MultiPolygon", "coordinates": [ [ [ [ 140.099088875, 35.874524817 ], [ 140.098900883, 35.874189763 ], [ 140.097870642, 35.874567977 ], [ 140.098059285, 35.874905533 ], [ 140.099088875, 35.874524817 ] ] ] ] } },
{ "type": "Feature", "properties": { "fid": 35, "明細/氏名": "阿曽 義弘", "明細/地名地番": "古戸字坂下456", "検索_AreaOnRegistry": 3400, "検索_Address": "古戸字坂下456", "検索_Tiban": "456", "地番": "456" }, "geometry": { "type": "MultiPolygon", "coordinates": [ [ [ [ 140.098059285, 35.874905533 ], [ 140.098218577000011, 35.875185386 ], [ 140.099242693, 35.874805051 ], [ 140.099088875, 35.874524817 ], [ 140.098059285, 35.874905533 ] ] ] ] } },
{ "type": "Feature", "properties": { "fid": 36, "明細/氏名": "阿曽 義弘", "明細/地名地番": "古戸字永婦683", "検索_AreaOnRegistry": 3924, "検索_Address": "古戸字永婦683", "検索_Tiban": "683", "地番": "683" }, "geometry": { "type": "MultiPolygon", "coordinates": [ [ [ [ 140.103154212, 35.872391981 ], [ 140.104156189, 35.872018334 ], [ 140.103975784999989, 35.871696108 ], [ 140.102977898, 35.87207563 ], [ 140.103154212, 35.872391981 ] ] ] ] } },
{ "type": "Feature", "properties": { "fid": 37, "明細/氏名": "島田 東一", "明細/地名地番": "中峠字見出2433", "検索_AreaOnRegistry": 2746, "検索_Address": "中峠字見出2433", "検索_Tiban": "2433", "地番": "2433" }, "geometry": { "type": "MultiPolygon", "coordinates": [ [ [ [ 140.097144039, 35.873443145 ], [ 140.097149492999989, 35.873426692 ], [ 140.096981319, 35.873100622 ], [ 140.096950990000011, 35.873091722 ], [ 140.096745973, 35.873150461 ], [ 140.096714403, 35.873183038 ], [ 140.096689798999989, 35.873239139 ], [ 140.09666518200001, 35.873291878 ], [ 140.096613176, 35.873391758 ], [ 140.096558316, 35.873461377 ], [ 140.096470446000012, 35.87354452 ], [ 140.09626744, 35.873726447 ], [ 140.096296647, 35.873754296 ], [ 140.097144039, 35.873443145 ] ] ] ] } },
{ "type": "Feature", "properties": { "fid": 38, "明細/氏名": "島田 東一", "明細/地名地番": "古戸字坂下443、445", "検索_AreaOnRegistry": 3632, "検索_Address": "古戸字坂下443,古戸字坂下445", "検索_Tiban": "443,445", "地番": "443、445" }, "geometry": { "type": "MultiPolygon", "coordinates": [ [ [ [ 140.097967304, 35.872527426 ], [ 140.096940710000013, 35.872892796 ], [ 140.097105494, 35.873198792 ], [ 140.098129936, 35.872815693 ], [ 140.097967304, 35.872527426 ] ] ] ] } },
{ "type": "Feature", "properties": { "fid": 39, "明細/氏名": "島田 東一", "明細/地名地番": "古戸字永婦687", "検索_AreaOnRegistry": 2293, "検索_Address": "古戸字永婦687", "検索_Tiban": "687", "地番": "687" }, "geometry": { "type": "MultiPolygon", "coordinates": [ [ [ [ 140.102509589, 35.871233462 ], [ 140.103509981, 35.870864104 ], [ 140.103403910999987, 35.870674644 ], [ 140.10240699, 35.871051263 ], [ 140.102509589, 35.871233462 ] ] ] ] } },
{ "type": "Feature", "properties": { "fid": 40, "明細/氏名": "平川 誠", "明細/地名地番": "古戸字坂下447", "検索_AreaOnRegistry": 2585, "検索_Address": "古戸字坂下447", "検索_Tiban": "447", "地番": "447" }, "geometry": { "type": "MultiPolygon", "coordinates": [ [ [ [ 140.098186957, 35.872917324 ], [ 140.097160403, 35.87329705 ], [ 140.097282837, 35.873516141 ], [ 140.098308618, 35.873134165 ], [ 140.098186957, 35.872917324 ] ] ] ] } },
{ "type": "Feature", "properties": { "fid": 41, "明細/氏名": "平川 誠", "明細/地名地番": "古戸字谷下763", "検索_AreaOnRegistry": 4026, "検索_Address": "古戸字谷下763", "検索_Tiban": "763", "地番": "763" }, "geometry": { "type": "MultiPolygon", "coordinates": [ [ [ [ 140.105388137, 35.874087635 ], [ 140.105570604, 35.874425201 ], [ 140.106616226999989, 35.874042005 ], [ 140.106426814, 35.873711886 ], [ 140.105388137, 35.874087635 ] ] ] ] } },
{ "type": "Feature", "properties": { "fid": 42, "明細/氏名": "平川 誠", "明細/地名地番": "古戸字永婦685", "検索_AreaOnRegistry": 4043, "検索_Address": "古戸字永婦685", "検索_Tiban": "685", "地番": "685" }, "geometry": { "type": "MultiPolygon", "coordinates": [ [ [ [ 140.10281901, 35.871790544 ], [ 140.103819728, 35.871417368 ], [ 140.103633648, 35.871084998 ], [ 140.102633514, 35.871457715 ], [ 140.10281901, 35.871790544 ] ] ] ] } },
{ "type": "Feature", "properties": { "fid": 43, "明細/氏名": "平川 誠", "明細/地名地番": "新木字壱丁田16", "検索_AreaOnRegistry": 3096, "検索_Address": "新木字壱丁田16", "検索_Tiban": "16", "地番": "16" }, "geometry": { "type": "MultiPolygon", "coordinates": [ [ [ [ 140.099564745, 35.870701298 ], [ 140.098532203, 35.871076808 ], [ 140.098676137000012, 35.871338419 ], [ 140.099706092, 35.870958054 ], [ 140.099564745, 35.870701298 ] ] ] ] } },
{ "type": "Feature", "properties": { "fid": 44, "明細/氏名": "尾井川 靖", "明細/地名地番": "古戸字坂下457", "検索_AreaOnRegistry": 2064, "検索_Address": "古戸字坂下457", "検索_Tiban": "457", "地番": "457" }, "geometry": { "type": "MultiPolygon", "coordinates": [ [ [ [ 140.098218577000011, 35.875185386 ], [ 140.098229165, 35.875203985 ], [ 140.098335637, 35.875409142 ], [ 140.099359781, 35.875018368 ], [ 140.099242693, 35.874805051 ], [ 140.098218577000011, 35.875185386 ] ] ] ] } },
{ "type": "Feature", "properties": { "fid": 45, "明細/氏名": "尾井川 靖", "明細/地名地番": "古戸字坂下458", "検索_AreaOnRegistry": 3000, "検索_Address": "古戸字坂下458", "検索_Tiban": "458", "地番": "458" }, "geometry": { "type": "MultiPolygon", "coordinates": [ [ [ [ 140.098335637, 35.875409142 ], [ 140.098474329, 35.875645919 ], [ 140.098495451, 35.875636561 ], [ 140.099495693, 35.875261945 ], [ 140.099426508, 35.875139932 ], [ 140.099359781, 35.875018368 ], [ 140.098335637, 35.875409142 ] ] ] ] } },
{ "type": "Feature", "properties": { "fid": 46, "明細/氏名": "尾井川 靖", "明細/地名地番": "古戸字坂下459", "検索_AreaOnRegistry": 3000, "検索_Address": "古戸字坂下459", "検索_Tiban": "459", "地番": "459" }, "geometry": { "type": "MultiPolygon", "coordinates": [ [ [ [ 140.098474329, 35.875645919 ], [ 140.098613109000013, 35.875909177 ], [ 140.09964530100001, 35.875518482 ], [ 140.099495693, 35.875261945 ], [ 140.098495451, 35.875636561 ], [ 140.098474329, 35.875645919 ] ] ] ] } },
{ "type": "Feature", "properties": { "fid": 47, "明細/氏名": "尾井川 靖", "明細/地名地番": "古戸字戸幡730", "検索_AreaOnRegistry": 1932, "検索_Address": "古戸字戸幡730", "検索_Tiban": "730", "地番": "730" }, "geometry": { "type": "MultiPolygon", "coordinates": [ [ [ [ 140.102917016, 35.875420618 ], [ 140.103371716999987, 35.875251992 ], [ 140.10328435400001, 35.875097532 ], [ 140.102252239, 35.87547609 ], [ 140.102337655000014, 35.875635468 ], [ 140.10250381, 35.875573851 ], [ 140.102917016, 35.875420618 ] ] ] ] } },
{ "type": "Feature", "properties": { "fid": 48, "明細/氏名": "尾井川 靖", "明細/地名地番": "新木字壱丁田9", "検索_AreaOnRegistry": 2610, "検索_Address": "新木字壱丁田9", "検索_Tiban": "9", "地番": "9" }, "geometry": { "type": "MultiPolygon", "coordinates": [ [ [ [ 140.097797504999988, 35.869753825 ], [ 140.097876069, 35.869894751 ], [ 140.09789999, 35.869937187 ], [ 140.097964837, 35.869955544 ], [ 140.098946251, 35.869585479 ], [ 140.098826019, 35.869371652 ], [ 140.097797504999988, 35.869753825 ] ] ] ] } },
{ "type": "Feature", "properties": { "fid": 49, "明細/氏名": "阿曽 隆雄", "明細/地名地番": "古戸字坂下449", "検索_AreaOnRegistry": 2621, "検索_Address": "古戸字坂下449", "検索_Tiban": "449", "地番": "449" }, "geometry": { "type": "MultiPolygon", "coordinates": [ [ [ [ 140.098308618, 35.873134165 ], [ 140.097282837, 35.873516141 ], [ 140.097406423, 35.873737293 ], [ 140.098430382, 35.87335119 ], [ 140.098308618, 35.873134165 ] ] ] ] } },
{ "type": "Feature", "properties": { "fid": 50, "明細/氏名": "阿曽 隆雄", "明細/地名地番": "古戸字永婦658", "検索_AreaOnRegistry": 2568, "検索_Address": "古戸字永婦658", "検索_Tiban": "658", "地番": "658" }, "geometry": { "type": "MultiPolygon", "coordinates": [ [ [ [ 140.100554706999986, 35.872412005 ], [ 140.101574860999989, 35.872044734 ], [ 140.101460373, 35.871834309 ], [ 140.100439201, 35.872209558 ], [ 140.100554706999986, 35.872412005 ] ] ] ] } },
{ "type": "Feature", "properties": { "fid": 51, "明細/氏名": "阿曽 隆雄", "明細/地名地番": "新木字壱丁田14", "検索_AreaOnRegistry": 3008, "検索_Address": "新木字壱丁田14", "検索_Tiban": "14", "地番": "14" }, "geometry": { "type": "MultiPolygon", "coordinates": [ [ [ [ 140.09929638, 35.870213808 ], [ 140.098268682, 35.870597835 ], [ 140.098405928, 35.870847294 ], [ 140.099440041, 35.87047477 ], [ 140.09929638, 35.870213808 ] ] ] ] } },
{ "type": "Feature", "properties": { "fid": 52, "明細/氏名": "宮久保 勝", "明細/地名地番": "古戸字坂下479", "検索_AreaOnRegistry": 3427, "検索_Address": "古戸字坂下479", "検索_Tiban": "479", "地番": "479" }, "geometry": { "type": "MultiPolygon", "coordinates": [ [ [ [ 140.099214262, 35.872450595 ], [ 140.099052389, 35.872160405 ], [ 140.09801823, 35.872553099 ], [ 140.098174506, 35.872833675 ], [ 140.099214262, 35.872450595 ] ] ] ] } },
{ "type": "Feature", "properties": { "fid": 53, "明細/氏名": null, "明細/地名地番": "古戸字坂下417", "検索_AreaOnRegistry": 959, "検索_Address": "古戸字坂下417", "検索_Tiban": "417", "地番": "417" }, "geometry": { "type": "MultiPolygon", "coordinates": [ [ [ [ 140.097251215, 35.87005046 ], [ 140.097288285, 35.870114523 ], [ 140.097341205, 35.870200092 ], [ 140.097852298, 35.870003796 ], [ 140.097777911, 35.869870965 ], [ 140.097753632, 35.869879288 ], [ 140.097744493, 35.869864332 ], [ 140.097251215, 35.87005046 ] ] ] ] } }
]
}
