{
"type": "FeatureCollection",
"name": "白子",
"crs": { "type": "name", "properties": { "name": "urn:ogc:def:crs:OGC:1.3:CRS84" } },
"features": [
{"type":"Feature","properties":{"fid":1,"polygon_uuid":"4eb2ed87-78db-4961-972a-4f631ec735eb","daicho_shubetsu_cd":"FUD25","layer":"筆ポリゴン（2025年公開）_20260511170548","path":"C:/Users/千葉05/Downloads/筆ポリゴン（2025年公開）_20260511170548.geojson","fid_2":1,"remark":1,"area":30.0},"geometry":{"type":"Polygon","coordinates":[[[140.405062678,35.506681432],[140.405066678,35.506694937],[140.405220994,35.506982068],[140.405232579999989,35.506999418],[140.405250609,35.507002011],[140.405957865,35.506754977],[140.405964262,35.506733524],[140.405964053,35.506704069],[140.405962111,35.506661234],[140.40581409,35.506407965],[140.405062678,35.506681432]]]}},
{"type":"Feature","properties":{"fid":2,"polygon_uuid":"f95f8b3f-d40b-458b-818a-1f01789a28e3","daicho_shubetsu_cd":"FUD25","layer":"筆ポリゴン（2025年公開）_20260511170548","path":"C:/Users/千葉05/Downloads/筆ポリゴン（2025年公開）_20260511170548.geojson","fid_2":2,"remark":2,"area":44.6},"geometry":{"type":"Polygon","coordinates":[[[140.407505969,35.507656333],[140.408268295999989,35.507327704],[140.408030794000013,35.506873252],[140.407251828999989,35.507157373],[140.407505969,35.507656333]]]}},
{"type":"Feature","properties":{"fid":3,"polygon_uuid":"6935a34e-afff-4942-9cef-813c7fe97d91","daicho_shubetsu_cd":"FUD25","layer":"筆ポリゴン（2025年公開）_20260511170650","path":"C:/Users/千葉05/Downloads/筆ポリゴン（2025年公開）_20260511170650.geojson","fid_2":3,"remark":3,"area":69.8},"geometry":{"type":"Polygon","coordinates":[[[140.418210155,35.531306873],[140.418567434000011,35.53117894],[140.418666059,35.53114443],[140.418697220000013,35.531135771],[140.418703239,35.531128652],[140.418690715999986,35.531076248],[140.418648391,35.530980741],[140.418584094000011,35.530845637],[140.418576057,35.530813772],[140.418546908,35.530741242],[140.41852928,35.530702334],[140.41849667,35.530630885],[140.418487843,35.530609658],[140.418470234000011,35.530573585],[140.418450003,35.530534689],[140.418435992000013,35.530516324],[140.418412354999987,35.530485952],[140.418393087999988,35.530460522],[140.418368582999989,35.530430154],[140.418349333,35.530406851],[140.418335369,35.530394867],[140.418312593,35.530363782],[140.418299496,35.530351793],[140.418276811999988,35.530333469],[140.418249669,35.530298152],[140.418218204999988,35.530264982],[140.418184128,35.530230407],[140.41815345,35.530185889],[140.418126527999988,35.530181057],[140.418107493,35.530187531],[140.418039239,35.53022402],[140.417969236,35.53025839],[140.417890575,35.53029493],[140.41774996800001,35.530364737],[140.417622082,35.530430583],[140.417567668,35.530462042],[140.417583444,35.530484653],[140.417562726,35.530498224],[140.417633666,35.530592884],[140.417700202,35.530678349],[140.417724774,35.530717933],[140.41774403,35.530741945],[140.417799820999988,35.530804774],[140.417846246000011,35.530867648],[140.417887388999986,35.530919914],[140.417923205,35.530955189],[140.417952140000011,35.530998297],[140.418039669,35.53110812],[140.418080741000011,35.53115046],[140.418100048000014,35.531181561],[140.418121074,35.531210528],[140.41814380400001,35.531235232],[140.418163039,35.531256408],[140.41818229,35.531279711],[140.418198876,35.53129452],[140.418210155,35.531306873]]]}},
{"type":"Feature","properties":{"fid":4,"polygon_uuid":"6a12c25e-ebbe-4d8c-83ba-1c2ed6abb2ca","daicho_shubetsu_cd":"FUD25","layer":"筆ポリゴン（2025年公開）_20260511170650","path":"C:/Users/千葉05/Downloads/筆ポリゴン（2025年公開）_20260511170650.geojson","fid_2":4,"remark":4,"area":239.4},"geometry":{"type":"Polygon","coordinates":[[[140.416043425999987,35.527473999],[140.415720779999987,35.526920971],[140.415212822,35.52714932],[140.415268135,35.527354414],[140.415370715,35.527644359],[140.415407131,35.527717527],[140.415450830999987,35.527805327],[140.415675682,35.528129886],[140.415827532,35.528321036],[140.416128407,35.528699777],[140.416289884,35.528897552],[140.416533504,35.529189178],[140.416540879,35.529198105],[140.416530029,35.529213843],[140.416604705999987,35.529306099],[140.416869333,35.529636449],[140.4171464,35.529980929],[140.417280161,35.530156552],[140.417298354,35.53014526],[140.417322606,35.530167863],[140.417346189999989,35.530189844],[140.417314307999987,35.530203442],[140.417500282,35.530409437],[140.417617731,35.530351356],[140.417852601,35.530231458],[140.418072042,35.530125826],[140.418082027,35.530116815],[140.418060833999988,35.53009227],[140.417977,35.529997818],[140.417869274999987,35.529872112],[140.417843399,35.529844602],[140.417594802,35.529583266],[140.417420704,35.529389166],[140.41704761,35.528969339],[140.417004343,35.528924733],[140.416676329000012,35.528555046],[140.416603902,35.528448111],[140.416363991,35.528026814],[140.41605872400001,35.527500218],[140.416043425999987,35.527473999]]]}},
{"type":"Feature","properties":{"fid":5,"polygon_uuid":"50465d61-1d3a-4dd2-b261-5a4ded2c7983","daicho_shubetsu_cd":"FUD25","layer":"筆ポリゴン（2025年公開）_20260511170650","path":"C:/Users/千葉05/Downloads/筆ポリゴン（2025年公開）_20260511170650.geojson","fid_2":5,"remark":5,"area":43.3},"geometry":{"type":"Polygon","coordinates":[[[140.411165024000013,35.531501719],[140.411194215,35.53148608],[140.411209829,35.531500096],[140.411577297,35.53130389],[140.41097396,35.530542328],[140.41057704,35.530750332],[140.411165024000013,35.531501719]]]}},
{"type":"Feature","properties":{"fid":6,"polygon_uuid":"4f786cd7-4031-426e-8f7b-3cd462391f57","daicho_shubetsu_cd":"FUD25","layer":"筆ポリゴン（2025年公開）_20260511170440","path":"C:/Users/千葉05/Downloads/筆ポリゴン（2025年公開）_20260511170440.geojson","fid_2":6,"remark":6,"area":42.7},"geometry":{"type":"Polygon","coordinates":[[[140.339848933000013,35.485445906],[140.340336822000012,35.485220273],[140.339793682,35.484408172],[140.339720134,35.484585865],[140.339614461,35.484743337],[140.339480345999988,35.484900929],[140.339848933000013,35.485445906]]]}},
{"type":"Feature","properties":{"fid":7,"polygon_uuid":"69c57658-940c-4a45-b6e2-0885290a3e4f","daicho_shubetsu_cd":"FUD25","layer":"筆ポリゴン（2025年公開）_20260511170440","path":"C:/Users/千葉05/Downloads/筆ポリゴン（2025年公開）_20260511170440.geojson","fid_2":7,"remark":7,"area":57.5},"geometry":{"type":"Polygon","coordinates":[[[140.333806718214333,35.486815904019281],[140.333779951,35.486378427],[140.333738141,35.486344068],[140.332678535000014,35.486311963],[140.332652863,35.486312034],[140.332691562339846,35.48686182220235],[140.332761532904527,35.486857449042056],[140.333806718214333,35.486815904019281]]]}},
{"type":"Feature","properties":{"fid":8,"polygon_uuid":"1e73e906-6a4b-4b74-9594-cb42d9a05e51","daicho_shubetsu_cd":"FUD25","layer":"筆ポリゴン（2025年公開）_20260511170440","path":"C:/Users/千葉05/Downloads/筆ポリゴン（2025年公開）_20260511170440.geojson","fid_2":8,"remark":8,"area":43.8},"geometry":{"type":"Polygon","coordinates":[[[140.335194578,35.486380493],[140.33383289,35.486346438],[140.333868121,35.486803371],[140.334678737,35.486770641],[140.334705421,35.486731377],[140.334815239,35.48658899],[140.334981586,35.486472431],[140.335194578,35.486380493]]]}},
{"type":"Feature","properties":{"fid":9,"polygon_uuid":"c5d025b9-9af7-4791-a376-8653b66b0f3c","daicho_shubetsu_cd":"FUD25","layer":"筆ポリゴン（2025年公開）_20260511170440","path":"C:/Users/千葉05/Downloads/筆ポリゴン（2025年公開）_20260511170440.geojson","fid_2":9,"remark":9,"area":44.7},"geometry":{"type":"Polygon","coordinates":[[[140.333907552999989,35.487287413],[140.335030177,35.4872309],[140.335020037,35.48704374],[140.334665293,35.487012178],[140.334597519999988,35.486939047],[140.334678737,35.486770641],[140.333868121,35.486803371],[140.333907552999989,35.487287413]]]}},
{"type":"Feature","properties":{"fid":10,"polygon_uuid":"065bf731-4832-4e8c-b2a2-800afaf68c05","daicho_shubetsu_cd":"FUD25","layer":"筆ポリゴン（2025年公開）_20260511170504","path":"C:/Users/千葉05/Downloads/筆ポリゴン（2025年公開）_20260511170504.geojson","fid_2":10,"remark":10,"area":22.3},"geometry":{"type":"Polygon","coordinates":[[[140.390724511,35.47582588],[140.390465519,35.47540808],[140.390423355,35.475373774],[140.390001389,35.475556134],[140.39003155,35.475605156],[140.39021022,35.475895543],[140.390724511,35.47582588]]]}},
{"type":"Feature","properties":{"fid":11,"polygon_uuid":"f442b80c-915e-40b6-b543-105612445fe3","daicho_shubetsu_cd":"FUD25","layer":"筆ポリゴン（2025年公開）_20260511170504","path":"C:/Users/千葉05/Downloads/筆ポリゴン（2025年公開）_20260511170504.geojson","fid_2":11,"remark":11,"area":20.4},"geometry":{"type":"Polygon","coordinates":[[[140.391556337999987,35.475730986],[140.391148628,35.475079313],[140.390892279000013,35.475187971],[140.391243007000014,35.475766732],[140.391556337999987,35.475730986]]]}},
{"type":"Feature","properties":{"fid":12,"polygon_uuid":"6716b352-a730-425d-9860-105bbee5c19a","daicho_shubetsu_cd":"FUD25","layer":"筆ポリゴン（2025年公開）_20260511170504","path":"C:/Users/千葉05/Downloads/筆ポリゴン（2025年公開）_20260511170504.geojson","fid_2":12,"remark":12,"area":45.9},"geometry":{"type":"Polygon","coordinates":[[[140.391020313000013,35.474818081],[140.39113398500001,35.475009529],[140.39196998,35.474667768],[140.391980069,35.474645375],[140.392003894,35.474634091],[140.391837728000013,35.474285416],[140.391346399000014,35.474474206],[140.391287559,35.474374944],[140.390849212,35.474531894],[140.391020313000013,35.474818081]]]}},
{"type":"Feature","properties":{"fid":13,"polygon_uuid":"35736dae-da3b-41b4-8490-95394ecd139c","daicho_shubetsu_cd":"FUD25","layer":"筆ポリゴン（2025年公開）_20260511170504","path":"C:/Users/千葉05/Downloads/筆ポリゴン（2025年公開）_20260511170504.geojson","fid_2":13,"remark":13,"area":23.8},"geometry":{"type":"Polygon","coordinates":[[[140.392434073,35.475644787],[140.392058678000012,35.474691214],[140.391764486999989,35.474813247],[140.392270171,35.475658773],[140.392434073,35.475644787]]]}},
{"type":"Feature","properties":{"fid":14,"polygon_uuid":"73809370-f046-4b03-96aa-7ac973a4ca14","daicho_shubetsu_cd":"FUD25","layer":"筆ポリゴン（2025年公開）_20260511170504","path":"C:/Users/千葉05/Downloads/筆ポリゴン（2025年公開）_20260511170504.geojson","fid_2":14,"remark":14,"area":60.5},"geometry":{"type":"Polygon","coordinates":[[[140.394990602,35.472144874],[140.395567927,35.47187513],[140.39506079,35.471068841],[140.394487178,35.471328442],[140.394990602,35.472144874]]]}},
{"type":"Feature","properties":{"fid":15,"polygon_uuid":"b9e92c1e-e60c-4c40-995f-402569a84748","daicho_shubetsu_cd":"FUD25","layer":"筆ポリゴン（2025年公開）_20260511170504","path":"C:/Users/千葉05/Downloads/筆ポリゴン（2025年公開）_20260511170504.geojson","fid_2":15,"remark":15,"area":33.7},"geometry":{"type":"Polygon","coordinates":[[[140.396025623000014,35.474074751],[140.396314619,35.473952149],[140.395760859,35.473065817],[140.395724263,35.473079908],[140.395712589,35.473058746],[140.39545088700001,35.473167436],[140.396025623000014,35.474074751]]]}},
{"type":"Feature","properties":{"fid":16,"polygon_uuid":"86487cfe-eb33-4760-94fb-ff8ca5371b0d","daicho_shubetsu_cd":"FUD25","layer":"筆ポリゴン（2025年公開）_20260511170504","path":"C:/Users/千葉05/Downloads/筆ポリゴン（2025年公開）_20260511170504.geojson","fid_2":16,"remark":16,"area":17.2},"geometry":{"type":"Polygon","coordinates":[[[140.388996752999986,35.473745424],[140.38913190400001,35.473690059],[140.388629036,35.472879107],[140.388458878,35.472952462],[140.388952048,35.473735199],[140.388987063,35.473727213],[140.388996752999986,35.473745424]]]}},
{"type":"Feature","properties":{"fid":17,"polygon_uuid":"43a87ec4-1f32-4179-a07e-1a365e7831c1","daicho_shubetsu_cd":"FUD25","layer":"筆ポリゴン（2025年公開）_20260511170504","path":"C:/Users/千葉05/Downloads/筆ポリゴン（2025年公開）_20260511170504.geojson","fid_2":17,"remark":17,"area":38.4},"geometry":{"type":"Polygon","coordinates":[[[140.389432844999988,35.474664246],[140.389810308,35.474508748],[140.389332895,35.473736205],[140.389291397,35.473753111],[140.389272098,35.473719699],[140.388933144,35.473860678],[140.389432844999988,35.474664246]]]}},
{"type":"Feature","properties":{"fid":18,"polygon_uuid":"ad2ddcab-ce97-4d28-a026-9c6324c0d30f","daicho_shubetsu_cd":"FUD25","layer":"筆ポリゴン（2025年公開）_20260511170504","path":"C:/Users/千葉05/Downloads/筆ポリゴン（2025年公開）_20260511170504.geojson","fid_2":18,"remark":18,"area":30.5},"geometry":{"type":"Polygon","coordinates":[[[140.38913753,35.474791107],[140.389432844999988,35.474664246],[140.388933144,35.473860678],[140.388631984999989,35.473980936],[140.38913753,35.474791107]]]}},
{"type":"Feature","properties":{"fid":19,"polygon_uuid":"b5d7d1f3-f3b2-4624-a8c9-d334d9a5e7b9","daicho_shubetsu_cd":"FUD25","layer":"筆ポリゴン（2025年公開）_20260511170504","path":"C:/Users/千葉05/Downloads/筆ポリゴン（2025年公開）_20260511170504.geojson","fid_2":20,"remark":20,"area":22.1},"geometry":{"type":"Polygon","coordinates":[[[140.390063744,35.471510957],[140.390418397,35.472085687],[140.390704508,35.471967007],[140.390622309,35.47183387],[140.390367339,35.471420891],[140.39030471800001,35.471319463],[140.390063744,35.471510957]]]}},
{"type":"Feature","properties":{"fid":20,"polygon_uuid":"ada2930b-4bda-4aea-aa35-9999c0333a5f","daicho_shubetsu_cd":"FUD25","layer":"筆ポリゴン（2025年公開）_20260511170504","path":"C:/Users/千葉05/Downloads/筆ポリゴン（2025年公開）_20260511170504.geojson","fid_2":21,"remark":21,"area":39.1},"geometry":{"type":"Polygon","coordinates":[[[140.389846219,35.469537216],[140.389652025,35.469606105],[140.389601358,35.469622956],[140.389314283,35.469723984],[140.389695983,35.470335549],[140.39021573,35.470099122],[140.389846219,35.469537216]]]}},
{"type":"Feature","properties":{"fid":21,"polygon_uuid":"6d8c5ee3-ec47-4761-8c83-5ea7a3bae14e","daicho_shubetsu_cd":"FUD25","layer":"筆ポリゴン（2025年公開）_20260511170504","path":"C:/Users/千葉05/Downloads/筆ポリゴン（2025年公開）_20260511170504.geojson","fid_2":22,"remark":22,"area":27.0},"geometry":{"type":"Polygon","coordinates":[[[140.389116354,35.470587615],[140.388701160000011,35.469920677],[140.388385402000011,35.470027545],[140.388408762000012,35.470094345],[140.388442747999989,35.470126419],[140.388461044,35.470143686],[140.388547117,35.470246643],[140.388550812,35.470294413],[140.388557686000013,35.470342554],[140.388567665000011,35.470366595],[140.388810485,35.470728417],[140.389116354,35.470587615]]]}},
{"type":"Feature","properties":{"fid":22,"polygon_uuid":"5af6e0b4-0d9b-4fd7-b8c2-6a600705d1e4","daicho_shubetsu_cd":"FUD25","layer":"筆ポリゴン（2025年公開）_20260511170504","path":"C:/Users/千葉05/Downloads/筆ポリゴン（2025年公開）_20260511170504.geojson","fid_2":23,"remark":23,"area":32.1},"geometry":{"type":"Polygon","coordinates":[[[140.383269881,35.47183629],[140.383539811,35.471723423],[140.383032244,35.470910167],[140.382720876,35.471042736],[140.383202621,35.471814637],[140.383269881,35.47183629]]]}},
{"type":"Feature","properties":{"fid":23,"polygon_uuid":"bfe86823-02b3-4aee-8d81-240d6f2f5da6","daicho_shubetsu_cd":"FUD25","layer":"筆ポリゴン（2025年公開）_20260511170504","path":"C:/Users/千葉05/Downloads/筆ポリゴン（2025年公開）_20260511170504.geojson","fid_2":24,"remark":24,"area":29.3},"geometry":{"type":"Polygon","coordinates":[[[140.383032244,35.470910167],[140.383539811,35.471723423],[140.383817701,35.471607227],[140.383319779,35.470787743],[140.383032244,35.470910167]]]}},
{"type":"Feature","properties":{"fid":24,"polygon_uuid":"2fd44fcc-588d-42e5-a423-a5d1ae359d21","daicho_shubetsu_cd":"FUD25","layer":"筆ポリゴン（2025年公開）_20260511170504","path":"C:/Users/千葉05/Downloads/筆ポリゴン（2025年公開）_20260511170504.geojson","fid_2":25,"remark":25,"area":22.7},"geometry":{"type":"Polygon","coordinates":[[[140.384765933000011,35.471214015],[140.384992104,35.471117825],[140.384480553,35.470304194],[140.38427008,35.470392891],[140.384765933000011,35.471214015]]]}},
{"type":"Feature","properties":{"fid":25,"polygon_uuid":"b6f868ca-065a-4549-a4b4-4440126d12fe","daicho_shubetsu_cd":"FUD25","layer":"筆ポリゴン（2025年公開）_20260511170504","path":"C:/Users/千葉05/Downloads/筆ポリゴン（2025年公開）_20260511170504.geojson","fid_2":26,"remark":26,"area":31.0},"geometry":{"type":"Polygon","coordinates":[[[140.384068837,35.472602414],[140.383578422,35.471790401],[140.38327031,35.471899424],[140.383765862,35.472726159],[140.384068837,35.472602414]]]}},
{"type":"Feature","properties":{"fid":26,"polygon_uuid":"81034681-8dc8-463e-94f6-75ad4ce8fc76","daicho_shubetsu_cd":"FUD25","layer":"筆ポリゴン（2025年公開）_20260511170504","path":"C:/Users/千葉05/Downloads/筆ポリゴン（2025年公開）_20260511170504.geojson","fid_2":27,"remark":27,"area":38.9},"geometry":{"type":"Polygon","coordinates":[[[140.384966719,35.472270441],[140.384585711,35.47242664],[140.38508364,35.473237021],[140.385463932,35.473075434],[140.384966719,35.472270441]]]}},
{"type":"Feature","properties":{"fid":27,"polygon_uuid":"f6aaa46c-29c4-478d-88b8-3f422554f041","daicho_shubetsu_cd":"FUD25","layer":"筆ポリゴン（2025年公開）_20260511170504","path":"C:/Users/千葉05/Downloads/筆ポリゴン（2025年公開）_20260511170504.geojson","fid_2":28,"remark":28,"area":30.2},"geometry":{"type":"Polygon","coordinates":[[[140.382107857,35.471263752],[140.3824055,35.47113609],[140.381912711000012,35.470333263],[140.381616469,35.470451303],[140.382013244,35.471107323],[140.382107857,35.471263752]]]}},
{"type":"Feature","properties":{"fid":28,"polygon_uuid":"3db9569b-a4cc-4051-a605-cd0da21b8375","daicho_shubetsu_cd":"FUD25","layer":"筆ポリゴン（2025年公開）_20260511170504","path":"C:/Users/千葉05/Downloads/筆ポリゴン（2025年公開）_20260511170504.geojson","fid_2":29,"remark":29,"area":23.4},"geometry":{"type":"Polygon","coordinates":[[[140.3824055,35.47113609],[140.382631433,35.471039185],[140.38214917900001,35.470239039],[140.381912711000012,35.470333263],[140.3824055,35.47113609]]]}},
{"type":"Feature","properties":{"fid":29,"polygon_uuid":"feeb8f57-a0fd-42ec-ace6-361aa7868d92","daicho_shubetsu_cd":"FUD25","layer":"筆ポリゴン（2025年公開）_20260511170504","path":"C:/Users/千葉05/Downloads/筆ポリゴン（2025年公開）_20260511170504.geojson","fid_2":30,"remark":30,"area":24.3},"geometry":{"type":"Polygon","coordinates":[[[140.38129701,35.470514471],[140.382013215,35.47021497],[140.381534896,35.469972103],[140.38116143,35.470131411],[140.38129701,35.470514471]]]}},
{"type":"Feature","properties":{"fid":30,"polygon_uuid":"4c19cec9-db77-42d5-90c6-e9c40b25318c","daicho_shubetsu_cd":"FUD25","layer":"筆ポリゴン（2025年公開）_20260511170504","path":"C:/Users/千葉05/Downloads/筆ポリゴン（2025年公開）_20260511170504.geojson","fid_2":31,"remark":31,"area":31.8},"geometry":{"type":"Polygon","coordinates":[[[140.382999275,35.470879595],[140.382497246000014,35.470078952],[140.382188377,35.470206399],[140.382685316,35.471012969],[140.382999275,35.470879595]]]}},
{"type":"Feature","properties":{"fid":31,"polygon_uuid":"5bd954d5-3168-4ba2-bab0-cb606bfdb831","daicho_shubetsu_cd":"FUD25","layer":"筆ポリゴン（2025年公開）_20260511170504","path":"C:/Users/千葉05/Downloads/筆ポリゴン（2025年公開）_20260511170504.geojson","fid_2":32,"remark":32,"area":29.2},"geometry":{"type":"Polygon","coordinates":[[[140.383284379,35.470758477],[140.382806275,35.469984727],[140.382777307999987,35.470001511],[140.382753851,35.469973071],[140.382497246000014,35.470078952],[140.382999275,35.470879595],[140.383284379,35.470758477]]]}},
{"type":"Feature","properties":{"fid":32,"polygon_uuid":"ab2b909b-e679-4f2d-9462-877ba19ba0f1","daicho_shubetsu_cd":"FUD25","layer":"筆ポリゴン（2025年公開）_20260511170504","path":"C:/Users/千葉05/Downloads/筆ポリゴン（2025年公開）_20260511170504.geojson","fid_2":33,"remark":33,"area":12.2},"geometry":{"type":"Polygon","coordinates":[[[140.382730583000011,35.469883136],[140.382843732999987,35.469844558],[140.382834879,35.469825567],[140.382857849,35.469801704],[140.382443503,35.469139916],[140.382304280999989,35.469199948],[140.382730583000011,35.469883136]]]}},
{"type":"Feature","properties":{"fid":33,"polygon_uuid":"5a8c70a4-1cee-4058-b5c2-bb26c9c11aab","daicho_shubetsu_cd":"FUD25","layer":"筆ポリゴン（2025年公開）_20260511170504","path":"C:/Users/千葉05/Downloads/筆ポリゴン（2025年公開）_20260511170504.geojson","fid_2":34,"remark":34,"area":26.2},"geometry":{"type":"Polygon","coordinates":[[[140.384613636000012,35.470203671],[140.384293901,35.469703662],[140.3841404,35.46946361],[140.384076166999989,35.46942584],[140.383851428000014,35.469514811],[140.384353047,35.470319263],[140.384613636000012,35.470203671]]]}},
{"type":"Feature","properties":{"fid":34,"polygon_uuid":"433c57ba-48f6-443f-8c61-a51c0c94b734","daicho_shubetsu_cd":"FUD25","layer":"筆ポリゴン（2025年公開）_20260511170504","path":"C:/Users/千葉05/Downloads/筆ポリゴン（2025年公開）_20260511170504.geojson","fid_2":35,"remark":35,"area":32.3},"geometry":{"type":"Polygon","coordinates":[[[140.387688559,35.468661573],[140.388006463000011,35.468530615],[140.387534961999989,35.467758226],[140.387195608000013,35.467903633],[140.387529377,35.468425718],[140.387688559,35.468661573]]]}},
{"type":"Feature","properties":{"fid":35,"polygon_uuid":"00b9d527-3d3f-4b3e-9527-03e79af88b3a","daicho_shubetsu_cd":"FUD25","layer":"筆ポリゴン（2025年公開）_20260511170504","path":"C:/Users/千葉05/Downloads/筆ポリゴン（2025年公開）_20260511170504.geojson","fid_2":36,"remark":36,"area":30.4},"geometry":{"type":"Polygon","coordinates":[[[140.388321164,35.468397591],[140.387839909,35.46762756],[140.387534961999989,35.467758226],[140.388006463000011,35.468530615],[140.388321164,35.468397591]]]}},
{"type":"Feature","properties":{"fid":36,"polygon_uuid":"b786c218-6b94-4a14-9fb8-a073021136b5","daicho_shubetsu_cd":"FUD25","layer":"筆ポリゴン（2025年公開）_20260511170504","path":"C:/Users/千葉05/Downloads/筆ポリゴン（2025年公開）_20260511170504.geojson","fid_2":37,"remark":37,"area":32.2},"geometry":{"type":"Polygon","coordinates":[[[140.392915912,35.465641404],[140.392408870999986,35.464829968],[140.392102756000014,35.464957682],[140.392603154999989,35.465778627],[140.392915912,35.465641404]]]}},
{"type":"Feature","properties":{"fid":37,"polygon_uuid":"80e877df-5edf-45eb-b899-fb8c40ce65a5","daicho_shubetsu_cd":"FUD25","layer":"筆ポリゴン（2025年公開）_20260511170504","path":"C:/Users/千葉05/Downloads/筆ポリゴン（2025年公開）_20260511170504.geojson","fid_2":38,"remark":38,"area":29.9},"geometry":{"type":"Polygon","coordinates":[[[140.38370545,35.468464614],[140.383991791,35.468342997],[140.383487507000012,35.467522007],[140.383200605000013,35.467642671],[140.38370545,35.468464614]]]}},
{"type":"Feature","properties":{"fid":38,"polygon_uuid":"7eb377d6-8e9b-4282-b38a-6ecdfcc55538","daicho_shubetsu_cd":"FUD25","layer":"筆ポリゴン（2025年公開）_20260511170504","path":"C:/Users/千葉05/Downloads/筆ポリゴン（2025年公開）_20260511170504.geojson","fid_2":39,"remark":39,"area":30.9},"geometry":{"type":"Polygon","coordinates":[[[140.384104514,35.466123282],[140.383598748999987,35.465331136],[140.383300766,35.465456481],[140.383805689000013,35.466260162],[140.384111007,35.46613376],[140.384104514,35.466123282]]]}},
{"type":"Feature","properties":{"fid":39,"polygon_uuid":"ba04b2ad-d1dc-42d8-8298-c84cd40b6ef0","daicho_shubetsu_cd":"FUD25","layer":"筆ポリゴン（2025年公開）_20260511170504","path":"C:/Users/千葉05/Downloads/筆ポリゴン（2025年公開）_20260511170504.geojson","fid_2":40,"remark":40,"area":26.8},"geometry":{"type":"Polygon","coordinates":[[[140.380719658,35.458983886],[140.38046794600001,35.459086938],[140.380959694000012,35.459899442],[140.381232305999987,35.45978694],[140.380719658,35.458983886]]]}},
{"type":"Feature","properties":{"fid":40,"polygon_uuid":"a56bdbab-86d9-47f9-87ed-6655207ec29f","daicho_shubetsu_cd":"FUD25","layer":"筆ポリゴン（2025年公開）_20260511170504","path":"C:/Users/千葉05/Downloads/筆ポリゴン（2025年公開）_20260511170504.geojson","fid_2":41,"remark":41,"area":28.3},"geometry":{"type":"Polygon","coordinates":[[[140.381309054000013,35.45874258],[140.38115926,35.458803907],[140.381034116,35.458855143],[140.381526201000014,35.459665654],[140.381647167000011,35.459615732],[140.381807132,35.459549716],[140.381309054000013,35.45874258]]]}},
{"type":"Feature","properties":{"fid":41,"polygon_uuid":"e89ed30b-a333-48ce-819c-32d888503571","daicho_shubetsu_cd":"FUD25","layer":"筆ポリゴン（2025年公開）_20260511170504","path":"C:/Users/千葉05/Downloads/筆ポリゴン（2025年公開）_20260511170504.geojson","fid_2":42,"remark":42,"area":31.4},"geometry":{"type":"Polygon","coordinates":[[[140.383893984999986,35.458734829],[140.384410222000014,35.459552444],[140.384709185,35.45942694],[140.384197410000013,35.458606296],[140.383893984999986,35.458734829]]]}},
{"type":"Feature","properties":{"fid":42,"polygon_uuid":"22510d19-9605-4893-87b9-d109fee861fc","daicho_shubetsu_cd":"FUD25","layer":"筆ポリゴン（2025年公開）_20260511170504","path":"C:/Users/千葉05/Downloads/筆ポリゴン（2025年公開）_20260511170504.geojson","fid_2":43,"remark":43,"area":13.2},"geometry":{"type":"Polygon","coordinates":[[[140.381191683999987,35.458748497],[140.381324527,35.458693398],[140.38082936,35.4578952],[140.38070109,35.457949479],[140.381191683999987,35.458748497]]]}},
{"type":"Feature","properties":{"fid":43,"polygon_uuid":"666f3ff6-1a8d-41fb-88c3-c0a617917cc7","daicho_shubetsu_cd":"FUD25","layer":"筆ポリゴン（2025年公開）_20260511170504","path":"C:/Users/千葉05/Downloads/筆ポリゴン（2025年公開）_20260511170504.geojson","fid_2":44,"remark":44,"area":30.5},"geometry":{"type":"Polygon","coordinates":[[[140.379537793,35.459437208],[140.379046061999986,35.458624698],[140.378749207,35.458750057],[140.379241054,35.459562269],[140.379537793,35.459437208]]]}},
{"type":"Feature","properties":{"fid":44,"polygon_uuid":"07abfe15-4ed9-459c-ad4d-3de37d1a8456","daicho_shubetsu_cd":"FUD25","layer":"筆ポリゴン（2025年公開）_20260511170504","path":"C:/Users/千葉05/Downloads/筆ポリゴン（2025年公開）_20260511170504.geojson","fid_2":45,"remark":45,"area":29.5},"geometry":{"type":"Polygon","coordinates":[[[140.379537793,35.459437208],[140.379824520999989,35.459317816],[140.379333444,35.458503567],[140.379046061999986,35.458624698],[140.379537793,35.459437208]]]}}
]
}
