{
"type": "FeatureCollection",
"name": "谷津・宮【多古】",
"crs": { "type": "name", "properties": { "name": "urn:ogc:def:crs:OGC:1.3:CRS84" } },
"features": [
{ "type": "Feature", "properties": { "fid": 1, "__EMPTY": 1, "__EMPTY_1": "平山　初枝", "__EMPTY_2": "北中1122", "__EMPTY_3": "北中餅田3912", "__EMPTY_4": "3-①", "__EMPTY_5": 1495, "__EMPTY_6": 1441, "__EMPTY_7": 6926, "__EMPTY_9": null, "__EMPTY_10": null, "__EMPTY_11": null, "手動一致フラグ": null, "検索_AreaOnRegistry": 1495, "検索_Address": "北中餅田3912", "検索_Tiban": "3912" }, "geometry": { "type": "Polygon", "coordinates": [ [ [ 140.501476167, 35.750931313 ], [ 140.501149618999989, 35.750673774 ], [ 140.500566150999987, 35.751171476 ], [ 140.50068934, 35.751271933 ], [ 140.500803749, 35.751352773 ], [ 140.500848937, 35.751398738 ], [ 140.500878361, 35.751414026 ], [ 140.500921358, 35.751403955 ], [ 140.500963864, 35.751383061 ], [ 140.501476167, 35.750931313 ] ] ] } },
{ "type": "Feature", "properties": { "fid": 2, "__EMPTY": 2, "__EMPTY_1": "平山　初枝", "__EMPTY_2": "北中1122", "__EMPTY_3": "北中餅田3913", "__EMPTY_4": "3-①", "__EMPTY_5": 1485, "__EMPTY_6": 1431, "__EMPTY_7": null, "__EMPTY_9": null, "__EMPTY_10": null, "__EMPTY_11": null, "手動一致フラグ": null, "検索_AreaOnRegistry": 1485, "検索_Address": "北中餅田3913", "検索_Tiban": "3913" }, "geometry": { "type": "Polygon", "coordinates": [ [ [ 140.501476167, 35.750931313 ], [ 140.501149618999989, 35.750673774 ], [ 140.500566150999987, 35.751171476 ], [ 140.50068934, 35.751271933 ], [ 140.500803749, 35.751352773 ], [ 140.500848937, 35.751398738 ], [ 140.500878361, 35.751414026 ], [ 140.500921358, 35.751403955 ], [ 140.500963864, 35.751383061 ], [ 140.501476167, 35.750931313 ] ] ] } },
{ "type": "Feature", "properties": { "fid": 3, "__EMPTY": 3, "__EMPTY_1": "平山　初枝", "__EMPTY_2": "北中1122", "__EMPTY_3": "北中餅田3914", "__EMPTY_4": "3-①", "__EMPTY_5": 528, "__EMPTY_6": 508, "__EMPTY_7": null, "__EMPTY_9": null, "__EMPTY_10": null, "__EMPTY_11": null, "手動一致フラグ": null, "検索_AreaOnRegistry": 528, "検索_Address": "北中餅田3914", "検索_Tiban": "3914" }, "geometry": { "type": "Polygon", "coordinates": [ [ [ 140.50160063300001, 35.751029475 ], [ 140.501476167, 35.750931313 ], [ 140.500963864, 35.751383061 ], [ 140.501086113000014, 35.751322971 ], [ 140.501211481000013, 35.751271705 ], [ 140.501268111, 35.751243295 ], [ 140.501358887, 35.75117677 ], [ 140.501451398, 35.751111638 ], [ 140.501514848999989, 35.751074762 ], [ 140.501566321000013, 35.751047787 ], [ 140.50160063300001, 35.751029475 ] ] ] } },
{ "type": "Feature", "properties": { "fid": 4, "__EMPTY": 4, "__EMPTY_1": "平山　初枝", "__EMPTY_2": "北中1122", "__EMPTY_3": "北中餅田3919", "__EMPTY_4": "3-①", "__EMPTY_5": 1525, "__EMPTY_6": 1470, "__EMPTY_7": null, "__EMPTY_9": null, "__EMPTY_10": null, "__EMPTY_11": null, "手動一致フラグ": null, "検索_AreaOnRegistry": 1525, "検索_Address": "北中餅田3919", "検索_Tiban": "3919" }, "geometry": { "type": "Polygon", "coordinates": [ [ [ 140.500172557000013, 35.7509546 ], [ 140.499570911, 35.751460644 ], [ 140.499728984, 35.75158334 ], [ 140.500332413, 35.751080222 ], [ 140.500186249, 35.750962684 ], [ 140.500172557000013, 35.7509546 ] ] ] } },
{ "type": "Feature", "properties": { "fid": 5, "__EMPTY": 5, "__EMPTY_1": "平山　初枝", "__EMPTY_2": "北中1122", "__EMPTY_3": "北中千上3932", "__EMPTY_4": "3-①", "__EMPTY_5": 1353, "__EMPTY_6": 1304, "__EMPTY_7": null, "__EMPTY_9": null, "__EMPTY_10": null, "__EMPTY_11": null, "手動一致フラグ": null, "検索_AreaOnRegistry": 1353, "検索_Address": "北中千上3932", "検索_Tiban": "3932" }, "geometry": { "type": "Polygon", "coordinates": [ [ [ 140.501667626999989, 35.752734418 ], [ 140.501368921, 35.753096502 ], [ 140.501447901, 35.753144105 ], [ 140.501544976, 35.753212397 ], [ 140.501614292, 35.753258368 ], [ 140.501675881000011, 35.753204647 ], [ 140.501737246, 35.753124236 ], [ 140.501757737, 35.753101646 ], [ 140.501802118, 35.75305083 ], [ 140.50185672, 35.752985909 ], [ 140.501909692, 35.752932235 ], [ 140.501894019, 35.752912656 ], [ 140.501827939, 35.752841383 ], [ 140.501793146000011, 35.752802243 ], [ 140.501744626, 35.752770204 ], [ 140.501682356, 35.752742455 ], [ 140.501667626999989, 35.752734418 ] ] ] } },
{ "type": "Feature", "properties": { "fid": 6, "__EMPTY": 6, "__EMPTY_1": "平山　初枝", "__EMPTY_2": "北中1122", "__EMPTY_3": "北中千上3933", "__EMPTY_4": "3-①", "__EMPTY_5": 801, "__EMPTY_6": 772, "__EMPTY_7": null, "__EMPTY_9": null, "__EMPTY_10": null, "__EMPTY_11": null, "手動一致フラグ": null, "検索_AreaOnRegistry": 801, "検索_Address": "北中千上3933", "検索_Tiban": "3933" }, "geometry": { "type": "Polygon", "coordinates": [ [ [ 140.501409177, 35.752595848 ], [ 140.501073023, 35.752977386 ], [ 140.501152036, 35.753002465 ], [ 140.501217647, 35.753017553 ], [ 140.501330124, 35.753073118 ], [ 140.501368921, 35.753096502 ], [ 140.501667626999989, 35.752734418 ], [ 140.501477212, 35.752630515 ], [ 140.501409177, 35.752595848 ] ] ] } },
{ "type": "Feature", "properties": { "fid": 7, "__EMPTY": 7, "__EMPTY_1": "渋谷　芳己", "__EMPTY_2": "北中1130", "__EMPTY_3": "北中千上3931", "__EMPTY_4": "3-①", "__EMPTY_5": 1243, "__EMPTY_6": 1198, "__EMPTY_7": 6247, "__EMPTY_9": null, "__EMPTY_10": null, "__EMPTY_11": null, "手動一致フラグ": null, "検索_AreaOnRegistry": 1243, "検索_Address": "北中千上3931", "検索_Tiban": "3931" }, "geometry": { "type": "Polygon", "coordinates": [ [ [ 140.501922138, 35.752943598 ], [ 140.501867527, 35.753007395 ], [ 140.501824311, 35.753060078 ], [ 140.501776484, 35.753110914 ], [ 140.501724195, 35.753177695 ], [ 140.501669615999987, 35.753245425 ], [ 140.501641138999986, 35.753274614 ], [ 140.50168395, 35.753310899 ], [ 140.501729309000012, 35.753377137 ], [ 140.501760397999988, 35.753385393 ], [ 140.501786102000011, 35.753436757 ], [ 140.501807259, 35.753493764 ], [ 140.501828015, 35.753503014 ], [ 140.501849591, 35.753472927 ], [ 140.501897413, 35.753421342 ], [ 140.501980452999987, 35.753322549 ], [ 140.502075981, 35.753205894 ], [ 140.50212156500001, 35.753161626 ], [ 140.502115632999988, 35.753139183 ], [ 140.502044930000011, 35.753064658 ], [ 140.501922138, 35.752943598 ] ] ] } },
{ "type": "Feature", "properties": { "fid": 8, "__EMPTY": 8, "__EMPTY_1": "渋谷　芳己", "__EMPTY_2": "北中1130", "__EMPTY_3": "北中千上3938", "__EMPTY_4": "3-①", "__EMPTY_5": 1595, "__EMPTY_6": 1537, "__EMPTY_7": null, "__EMPTY_9": null, "__EMPTY_10": null, "__EMPTY_11": null, "手動一致フラグ": null, "検索_AreaOnRegistry": 1595, "検索_Address": "北中千上3938", "検索_Tiban": "3938" }, "geometry": { "type": "Polygon", "coordinates": [ [ [ 140.500278079999987, 35.75204297 ], [ 140.500238798999987, 35.75208533 ], [ 140.500187595, 35.752144612 ], [ 140.500107344000014, 35.752233554 ], [ 140.500013518, 35.752347857 ], [ 140.499943558000012, 35.752431123 ], [ 140.499875368, 35.752519999 ], [ 140.499860058, 35.752543964 ], [ 140.499872226, 35.752556539 ], [ 140.499906713, 35.752559158 ], [ 140.499946254, 35.752547701 ], [ 140.500001314, 35.752537563 ], [ 140.500059843, 35.752530215 ], [ 140.500090908, 35.752535662 ], [ 140.500166728000011, 35.752535242 ], [ 140.500223616999989, 35.752537735 ], [ 140.500317502, 35.752430455 ], [ 140.500387507999989, 35.752352808 ], [ 140.500428559999989, 35.752316057 ], [ 140.500464395, 35.752273716 ], [ 140.500549592999988, 35.752158056 ], [ 140.500494462, 35.752159767 ], [ 140.500425371, 35.752140484 ], [ 140.500385585, 35.752122443 ], [ 140.500336997, 35.752081975 ], [ 140.500278079999987, 35.75204297 ] ] ] } },
{ "type": "Feature", "properties": { "fid": 9, "__EMPTY": 9, "__EMPTY_1": "渋谷　芳己", "__EMPTY_2": "北中1130", "__EMPTY_3": "北中山ノ下3941", "__EMPTY_4": "3-①", "__EMPTY_5": 1972, "__EMPTY_6": 1901, "__EMPTY_7": null, "__EMPTY_9": null, "__EMPTY_10": null, "__EMPTY_11": null, "手動一致フラグ": null, "検索_AreaOnRegistry": 1972, "検索_Address": "北中山ノ下3941", "検索_Tiban": "3941" }, "geometry": { "type": "Polygon", "coordinates": [ [ [ 140.500216321000011, 35.751984633 ], [ 140.500069489, 35.751871053 ], [ 140.499623743, 35.752397153 ], [ 140.499675462, 35.75242731 ], [ 140.499739559, 35.752467693 ], [ 140.499796577000012, 35.752485638 ], [ 140.499869877, 35.752389711 ], [ 140.499917657999987, 35.752333257 ], [ 140.500019995, 35.752206264 ], [ 140.500216321000011, 35.751984633 ] ] ] } },
{ "type": "Feature", "properties": { "fid": 10, "__EMPTY": 10, "__EMPTY_1": "渋谷　芳己", "__EMPTY_2": "北中1130", "__EMPTY_3": "北中山ノ下3949", "__EMPTY_4": "3-①", "__EMPTY_5": 746, "__EMPTY_6": 719, "__EMPTY_7": null, "__EMPTY_9": null, "__EMPTY_10": null, "__EMPTY_11": null, "手動一致フラグ": null, "検索_AreaOnRegistry": 746, "検索_Address": "北中山ノ下3949", "検索_Tiban": "3949" }, "geometry": { "type": "Polygon", "coordinates": [ [ [ 140.499357714000013, 35.752332873 ], [ 140.49931787, 35.752307808 ], [ 140.499279808000011, 35.752289757 ], [ 140.499123937, 35.752196503 ], [ 140.499103306, 35.752202236 ], [ 140.499052170999988, 35.752269946 ], [ 140.498983981, 35.752358822 ], [ 140.498930819, 35.75239002 ], [ 140.498865607, 35.752422689 ], [ 140.498694070999989, 35.752517754 ], [ 140.498632434, 35.752565856 ], [ 140.498983962000011, 35.752770406 ], [ 140.499357714000013, 35.752332873 ] ] ] } },
{ "type": "Feature", "properties": { "fid": 11, "__EMPTY": 11, "__EMPTY_1": "渋谷　芳己", "__EMPTY_2": "北中1130", "__EMPTY_3": "北中山ノ下3950", "__EMPTY_4": "3-①", "__EMPTY_5": 926, "__EMPTY_6": 892, "__EMPTY_7": null, "__EMPTY_9": null, "__EMPTY_10": null, "__EMPTY_11": null, "手動一致フラグ": null, "検索_AreaOnRegistry": 926, "検索_Address": "北中山ノ下3950", "検索_Tiban": "3950" }, "geometry": { "type": "Polygon", "coordinates": [ [ [ 140.499357714000013, 35.752332873 ], [ 140.49931787, 35.752307808 ], [ 140.499279808000011, 35.752289757 ], [ 140.499123937, 35.752196503 ], [ 140.499103306, 35.752202236 ], [ 140.499052170999988, 35.752269946 ], [ 140.498983981, 35.752358822 ], [ 140.498930819, 35.75239002 ], [ 140.498865607, 35.752422689 ], [ 140.498694070999989, 35.752517754 ], [ 140.498632434, 35.752565856 ], [ 140.498983962000011, 35.752770406 ], [ 140.499357714000013, 35.752332873 ] ] ] } },
{ "type": "Feature", "properties": { "fid": 12, "__EMPTY": 12, "__EMPTY_1": "渋谷　政枝", "__EMPTY_2": "北中1131", "__EMPTY_3": "北中餅田3916", "__EMPTY_4": "3-①", "__EMPTY_5": 2213, "__EMPTY_6": 2133, "__EMPTY_7": 4765, "__EMPTY_9": null, "__EMPTY_10": null, "__EMPTY_11": null, "手動一致フラグ": null, "検索_AreaOnRegistry": 2213, "検索_Address": "北中餅田3916", "検索_Tiban": "3916" }, "geometry": { "type": "Polygon", "coordinates": [ [ [ 140.499909173, 35.751729795 ], [ 140.500226586, 35.751976392 ], [ 140.500234991000013, 35.75195106 ], [ 140.500260124, 35.751865232 ], [ 140.500266665, 35.751823055 ], [ 140.500321023999987, 35.751728918 ], [ 140.500421976000013, 35.751642669 ], [ 140.500560885, 35.75156183 ], [ 140.500650126000011, 35.751517788 ], [ 140.500717095, 35.751489322 ], [ 140.500775484, 35.751465118 ], [ 140.500790839, 35.751446771 ], [ 140.500504618, 35.751220793 ], [ 140.499909173, 35.751729795 ] ] ] } },
{ "type": "Feature", "properties": { "fid": 13, "__EMPTY": 13, "__EMPTY_1": "渋谷　政枝", "__EMPTY_2": "北中1131", "__EMPTY_3": "北中千上3934", "__EMPTY_4": "3-①", "__EMPTY_5": 232, "__EMPTY_6": 223, "__EMPTY_7": null, "__EMPTY_9": null, "__EMPTY_10": null, "__EMPTY_11": null, "手動一致フラグ": null, "検索_AreaOnRegistry": 232, "検索_Address": "北中千上3934", "検索_Tiban": "3934" }, "geometry": { "type": "Polygon", "coordinates": [ [ [ 140.501409177, 35.752595848 ], [ 140.501073023, 35.752977386 ], [ 140.501152036, 35.753002465 ], [ 140.501217647, 35.753017553 ], [ 140.501330124, 35.753073118 ], [ 140.501368921, 35.753096502 ], [ 140.501667626999989, 35.752734418 ], [ 140.501477212, 35.752630515 ], [ 140.501409177, 35.752595848 ] ] ] } },
{ "type": "Feature", "properties": { "fid": 14, "__EMPTY": 14, "__EMPTY_1": "渋谷　政枝", "__EMPTY_2": "北中1131", "__EMPTY_3": "北中千上3935", "__EMPTY_4": "3-①", "__EMPTY_5": 1780, "__EMPTY_6": 1715, "__EMPTY_7": null, "__EMPTY_9": null, "__EMPTY_10": null, "__EMPTY_11": null, "手動一致フラグ": null, "検索_AreaOnRegistry": 1780, "検索_Address": "北中千上3935", "検索_Tiban": "3935" }, "geometry": { "type": "Polygon", "coordinates": [ [ [ 140.501085736, 35.752466154 ], [ 140.500808567, 35.752822288 ], [ 140.500871868, 35.752883214 ], [ 140.500934279, 35.752927819 ], [ 140.501025902, 35.752962429 ], [ 140.501073023, 35.752977386 ], [ 140.501409177, 35.752595848 ], [ 140.501387219, 35.752584658 ], [ 140.501242012, 35.75253068 ], [ 140.50109853, 35.752476693 ], [ 140.501085736, 35.752466154 ] ] ] } },
{ "type": "Feature", "properties": { "fid": 15, "__EMPTY": 15, "__EMPTY_1": "渋谷　政枝", "__EMPTY_2": "北中1131", "__EMPTY_3": "北中山ノ下3942-1", "__EMPTY_4": "3-①", "__EMPTY_5": 465, "__EMPTY_6": 448, "__EMPTY_7": null, "__EMPTY_9": null, "__EMPTY_10": null, "__EMPTY_11": null, "手動一致フラグ": null, "検索_AreaOnRegistry": 465, "検索_Address": "北中山ノ下3942-1", "検索_Tiban": "3942-1" }, "geometry": { "type": "Polygon", "coordinates": [ [ [ 140.499623743, 35.752397153 ], [ 140.500069489, 35.751871053 ], [ 140.499897183, 35.751737766 ], [ 140.49960363, 35.752079336 ], [ 140.499427898, 35.752291018 ], [ 140.499479781, 35.752313206 ], [ 140.499623743, 35.752397153 ] ] ] } },
{ "type": "Feature", "properties": { "fid": 16, "__EMPTY": 16, "__EMPTY_1": "渋谷　政枝", "__EMPTY_2": "北中1131", "__EMPTY_3": "北中山ノ下3942-2", "__EMPTY_4": "3-①", "__EMPTY_5": 256, "__EMPTY_6": 246, "__EMPTY_7": null, "__EMPTY_9": null, "__EMPTY_10": null, "__EMPTY_11": null, "手動一致フラグ": null, "検索_AreaOnRegistry": 256, "検索_Address": "北中山ノ下3942-2", "検索_Tiban": "3942-2" }, "geometry": { "type": "Polygon", "coordinates": [ [ [ 140.499623743, 35.752397153 ], [ 140.500069489, 35.751871053 ], [ 140.499897183, 35.751737766 ], [ 140.49960363, 35.752079336 ], [ 140.499427898, 35.752291018 ], [ 140.499479781, 35.752313206 ], [ 140.499623743, 35.752397153 ] ] ] } },
{ "type": "Feature", "properties": { "fid": 17, "__EMPTY": 17, "__EMPTY_1": "平山　雅己", "__EMPTY_2": "北中1132-2", "__EMPTY_3": "北中大越3978", "__EMPTY_4": "3-①", "__EMPTY_5": 1057, "__EMPTY_6": 1018, "__EMPTY_7": 1018, "__EMPTY_9": null, "__EMPTY_10": null, "__EMPTY_11": null, "手動一致フラグ": null, "検索_AreaOnRegistry": 1057, "検索_Address": "北中大越3978", "検索_Tiban": "3978" }, "geometry": { "type": "Polygon", "coordinates": [ [ [ 140.498903897, 35.7541098 ], [ 140.498887892, 35.754038927 ], [ 140.498864882, 35.753966008 ], [ 140.498857436, 35.753947037 ], [ 140.498178277, 35.754093059 ], [ 140.498175915, 35.754112257 ], [ 140.498205966, 35.754202977 ], [ 140.498225817, 35.754253678 ], [ 140.498903897, 35.7541098 ] ] ] } },
{ "type": "Feature", "properties": { "fid": 18, "__EMPTY": 18, "__EMPTY_1": "平山　京子", "__EMPTY_2": "北中1134", "__EMPTY_3": "北中大越3980-1", "__EMPTY_4": "3-①", "__EMPTY_5": 1100, "__EMPTY_6": null, "__EMPTY_7": null, "__EMPTY_9": "R7除外", "__EMPTY_10": 1060, "__EMPTY_11": 1645, "手動一致フラグ": null, "検索_AreaOnRegistry": 1100, "検索_Address": "北中大越3980-1", "検索_Tiban": "3980-1" }, "geometry": { "type": "Polygon", "coordinates": [ [ [ 140.498925467, 35.75420532 ], [ 140.498266963, 35.754352492 ], [ 140.498320208, 35.754470648 ], [ 140.498384482, 35.754619243 ], [ 140.499014734000014, 35.754466911 ], [ 140.498985718, 35.754404457 ], [ 140.498945277, 35.754307755 ], [ 140.498925467, 35.75420532 ] ] ] } },
{ "type": "Feature", "properties": { "fid": 19, "__EMPTY": 19, "__EMPTY_1": "平山　京子", "__EMPTY_2": "北中1134", "__EMPTY_3": "北中大越3980-2", "__EMPTY_4": "3-①", "__EMPTY_5": 607, "__EMPTY_6": null, "__EMPTY_7": null, "__EMPTY_9": "R7除外", "__EMPTY_10": 585, "__EMPTY_11": null, "手動一致フラグ": null, "検索_AreaOnRegistry": 607, "検索_Address": "北中大越3980-2", "検索_Tiban": "3980-2" }, "geometry": { "type": "Polygon", "coordinates": [ [ [ 140.498925467, 35.75420532 ], [ 140.498266963, 35.754352492 ], [ 140.498320208, 35.754470648 ], [ 140.498384482, 35.754619243 ], [ 140.499014734000014, 35.754466911 ], [ 140.498985718, 35.754404457 ], [ 140.498945277, 35.754307755 ], [ 140.498925467, 35.75420532 ] ] ] } },
{ "type": "Feature", "properties": { "fid": 20, "__EMPTY": 20, "__EMPTY_1": "押田　康弘", "__EMPTY_2": "北中1135", "__EMPTY_3": "北中下井戸3963", "__EMPTY_4": "3-①", "__EMPTY_5": 1150, "__EMPTY_6": 1108, "__EMPTY_7": 1108, "__EMPTY_9": null, "__EMPTY_10": null, "__EMPTY_11": null, "手動一致フラグ": null, "検索_AreaOnRegistry": 1150, "検索_Address": "北中下井戸3963", "検索_Tiban": "3963" }, "geometry": { "type": "Polygon", "coordinates": [ [ [ 140.497346614, 35.751584514 ], [ 140.497312991, 35.751517318 ], [ 140.497270947, 35.751434671 ], [ 140.497239417, 35.751373038 ], [ 140.497221964, 35.751346444 ], [ 140.497183797, 35.751315751 ], [ 140.497149054, 35.751282229 ], [ 140.497131693, 35.751266873 ], [ 140.497085366, 35.751291009 ], [ 140.497045885, 35.751309488 ], [ 140.496867434, 35.751401779 ], [ 140.496913391, 35.751540594 ], [ 140.496925908, 35.75159531 ], [ 140.496927899000013, 35.751627607 ], [ 140.497002342, 35.751844567 ], [ 140.497346614, 35.751584514 ] ] ] } },
{ "type": "Feature", "properties": { "fid": 21, "__EMPTY": 21, "__EMPTY_1": "渋谷　重明", "__EMPTY_2": "北中1156", "__EMPTY_3": "北中餅田3903", "__EMPTY_4": "3-①", "__EMPTY_5": 1497, "__EMPTY_6": 1443, "__EMPTY_7": 5384, "__EMPTY_9": null, "__EMPTY_10": null, "__EMPTY_11": null, "手動一致フラグ": null, "検索_AreaOnRegistry": 1497, "検索_Address": "北中餅田3903", "検索_Tiban": "3903" }, "geometry": { "type": "Polygon", "coordinates": [ [ [ 140.501550169000012, 35.750041467 ], [ 140.50098396300001, 35.750529618 ], [ 140.501143718, 35.75065128 ], [ 140.501708713, 35.750168379 ], [ 140.501659244, 35.750129962 ], [ 140.501550169000012, 35.750041467 ] ] ] } },
{ "type": "Feature", "properties": { "fid": 22, "__EMPTY": 22, "__EMPTY_1": "渋谷　重明", "__EMPTY_2": "北中1156", "__EMPTY_3": "北中餅田3911", "__EMPTY_4": "3-①", "__EMPTY_5": 1503, "__EMPTY_6": 1448, "__EMPTY_7": null, "__EMPTY_9": null, "__EMPTY_10": null, "__EMPTY_11": null, "手動一致フラグ": null, "検索_AreaOnRegistry": 1503, "検索_Address": "北中餅田3911", "検索_Tiban": "3911" }, "geometry": { "type": "Polygon", "coordinates": [ [ [ 140.500554017000013, 35.751162975 ], [ 140.50113575, 35.750663878 ], [ 140.500972706999988, 35.750536953 ], [ 140.500885436, 35.750610483 ], [ 140.500386274, 35.751029601 ], [ 140.50039442, 35.751036029 ], [ 140.500465574, 35.751096039 ], [ 140.500554017000013, 35.751162975 ] ] ] } },
{ "type": "Feature", "properties": { "fid": 23, "__EMPTY": 23, "__EMPTY_1": "渋谷　重明", "__EMPTY_2": "北中1156", "__EMPTY_3": "北中餅田3918", "__EMPTY_4": "3-①", "__EMPTY_5": 1571, "__EMPTY_6": 1514, "__EMPTY_7": null, "__EMPTY_9": null, "__EMPTY_10": null, "__EMPTY_11": null, "手動一致フラグ": null, "検索_AreaOnRegistry": 1571, "検索_Address": "北中餅田3918", "検索_Tiban": "3918" }, "geometry": { "type": "Polygon", "coordinates": [ [ [ 140.500332413, 35.751080222 ], [ 140.499728984, 35.75158334 ], [ 140.499897844, 35.751714406 ], [ 140.500488119000011, 35.751205433 ], [ 140.500332413, 35.751080222 ] ] ] } },
{ "type": "Feature", "properties": { "fid": 24, "__EMPTY": 24, "__EMPTY_1": "渋谷　重明", "__EMPTY_2": "北中1156", "__EMPTY_3": "北中餅田3920", "__EMPTY_4": "3-①", "__EMPTY_5": 1016, "__EMPTY_6": 979, "__EMPTY_7": null, "__EMPTY_9": null, "__EMPTY_10": null, "__EMPTY_11": null, "手動一致フラグ": null, "検索_AreaOnRegistry": 1016, "検索_Address": "北中餅田3920", "検索_Tiban": "3920" }, "geometry": { "type": "Polygon", "coordinates": [ [ [ 140.500101392, 35.750912584 ], [ 140.500050547, 35.750911462 ], [ 140.499981843, 35.750938532 ], [ 140.499908029000011, 35.750972654 ], [ 140.499867013, 35.751013618 ], [ 140.499820827, 35.751054611 ], [ 140.499743812, 35.751118251 ], [ 140.499672024, 35.751188885 ], [ 140.499595091, 35.751262357 ], [ 140.499512941, 35.751330239 ], [ 140.499473763999987, 35.75138524 ], [ 140.499570911, 35.751460644 ], [ 140.500172557000013, 35.7509546 ], [ 140.500101392, 35.750912584 ] ] ] } },
{ "type": "Feature", "properties": { "fid": 25, "__EMPTY": 25, "__EMPTY_1": "渋谷　裕義", "__EMPTY_2": "北中1157", "__EMPTY_3": "北中菖蒲入3876", "__EMPTY_4": "3-①", "__EMPTY_5": 2124, "__EMPTY_6": 2047, "__EMPTY_7": 5300, "__EMPTY_9": null, "__EMPTY_10": null, "__EMPTY_11": null, "手動一致フラグ": null, "検索_AreaOnRegistry": 2124, "検索_Address": "北中菖蒲入3876", "検索_Tiban": "3876" }, "geometry": { "type": "Polygon", "coordinates": [ [ [ 140.502879258, 35.748770381 ], [ 140.502115909999986, 35.749413388 ], [ 140.502371606, 35.749611136 ], [ 140.503131347, 35.748966321 ], [ 140.503019736999988, 35.748880593 ], [ 140.502887037, 35.748775977 ], [ 140.502879258, 35.748770381 ] ] ] } },
{ "type": "Feature", "properties": { "fid": 26, "__EMPTY": 26, "__EMPTY_1": "渋谷　裕義", "__EMPTY_2": "北中1157", "__EMPTY_3": "北中菖蒲入3888", "__EMPTY_4": "3-①", "__EMPTY_5": 1448, "__EMPTY_6": 1395, "__EMPTY_7": null, "__EMPTY_9": null, "__EMPTY_10": null, "__EMPTY_11": null, "手動一致フラグ": null, "検索_AreaOnRegistry": 1448, "検索_Address": "北中菖蒲入3888", "検索_Tiban": "3888" }, "geometry": { "type": "Polygon", "coordinates": [ [ [ 140.501852761, 35.749227834 ], [ 140.501718777, 35.749124169 ], [ 140.501185475999989, 35.749576013 ], [ 140.501198570000014, 35.749577779 ], [ 140.501218309, 35.749602767 ], [ 140.50124756, 35.749666286 ], [ 140.501259259, 35.749691506 ], [ 140.501282414, 35.749712916 ], [ 140.501308819, 35.749710897 ], [ 140.501422858000012, 35.74961006 ], [ 140.501515187, 35.74952339 ], [ 140.501572256, 35.749479058 ], [ 140.50164751, 35.749411214 ], [ 140.501717129000014, 35.74935651 ], [ 140.501768456, 35.749312211 ], [ 140.50184714, 35.749242474 ], [ 140.501852761, 35.749227834 ] ] ] } },
{ "type": "Feature", "properties": { "fid": 27, "__EMPTY": 27, "__EMPTY_1": "渋谷　裕義", "__EMPTY_2": "北中1157", "__EMPTY_3": "北中大越3977", "__EMPTY_4": "3-①", "__EMPTY_5": 1928, "__EMPTY_6": 1858, "__EMPTY_7": null, "__EMPTY_9": null, "__EMPTY_10": null, "__EMPTY_11": null, "手動一致フラグ": null, "検索_AreaOnRegistry": 1928, "検索_Address": "北中大越3977", "検索_Tiban": "3977" }, "geometry": { "type": "Polygon", "coordinates": [ [ [ 140.498894221, 35.75366074 ], [ 140.498171945, 35.753815087 ], [ 140.498158303, 35.753859504 ], [ 140.498152088000012, 35.753941012 ], [ 140.49815953, 35.754006993 ], [ 140.498180758, 35.754072898 ], [ 140.498178277, 35.754093059 ], [ 140.498857436, 35.753947037 ], [ 140.498838471999989, 35.753898727 ], [ 140.49883478000001, 35.753869248 ], [ 140.498844874000014, 35.753839694 ], [ 140.498863279, 35.753773569 ], [ 140.498895119999986, 35.753665229 ], [ 140.498894221, 35.75366074 ] ] ] } },
{ "type": "Feature", "properties": { "fid": 28, "__EMPTY": 28, "__EMPTY_1": "平山　義明", "__EMPTY_2": "北中1158", "__EMPTY_3": "北中千上3923", "__EMPTY_4": "3-①", "__EMPTY_5": 417, "__EMPTY_6": 401, "__EMPTY_7": 2087, "__EMPTY_9": null, "__EMPTY_10": null, "__EMPTY_11": null, "手動一致フラグ": null, "検索_AreaOnRegistry": 417, "検索_Address": "北中千上3923", "検索_Tiban": "3923" }, "geometry": { "type": "Polygon", "coordinates": [ [ [ 140.503564239000013, 35.753857267 ], [ 140.503316114, 35.754154863 ], [ 140.503430402, 35.754155256 ], [ 140.503587798000012, 35.754155315 ], [ 140.503700453, 35.754163116 ], [ 140.50388793, 35.754188293 ], [ 140.503940791, 35.754189871 ], [ 140.503962564, 35.754183194 ], [ 140.503979678, 35.754169052 ], [ 140.503951533, 35.754100845 ], [ 140.503924773, 35.754060726 ], [ 140.503866875999989, 35.754006732 ], [ 140.503803259, 35.75395558 ], [ 140.503724119999987, 35.753903017 ], [ 140.503621617, 35.753872684 ], [ 140.503564239000013, 35.753857267 ] ] ] } },
{ "type": "Feature", "properties": { "fid": 29, "__EMPTY": 29, "__EMPTY_1": "平山　義明", "__EMPTY_2": "北中1158", "__EMPTY_3": "北中千上3924", "__EMPTY_4": "3-①", "__EMPTY_5": 780, "__EMPTY_6": 751, "__EMPTY_7": null, "__EMPTY_9": null, "__EMPTY_10": null, "__EMPTY_11": null, "手動一致フラグ": null, "検索_AreaOnRegistry": 780, "検索_Address": "北中千上3924", "検索_Tiban": "3924" }, "geometry": { "type": "Polygon", "coordinates": [ [ [ 140.503564239000013, 35.753857267 ], [ 140.503316114, 35.754154863 ], [ 140.503430402, 35.754155256 ], [ 140.503587798000012, 35.754155315 ], [ 140.503700453, 35.754163116 ], [ 140.50388793, 35.754188293 ], [ 140.503940791, 35.754189871 ], [ 140.503962564, 35.754183194 ], [ 140.503979678, 35.754169052 ], [ 140.503951533, 35.754100845 ], [ 140.503924773, 35.754060726 ], [ 140.503866875999989, 35.754006732 ], [ 140.503803259, 35.75395558 ], [ 140.503724119999987, 35.753903017 ], [ 140.503621617, 35.753872684 ], [ 140.503564239000013, 35.753857267 ] ] ] } },
{ "type": "Feature", "properties": { "fid": 30, "__EMPTY": 30, "__EMPTY_1": "平山　義明", "__EMPTY_2": "北中1158", "__EMPTY_3": "北中大越3984", "__EMPTY_4": "3-①", "__EMPTY_5": 970, "__EMPTY_6": 935, "__EMPTY_7": null, "__EMPTY_9": null, "__EMPTY_10": null, "__EMPTY_11": null, "手動一致フラグ": null, "検索_AreaOnRegistry": 970, "検索_Address": "北中大越3984", "検索_Tiban": "3984" }, "geometry": { "type": "Polygon", "coordinates": [ [ [ 140.499437011, 35.755205742 ], [ 140.498727148, 35.755378856 ], [ 140.498937542, 35.755605258 ], [ 140.499608970999986, 35.755464465 ], [ 140.49955204, 35.755360468 ], [ 140.499482354, 35.755270109 ], [ 140.499437011, 35.755205742 ] ] ] } },
{ "type": "Feature", "properties": { "fid": 31, "__EMPTY": 31, "__EMPTY_1": "髙坂　恭子", "__EMPTY_2": "北中1161", "__EMPTY_3": "北中千上3925", "__EMPTY_4": "3-①", "__EMPTY_5": 1175, "__EMPTY_6": 1132, "__EMPTY_7": 1132, "__EMPTY_9": null, "__EMPTY_10": null, "__EMPTY_11": null, "手動一致フラグ": null, "検索_AreaOnRegistry": 1175, "検索_Address": "北中千上3925", "検索_Tiban": "3925" }, "geometry": { "type": "Polygon", "coordinates": [ [ [ 140.503226860000012, 35.753770302 ], [ 140.502959301, 35.754094173 ], [ 140.503025657, 35.754114432 ], [ 140.503086725, 35.754135631 ], [ 140.503152325, 35.754149313 ], [ 140.50322245000001, 35.754154541 ], [ 140.503316114, 35.754154863 ], [ 140.503564239000013, 35.753857267 ], [ 140.503522591, 35.753846077 ], [ 140.503451184, 35.753824936 ], [ 140.503304987, 35.753790164 ], [ 140.503226860000012, 35.753770302 ] ] ] } },
{ "type": "Feature", "properties": { "fid": 32, "__EMPTY": 32, "__EMPTY_1": "平山　明廣", "__EMPTY_2": "北中1162-1", "__EMPTY_3": "北中亀甲3778-1", "__EMPTY_4": "3-①", "__EMPTY_5": 1226, "__EMPTY_6": 1181, "__EMPTY_7": 1181, "__EMPTY_9": null, "__EMPTY_10": null, "__EMPTY_11": null, "手動一致フラグ": null, "検索_AreaOnRegistry": 1226, "検索_Address": "北中亀甲3778-1", "検索_Tiban": "3778-1" }, "geometry": { "type": "Polygon", "coordinates": [ [ [ 140.503909206, 35.74573524 ], [ 140.503585428, 35.745000056 ], [ 140.503482516, 35.745073123 ], [ 140.503465694999989, 35.745200793 ], [ 140.503508269, 35.745244822 ], [ 140.503560938, 35.745305758 ], [ 140.503650013999987, 35.745478747 ], [ 140.503718015, 35.74562634 ], [ 140.503794664, 35.745766302 ], [ 140.503909206, 35.74573524 ] ] ] } },
{ "type": "Feature", "properties": { "fid": 33, "__EMPTY": 33, "__EMPTY_1": "渋谷　義男", "__EMPTY_2": "北中1168-5", "__EMPTY_3": "北中山ノ下3953-1", "__EMPTY_4": "3-①", "__EMPTY_5": 771, "__EMPTY_6": 743, "__EMPTY_7": 7952, "__EMPTY_9": null, "__EMPTY_10": null, "__EMPTY_11": null, "手動一致フラグ": null, "検索_AreaOnRegistry": 771, "検索_Address": "北中山ノ下3953-1", "検索_Tiban": "3953-1" }, "geometry": { "type": "Polygon", "coordinates": [ [ [ 140.499375028, 35.75234261 ], [ 140.499008186, 35.752782213 ], [ 140.499151913, 35.752865701 ], [ 140.499250528, 35.752912213 ], [ 140.499288079, 35.752861502 ], [ 140.499315284, 35.752824761 ], [ 140.499453833, 35.752700379 ], [ 140.499640877, 35.752605226 ], [ 140.499695809, 35.752579637 ], [ 140.499731656, 35.752538701 ], [ 140.499375028, 35.75234261 ] ] ] } },
{ "type": "Feature", "properties": { "fid": 34, "__EMPTY": 34, "__EMPTY_1": "渋谷　義男", "__EMPTY_2": "北中1168-5", "__EMPTY_3": "北中山ノ下3953-2", "__EMPTY_4": "3-①", "__EMPTY_5": 950, "__EMPTY_6": 915, "__EMPTY_7": null, "__EMPTY_9": null, "__EMPTY_10": null, "__EMPTY_11": null, "手動一致フラグ": null, "検索_AreaOnRegistry": 950, "検索_Address": "北中山ノ下3953-2", "検索_Tiban": "3953-2" }, "geometry": { "type": "Polygon", "coordinates": [ [ [ 140.499375028, 35.75234261 ], [ 140.499008186, 35.752782213 ], [ 140.499151913, 35.752865701 ], [ 140.499250528, 35.752912213 ], [ 140.499288079, 35.752861502 ], [ 140.499315284, 35.752824761 ], [ 140.499453833, 35.752700379 ], [ 140.499640877, 35.752605226 ], [ 140.499695809, 35.752579637 ], [ 140.499731656, 35.752538701 ], [ 140.499375028, 35.75234261 ] ] ] } },
{ "type": "Feature", "properties": { "fid": 35, "__EMPTY": 35, "__EMPTY_1": "渋谷　義男", "__EMPTY_2": "北中1168-5", "__EMPTY_3": "北中下井戸3965", "__EMPTY_4": "3-①", "__EMPTY_5": 1349, "__EMPTY_6": 1300, "__EMPTY_7": null, "__EMPTY_9": null, "__EMPTY_10": null, "__EMPTY_11": null, "手動一致フラグ": null, "検索_AreaOnRegistry": 1349, "検索_Address": "北中下井戸3965", "検索_Tiban": "3965" }, "geometry": { "type": "Polygon", "coordinates": [ [ [ 140.497742728, 35.752018175 ], [ 140.497696854, 35.751984799 ], [ 140.497553696000011, 35.751865766 ], [ 140.497491078, 35.751795876 ], [ 140.497409295000011, 35.751700806 ], [ 140.497372571, 35.751636391 ], [ 140.497346614, 35.751584514 ], [ 140.497002342, 35.751844567 ], [ 140.497067412, 35.752034209 ], [ 140.497090140000012, 35.752073415 ], [ 140.497116233000014, 35.75210277 ], [ 140.497386111, 35.752279753 ], [ 140.497742728, 35.752018175 ] ] ] } },
{ "type": "Feature", "properties": { "fid": 36, "__EMPTY": 36, "__EMPTY_1": "渋谷　義男", "__EMPTY_2": "北中1168-5", "__EMPTY_3": "北中下井戸3966-1", "__EMPTY_4": "3-①", "__EMPTY_5": 80, "__EMPTY_6": 77, "__EMPTY_7": null, "__EMPTY_9": null, "__EMPTY_10": null, "__EMPTY_11": null, "手動一致フラグ": null, "検索_AreaOnRegistry": 80, "検索_Address": "北中下井戸3966-1", "検索_Tiban": "3966-1" }, "geometry": { "type": "Polygon", "coordinates": [ [ [ 140.497742728, 35.752018175 ], [ 140.497696854, 35.751984799 ], [ 140.497553696000011, 35.751865766 ], [ 140.497491078, 35.751795876 ], [ 140.497409295000011, 35.751700806 ], [ 140.497372571, 35.751636391 ], [ 140.497346614, 35.751584514 ], [ 140.497002342, 35.751844567 ], [ 140.497067412, 35.752034209 ], [ 140.497090140000012, 35.752073415 ], [ 140.497116233000014, 35.75210277 ], [ 140.497386111, 35.752279753 ], [ 140.497742728, 35.752018175 ] ] ] } },
{ "type": "Feature", "properties": { "fid": 37, "__EMPTY": 37, "__EMPTY_1": "渋谷　義男", "__EMPTY_2": "北中1168-5", "__EMPTY_3": "北中下井戸3966-2", "__EMPTY_4": "3-①", "__EMPTY_5": 763, "__EMPTY_6": 735, "__EMPTY_7": null, "__EMPTY_9": null, "__EMPTY_10": null, "__EMPTY_11": null, "手動一致フラグ": null, "検索_AreaOnRegistry": 763, "検索_Address": "北中下井戸3966-2", "検索_Tiban": "3966-2" }, "geometry": { "type": "Polygon", "coordinates": [ [ [ 140.497742728, 35.752018175 ], [ 140.497696854, 35.751984799 ], [ 140.497553696000011, 35.751865766 ], [ 140.497491078, 35.751795876 ], [ 140.497409295000011, 35.751700806 ], [ 140.497372571, 35.751636391 ], [ 140.497346614, 35.751584514 ], [ 140.497002342, 35.751844567 ], [ 140.497067412, 35.752034209 ], [ 140.497090140000012, 35.752073415 ], [ 140.497116233000014, 35.75210277 ], [ 140.497386111, 35.752279753 ], [ 140.497742728, 35.752018175 ] ] ] } },
{ "type": "Feature", "properties": { "fid": 38, "__EMPTY": 38, "__EMPTY_1": "渋谷　義男", "__EMPTY_2": "北中1168-5", "__EMPTY_3": "北中大越3979", "__EMPTY_4": "3-①", "__EMPTY_5": 770, "__EMPTY_6": 742, "__EMPTY_7": null, "__EMPTY_9": null, "__EMPTY_10": null, "__EMPTY_11": null, "手動一致フラグ": null, "検索_AreaOnRegistry": 770, "検索_Address": "北中大越3979", "検索_Tiban": "3979" }, "geometry": { "type": "Polygon", "coordinates": [ [ [ 140.498903897, 35.7541098 ], [ 140.498225817, 35.754253678 ], [ 140.498248223, 35.754310907 ], [ 140.498266963, 35.754352492 ], [ 140.498925467, 35.75420532 ], [ 140.498903897, 35.7541098 ] ] ] } },
{ "type": "Feature", "properties": { "fid": 39, "__EMPTY": 39, "__EMPTY_1": "渋谷　義男", "__EMPTY_2": "北中1168-5", "__EMPTY_3": "北中大越3981", "__EMPTY_4": "3-①", "__EMPTY_5": 1704, "__EMPTY_6": 1642, "__EMPTY_7": null, "__EMPTY_9": null, "__EMPTY_10": null, "__EMPTY_11": null, "手動一致フラグ": null, "検索_AreaOnRegistry": 1704, "検索_Address": "北中大越3981", "検索_Tiban": "3981" }, "geometry": { "type": "Polygon", "coordinates": [ [ [ 140.499014734000014, 35.754466911 ], [ 140.498384482, 35.754619243 ], [ 140.498467806, 35.754811883 ], [ 140.498486977999988, 35.754859867 ], [ 140.499139074999988, 35.754723477 ], [ 140.499115526, 35.754678503 ], [ 140.499026077999986, 35.754491326 ], [ 140.499014734000014, 35.754466911 ] ] ] } },
{ "type": "Feature", "properties": { "fid": 40, "__EMPTY": 40, "__EMPTY_1": "渋谷　義男", "__EMPTY_2": "北中1168-5", "__EMPTY_3": "北中大越3982", "__EMPTY_4": "3-①", "__EMPTY_5": 1866, "__EMPTY_6": 1798, "__EMPTY_7": null, "__EMPTY_9": null, "__EMPTY_10": null, "__EMPTY_11": null, "手動一致フラグ": null, "検索_AreaOnRegistry": 1866, "検索_Address": "北中大越3982", "検索_Tiban": "3982" }, "geometry": { "type": "Polygon", "coordinates": [ [ [ 140.499139074999988, 35.754723477 ], [ 140.498486977999988, 35.754859867 ], [ 140.498504766, 35.75490439 ], [ 140.498526299, 35.755006816 ], [ 140.498559345, 35.755133754 ], [ 140.499273889, 35.75496872 ], [ 140.499201334, 35.754842381 ], [ 140.499139074999988, 35.754723477 ] ] ] } },
{ "type": "Feature", "properties": { "fid": 41, "__EMPTY": 41, "__EMPTY_1": "渋谷　肇", "__EMPTY_2": "北中119", "__EMPTY_3": "北中山ノ下3960", "__EMPTY_4": "3-①", "__EMPTY_5": 1391, "__EMPTY_6": 1340, "__EMPTY_7": 1880, "__EMPTY_9": null, "__EMPTY_10": null, "__EMPTY_11": null, "手動一致フラグ": null, "検索_AreaOnRegistry": 1391, "検索_Address": "北中山ノ下3960", "検索_Tiban": "3960" }, "geometry": { "type": "Polygon", "coordinates": [ [ [ 140.498311339, 35.753222796 ], [ 140.49877815100001, 35.752671037 ], [ 140.498607491, 35.752571192 ], [ 140.498597281, 35.7525867 ], [ 140.498554680000012, 35.75264453 ], [ 140.498426652, 35.752790908 ], [ 140.498365178, 35.752858675 ], [ 140.498295168999988, 35.752936321 ], [ 140.498231948000011, 35.753001288 ], [ 140.498172313999987, 35.753083092 ], [ 140.498186369, 35.753115323 ], [ 140.498203939, 35.753155963 ], [ 140.498238566999987, 35.753175437 ], [ 140.498311339, 35.753222796 ] ] ] } },
{ "type": "Feature", "properties": { "fid": 42, "__EMPTY": 42, "__EMPTY_1": "渋谷　肇", "__EMPTY_2": "北中119", "__EMPTY_3": "北中下井戸3969", "__EMPTY_4": "3-①", "__EMPTY_5": 561, "__EMPTY_6": 540, "__EMPTY_7": null, "__EMPTY_9": null, "__EMPTY_10": null, "__EMPTY_11": null, "手動一致フラグ": null, "検索_AreaOnRegistry": 561, "検索_Address": "北中下井戸3969", "検索_Tiban": "3969" }, "geometry": { "type": "Polygon", "coordinates": [ [ [ 140.498136201, 35.753010631 ], [ 140.498439986, 35.752654961 ], [ 140.498532138, 35.752546288 ], [ 140.498442088, 35.752493406 ], [ 140.498357148999986, 35.752433473 ], [ 140.498289605, 35.752393109 ], [ 140.49827057600001, 35.75238029 ], [ 140.497908607, 35.752646497 ], [ 140.49794123800001, 35.752671765 ], [ 140.497993599000011, 35.752751546 ], [ 140.498070717, 35.752907044 ], [ 140.498116197, 35.752988267 ], [ 140.498136201, 35.753010631 ] ] ] } },
{ "type": "Feature", "properties": { "fid": 43, "__EMPTY": 43, "__EMPTY_1": "渋谷　潔", "__EMPTY_2": "北中198", "__EMPTY_3": "北中千上3930", "__EMPTY_4": "3-①", "__EMPTY_5": 1572, "__EMPTY_6": 1515, "__EMPTY_7": 4050, "__EMPTY_9": null, "__EMPTY_10": null, "__EMPTY_11": null, "手動一致フラグ": null, "検索_AreaOnRegistry": 1572, "検索_Address": "北中千上3930", "検索_Tiban": "3930" }, "geometry": { "type": "Polygon", "coordinates": [ [ [ 140.501804341, 35.753557087 ], [ 140.501895384, 35.753796883 ], [ 140.501922911, 35.753877001 ], [ 140.502324648000013, 35.753404544 ], [ 140.502220306999988, 35.75329181 ], [ 140.502136607000011, 35.753174278 ], [ 140.502071648, 35.753237197 ], [ 140.502039849, 35.753281388 ], [ 140.501993171, 35.753332218 ], [ 140.501932927000013, 35.753409345 ], [ 140.501861241, 35.753492154 ], [ 140.501804341, 35.753557087 ] ] ] } },
{ "type": "Feature", "properties": { "fid": 44, "__EMPTY": 44, "__EMPTY_1": "渋谷　潔", "__EMPTY_2": "北中198", "__EMPTY_3": "北中山ノ下3957", "__EMPTY_4": "3-①", "__EMPTY_5": 1133, "__EMPTY_6": 1092, "__EMPTY_7": null, "__EMPTY_9": null, "__EMPTY_10": null, "__EMPTY_11": null, "手動一致フラグ": null, "検索_AreaOnRegistry": 1133, "検索_Address": "北中山ノ下3957", "検索_Tiban": "3957" }, "geometry": { "type": "Polygon", "coordinates": [ [ [ 140.499245519999988, 35.752931626 ], [ 140.499190175, 35.752907631 ], [ 140.498715685, 35.7534581 ], [ 140.498750325, 35.753478978 ], [ 140.498797086, 35.753506814 ], [ 140.498843822999987, 35.753531842 ], [ 140.498881698, 35.753527418 ], [ 140.498928015, 35.753501876 ], [ 140.499003566999988, 35.753469149 ], [ 140.499092765, 35.75341949 ], [ 140.49912526, 35.753389811 ], [ 140.499140523, 35.753360227 ], [ 140.499146900999989, 35.753298384 ], [ 140.499164947999986, 35.753189137 ], [ 140.499188019, 35.753062584 ], [ 140.499245519999988, 35.752931626 ] ] ] } },
{ "type": "Feature", "properties": { "fid": 45, "__EMPTY": 45, "__EMPTY_1": "渋谷　潔", "__EMPTY_2": "北中198", "__EMPTY_3": "北中山ノ下3958", "__EMPTY_4": "3-①", "__EMPTY_5": 1497, "__EMPTY_6": 1443, "__EMPTY_7": null, "__EMPTY_9": null, "__EMPTY_10": null, "__EMPTY_11": null, "手動一致フラグ": null, "検索_AreaOnRegistry": 1497, "検索_Address": "北中山ノ下3958", "検索_Tiban": "3958" }, "geometry": { "type": "Polygon", "coordinates": [ [ [ 140.498715685, 35.7534581 ], [ 140.499190175, 35.752907631 ], [ 140.498985866, 35.752792169 ], [ 140.498798220999987, 35.753022178 ], [ 140.498525173, 35.753343966 ], [ 140.498587536, 35.753382953 ], [ 140.498715685, 35.7534581 ] ] ] } },
{ "type": "Feature", "properties": { "fid": 46, "__EMPTY": 46, "__EMPTY_1": "鈴木　御喜男", "__EMPTY_2": "北中308-1", "__EMPTY_3": "北中山ノ下3944", "__EMPTY_4": "3-①", "__EMPTY_5": 1442, "__EMPTY_6": 1390, "__EMPTY_7": 2310, "__EMPTY_9": null, "__EMPTY_10": null, "__EMPTY_11": null, "手動一致フラグ": null, "検索_AreaOnRegistry": 1442, "検索_Address": "北中山ノ下3944", "検索_Tiban": "3944" }, "geometry": { "type": "Polygon", "coordinates": [ [ [ 140.499396775, 35.752278548 ], [ 140.499883273, 35.751722953 ], [ 140.499716724, 35.751592913 ], [ 140.49921650600001, 35.752174518 ], [ 140.499396775, 35.752278548 ] ] ] } },
{ "type": "Feature", "properties": { "fid": 47, "__EMPTY": 47, "__EMPTY_1": "鈴木　御喜男", "__EMPTY_2": "北中308-1", "__EMPTY_3": "北中山ノ下3945", "__EMPTY_4": "3-①", "__EMPTY_5": 955, "__EMPTY_6": 920, "__EMPTY_7": null, "__EMPTY_9": null, "__EMPTY_10": null, "__EMPTY_11": null, "手動一致フラグ": null, "検索_AreaOnRegistry": 955, "検索_Address": "北中山ノ下3945", "検索_Tiban": "3945" }, "geometry": { "type": "Polygon", "coordinates": [ [ [ 140.49921650600001, 35.752174518 ], [ 140.499716724, 35.751592913 ], [ 140.499465249, 35.751396562 ], [ 140.499431476000012, 35.751479628 ], [ 140.499407995000013, 35.751557018 ], [ 140.499354218, 35.751721107 ], [ 140.499340948, 35.751782988 ], [ 140.499305557000014, 35.751878706 ], [ 140.499276883, 35.751953315 ], [ 140.499227614, 35.752037872 ], [ 140.499166339, 35.752129518 ], [ 140.499166444, 35.75214216 ], [ 140.499206300999987, 35.752168629 ], [ 140.49921650600001, 35.752174518 ] ] ] } },
{ "type": "Feature", "properties": { "fid": 48, "__EMPTY": 48, "__EMPTY_1": "平山　勇", "__EMPTY_2": "北中256", "__EMPTY_3": "北中脇3802", "__EMPTY_4": "3-①", "__EMPTY_5": 2941, "__EMPTY_6": 2835, "__EMPTY_7": 2835, "__EMPTY_9": null, "__EMPTY_10": null, "__EMPTY_11": null, "手動一致フラグ": null, "検索_AreaOnRegistry": 2941, "検索_Address": "北中脇3802", "検索_Tiban": "3802" }, "geometry": { "type": "Polygon", "coordinates": [ [ [ 140.504724650000014, 35.747505092 ], [ 140.505039147, 35.747420704 ], [ 140.504671478, 35.746550709 ], [ 140.504344636000013, 35.746644235 ], [ 140.504494556999987, 35.746983858 ], [ 140.504724650000014, 35.747505092 ] ] ] } },
{ "type": "Feature", "properties": { "fid": 49, "__EMPTY": 49, "__EMPTY_1": "押田　芳己", "__EMPTY_2": "北中249", "__EMPTY_3": "北中千上3928-1", "__EMPTY_4": "3-①", "__EMPTY_5": 33, "__EMPTY_6": 31, "__EMPTY_7": 2217, "__EMPTY_9": null, "__EMPTY_10": null, "__EMPTY_11": null, "手動一致フラグ": null, "検索_AreaOnRegistry": 33, "検索_Address": "北中千上3928-1", "検索_Tiban": "3928-1" }, "geometry": { "type": "Polygon", "coordinates": [ [ [ 140.502562546, 35.753599658 ], [ 140.502235879000011, 35.753993625 ], [ 140.502287666, 35.753996046 ], [ 140.502406079, 35.754005689 ], [ 140.502606246, 35.754028724 ], [ 140.502896967, 35.7536869 ], [ 140.502786295, 35.753655482 ], [ 140.502597505000011, 35.753610646 ], [ 140.502562546, 35.753599658 ] ] ] } },
{ "type": "Feature", "properties": { "fid": 50, "__EMPTY": 50, "__EMPTY_1": "押田　芳己", "__EMPTY_2": "北中249", "__EMPTY_3": "北中千上3928-2", "__EMPTY_4": "3-①", "__EMPTY_5": 560, "__EMPTY_6": 539, "__EMPTY_7": null, "__EMPTY_9": null, "__EMPTY_10": null, "__EMPTY_11": null, "手動一致フラグ": null, "検索_AreaOnRegistry": 560, "検索_Address": "北中千上3928-2", "検索_Tiban": "3928-2" }, "geometry": { "type": "Polygon", "coordinates": [ [ [ 140.502562546, 35.753599658 ], [ 140.502235879000011, 35.753993625 ], [ 140.502287666, 35.753996046 ], [ 140.502406079, 35.754005689 ], [ 140.502606246, 35.754028724 ], [ 140.502896967, 35.7536869 ], [ 140.502786295, 35.753655482 ], [ 140.502597505000011, 35.753610646 ], [ 140.502562546, 35.753599658 ] ] ] } },
{ "type": "Feature", "properties": { "fid": 51, "__EMPTY": 51, "__EMPTY_1": "押田　芳己", "__EMPTY_2": "北中249", "__EMPTY_3": "北中千上3929", "__EMPTY_4": "3-①", "__EMPTY_5": 1709, "__EMPTY_6": 1647, "__EMPTY_7": null, "__EMPTY_9": null, "__EMPTY_10": null, "__EMPTY_11": null, "手動一致フラグ": null, "検索_AreaOnRegistry": 1709, "検索_Address": "北中千上3929", "検索_Tiban": "3929" }, "geometry": { "type": "Polygon", "coordinates": [ [ [ 140.502324648000013, 35.753404544 ], [ 140.501922911, 35.753877001 ], [ 140.501930710000011, 35.7538997 ], [ 140.501956352, 35.753943572 ], [ 140.501980642, 35.753963103 ], [ 140.502018693999986, 35.753979749 ], [ 140.502075048, 35.753986927 ], [ 140.50216239, 35.753990187 ], [ 140.502235879000011, 35.753993625 ], [ 140.502562546, 35.753599658 ], [ 140.50252724, 35.753588561 ], [ 140.502450974, 35.753535886 ], [ 140.502324648000013, 35.753404544 ] ] ] } },
{ "type": "Feature", "properties": { "fid": 52, "__EMPTY": 52, "__EMPTY_1": "小川　博", "__EMPTY_2": "北中213-1", "__EMPTY_3": "北中亀甲3773", "__EMPTY_4": "3-①", "__EMPTY_5": 1182, "__EMPTY_6": 1139, "__EMPTY_7": 1139, "__EMPTY_9": null, "__EMPTY_10": null, "__EMPTY_11": null, "手動一致フラグ": null, "検索_AreaOnRegistry": 1182, "検索_Address": "北中亀甲3773", "検索_Tiban": "3773" }, "geometry": { "type": "Polygon", "coordinates": [ [ [ 140.504501, 35.745574756 ], [ 140.504599473000013, 35.745548052 ], [ 140.504603829, 35.745519955 ], [ 140.504219709000012, 35.744611234 ], [ 140.504105353999989, 35.744662403 ], [ 140.504501, 35.745574756 ] ] ] } },
{ "type": "Feature", "properties": { "fid": 53, "__EMPTY": 53, "__EMPTY_1": "内藤　光久", "__EMPTY_2": "北中238-2", "__EMPTY_3": "北中菖蒲入3892", "__EMPTY_4": "3-①", "__EMPTY_5": 1491, "__EMPTY_6": 1437, "__EMPTY_7": 2537, "__EMPTY_9": null, "__EMPTY_10": null, "__EMPTY_11": null, "手動一致フラグ": null, "検索_AreaOnRegistry": 1491, "検索_Address": "北中菖蒲入3892", "検索_Tiban": "3892" }, "geometry": { "type": "Polygon", "coordinates": [ [ [ 140.50236315, 35.749624935 ], [ 140.502185913, 35.749486979 ], [ 140.501609044, 35.749976604 ], [ 140.501708473, 35.750054206 ], [ 140.501777892, 35.750112819 ], [ 140.50236315, 35.749624935 ] ] ] } },
{ "type": "Feature", "properties": { "fid": 54, "__EMPTY": 54, "__EMPTY_1": "内藤　光久", "__EMPTY_2": "北中238-2", "__EMPTY_3": "北中菖蒲入3893", "__EMPTY_4": "3-①", "__EMPTY_5": 1142, "__EMPTY_6": 1100, "__EMPTY_7": null, "__EMPTY_9": null, "__EMPTY_10": null, "__EMPTY_11": null, "手動一致フラグ": null, "検索_AreaOnRegistry": 1142, "検索_Address": "北中菖蒲入3893", "検索_Tiban": "3893" }, "geometry": { "type": "Polygon", "coordinates": [ [ [ 140.502496178, 35.749729522 ], [ 140.502376166, 35.74963596 ], [ 140.501792655, 35.750126644 ], [ 140.501915785, 35.750220076 ], [ 140.502496178, 35.749729522 ] ] ] } },
{ "type": "Feature", "properties": { "fid": 55, "__EMPTY": 55, "__EMPTY_1": "小川　正子", "__EMPTY_2": "北中458", "__EMPTY_3": "北中ヤワラヘタ3839", "__EMPTY_4": "3-①", "__EMPTY_5": 1719, "__EMPTY_6": 1657, "__EMPTY_7": 5607, "__EMPTY_9": null, "__EMPTY_10": null, "__EMPTY_11": null, "手動一致フラグ": null, "検索_AreaOnRegistry": 1719, "検索_Address": "北中ヤワラヘタ3839", "検索_Tiban": "3839" }, "geometry": { "type": "Polygon", "coordinates": [ [ [ 140.506606864, 35.750962385 ], [ 140.506220436, 35.750133589 ], [ 140.506208788, 35.7501133 ], [ 140.505976594, 35.750179917 ], [ 140.506233708, 35.750723087 ], [ 140.506330744, 35.750795533 ], [ 140.506439949, 35.750949883 ], [ 140.506487715, 35.750999557 ], [ 140.506598614000012, 35.750965571 ], [ 140.506606864, 35.750962385 ] ] ] } },
{ "type": "Feature", "properties": { "fid": 56, "__EMPTY": 56, "__EMPTY_1": "小川　正子", "__EMPTY_2": "北中458", "__EMPTY_3": "北中筋田3862", "__EMPTY_4": "3-①", "__EMPTY_5": 1109, "__EMPTY_6": 1069, "__EMPTY_7": null, "__EMPTY_9": null, "__EMPTY_10": null, "__EMPTY_11": null, "手動一致フラグ": null, "検索_AreaOnRegistry": 1109, "検索_Address": "北中筋田3862", "検索_Tiban": "3862" }, "geometry": { "type": "Polygon", "coordinates": [ [ [ 140.502949308000012, 35.74872538 ], [ 140.503704569, 35.748063721 ], [ 140.503599486000013, 35.747984123 ], [ 140.502843386, 35.748635251 ], [ 140.502904056, 35.748679697 ], [ 140.502949308000012, 35.74872538 ] ] ] } },
{ "type": "Feature", "properties": { "fid": 57, "__EMPTY": 57, "__EMPTY_1": "小川　正子", "__EMPTY_2": "北中458", "__EMPTY_3": "北中筋田3863", "__EMPTY_4": "3-①", "__EMPTY_5": 1825, "__EMPTY_6": 1759, "__EMPTY_7": null, "__EMPTY_9": null, "__EMPTY_10": null, "__EMPTY_11": null, "手動一致フラグ": null, "検索_AreaOnRegistry": 1825, "検索_Address": "北中筋田3863", "検索_Tiban": "3863" }, "geometry": { "type": "Polygon", "coordinates": [ [ [ 140.503935417, 35.74823858 ], [ 140.503704569, 35.748063721 ], [ 140.502949308000012, 35.74872538 ], [ 140.502953874000013, 35.74872999 ], [ 140.503198938, 35.748911333 ], [ 140.503915234, 35.748297691 ], [ 140.503935417, 35.74823858 ] ] ] } },
{ "type": "Feature", "properties": { "fid": 58, "__EMPTY": 58, "__EMPTY_1": "小川　正子", "__EMPTY_2": "北中458", "__EMPTY_3": "北中筋田3864", "__EMPTY_4": "3-①", "__EMPTY_5": 1164, "__EMPTY_6": 1122, "__EMPTY_7": null, "__EMPTY_9": null, "__EMPTY_10": null, "__EMPTY_11": null, "手動一致フラグ": null, "検索_AreaOnRegistry": 1164, "検索_Address": "北中筋田3864", "検索_Tiban": "3864" }, "geometry": { "type": "Polygon", "coordinates": [ [ [ 140.503935417, 35.74823858 ], [ 140.503704569, 35.748063721 ], [ 140.502949308000012, 35.74872538 ], [ 140.502953874000013, 35.74872999 ], [ 140.503198938, 35.748911333 ], [ 140.503915234, 35.748297691 ], [ 140.503935417, 35.74823858 ] ] ] } },
{ "type": "Feature", "properties": { "fid": 59, "__EMPTY": 59, "__EMPTY_1": "小川　勝巳", "__EMPTY_2": "北中472", "__EMPTY_3": "北中亀甲3775", "__EMPTY_4": "3-①", "__EMPTY_5": 887, "__EMPTY_6": 855, "__EMPTY_7": 9579, "__EMPTY_9": null, "__EMPTY_10": null, "__EMPTY_11": null, "手動一致フラグ": null, "検索_AreaOnRegistry": 887, "検索_Address": "北中亀甲3775", "検索_Tiban": "3775" }, "geometry": { "type": "Polygon", "coordinates": [ [ [ 140.504300836999988, 35.745629037 ], [ 140.504377603, 35.74560822 ], [ 140.503988783000011, 35.744722941 ], [ 140.503929121, 35.744763176 ], [ 140.504300836999988, 35.745629037 ] ] ] } },
{ "type": "Feature", "properties": { "fid": 60, "__EMPTY": 60, "__EMPTY_1": "小川　勝巳", "__EMPTY_2": "北中472", "__EMPTY_3": "北中菖蒲入3873", "__EMPTY_4": "3-①", "__EMPTY_5": 953, "__EMPTY_6": 918, "__EMPTY_7": null, "__EMPTY_9": null, "__EMPTY_10": null, "__EMPTY_11": null, "手動一致フラグ": null, "検索_AreaOnRegistry": 953, "検索_Address": "北中菖蒲入3873", "検索_Tiban": "3873" }, "geometry": { "type": "Polygon", "coordinates": [ [ [ 140.503102251, 35.749402123 ], [ 140.502626045999989, 35.749807099 ], [ 140.502822517999988, 35.749954659 ], [ 140.503104267999987, 35.749714531 ], [ 140.503064067, 35.749544079 ], [ 140.503081331, 35.749444951 ], [ 140.503102251, 35.749402123 ] ] ] } },
{ "type": "Feature", "properties": { "fid": 61, "__EMPTY": 61, "__EMPTY_1": "小川　勝巳", "__EMPTY_2": "北中472", "__EMPTY_3": "北中菖蒲入3890", "__EMPTY_4": "3-①", "__EMPTY_5": 735, "__EMPTY_6": 708, "__EMPTY_7": null, "__EMPTY_9": null, "__EMPTY_10": null, "__EMPTY_11": null, "手動一致フラグ": null, "検索_AreaOnRegistry": 735, "検索_Address": "北中菖蒲入3890", "検索_Tiban": "3890" }, "geometry": { "type": "Polygon", "coordinates": [ [ [ 140.502018048999986, 35.749356318 ], [ 140.501501529, 35.749829195 ], [ 140.50149316, 35.74985874 ], [ 140.501491613000013, 35.749879821 ], [ 140.501514178, 35.749899361 ], [ 140.501590525000012, 35.74996215 ], [ 140.501609044, 35.749976604 ], [ 140.502185913, 35.749486979 ], [ 140.502018048999986, 35.749356318 ] ] ] } },
{ "type": "Feature", "properties": { "fid": 62, "__EMPTY": 62, "__EMPTY_1": "小川　勝巳", "__EMPTY_2": "北中472", "__EMPTY_3": "北中菖蒲入3891", "__EMPTY_4": "3-①", "__EMPTY_5": 722, "__EMPTY_6": 696, "__EMPTY_7": null, "__EMPTY_9": null, "__EMPTY_10": null, "__EMPTY_11": null, "手動一致フラグ": null, "検索_AreaOnRegistry": 722, "検索_Address": "北中菖蒲入3891", "検索_Tiban": "3891" }, "geometry": { "type": "Polygon", "coordinates": [ [ [ 140.502018048999986, 35.749356318 ], [ 140.501501529, 35.749829195 ], [ 140.50149316, 35.74985874 ], [ 140.501491613000013, 35.749879821 ], [ 140.501514178, 35.749899361 ], [ 140.501590525000012, 35.74996215 ], [ 140.501609044, 35.749976604 ], [ 140.502185913, 35.749486979 ], [ 140.502018048999986, 35.749356318 ] ] ] } },
{ "type": "Feature", "properties": { "fid": 63, "__EMPTY": 63, "__EMPTY_1": "小川　勝巳", "__EMPTY_2": "北中472", "__EMPTY_3": "北中菖蒲入3894", "__EMPTY_4": "3-①", "__EMPTY_5": 1491, "__EMPTY_6": 1437, "__EMPTY_7": null, "__EMPTY_9": null, "__EMPTY_10": null, "__EMPTY_11": null, "手動一致フラグ": null, "検索_AreaOnRegistry": 1491, "検索_Address": "北中菖蒲入3894", "検索_Tiban": "3894" }, "geometry": { "type": "Polygon", "coordinates": [ [ [ 140.502496178, 35.749729522 ], [ 140.501915785, 35.750220076 ], [ 140.502037212, 35.750315906 ], [ 140.502068487, 35.750346636 ], [ 140.502116476999987, 35.750315466 ], [ 140.502205409999988, 35.750234902 ], [ 140.50225497, 35.750185461 ], [ 140.502352672, 35.75012311 ], [ 140.502407377, 35.75007083 ], [ 140.502482607, 35.750000175 ], [ 140.502554497, 35.749942181 ], [ 140.502610925, 35.749889893 ], [ 140.50266063, 35.749857729 ], [ 140.502496178, 35.749729522 ] ] ] } },
{ "type": "Feature", "properties": { "fid": 64, "__EMPTY": 64, "__EMPTY_1": "小川　勝巳", "__EMPTY_2": "北中472", "__EMPTY_3": "北中菖蒲入3895", "__EMPTY_4": "3-①", "__EMPTY_5": 1939, "__EMPTY_6": 1869, "__EMPTY_7": null, "__EMPTY_9": null, "__EMPTY_10": null, "__EMPTY_11": null, "手動一致フラグ": null, "検索_AreaOnRegistry": 1939, "検索_Address": "北中菖蒲入3895", "検索_Tiban": "3895" }, "geometry": { "type": "Polygon", "coordinates": [ [ [ 140.502617461, 35.750244824 ], [ 140.502861704999987, 35.750037174 ], [ 140.502816551, 35.749995284 ], [ 140.502815586, 35.749983181 ], [ 140.50279402000001, 35.749979957 ], [ 140.50276456200001, 35.749960455 ], [ 140.502658745, 35.74987676 ], [ 140.502638209, 35.749893731 ], [ 140.502592013, 35.74993332 ], [ 140.502533860999989, 35.749985619 ], [ 140.502470588, 35.750043565 ], [ 140.502417523, 35.750086002 ], [ 140.502347367999988, 35.75014539 ], [ 140.502272044, 35.750204808 ], [ 140.50223264600001, 35.750233121 ], [ 140.502154016, 35.750309414 ], [ 140.502088949000012, 35.750358941 ], [ 140.502090777, 35.750371573 ], [ 140.502154886, 35.750413359 ], [ 140.502226111999988, 35.750481794 ], [ 140.502319666, 35.750541678 ], [ 140.502336886, 35.750540177 ], [ 140.502396576, 35.750465675 ], [ 140.502461503, 35.750399292 ], [ 140.502528129000012, 35.75033009 ], [ 140.502569072999989, 35.750280697 ], [ 140.502598108, 35.750249631 ], [ 140.502617461, 35.750244824 ] ] ] } },
{ "type": "Feature", "properties": { "fid": 65, "__EMPTY": 65, "__EMPTY_1": "小川　勝巳", "__EMPTY_2": "北中472", "__EMPTY_3": "北中餅田3898", "__EMPTY_4": "3-①", "__EMPTY_5": 1716, "__EMPTY_6": 1654, "__EMPTY_7": null, "__EMPTY_9": null, "__EMPTY_10": null, "__EMPTY_11": null, "手動一致フラグ": null, "検索_AreaOnRegistry": 1716, "検索_Address": "北中餅田3898", "検索_Tiban": "3898" }, "geometry": { "type": "Polygon", "coordinates": [ [ [ 140.502051701, 35.750435759 ], [ 140.501493641, 35.750921574 ], [ 140.501613791000011, 35.751014256 ], [ 140.501646894, 35.750988786 ], [ 140.501696103, 35.750966038 ], [ 140.501751002, 35.750936701 ], [ 140.501799086, 35.750916769 ], [ 140.501859790999987, 35.750894892 ], [ 140.501909078000011, 35.750881507 ], [ 140.501945769, 35.750872874 ], [ 140.501987006, 35.750858599 ], [ 140.502020241999986, 35.750849049 ], [ 140.502047702999988, 35.750835786 ], [ 140.502141122000012, 35.750741992 ], [ 140.50225956, 35.750617718 ], [ 140.502266241, 35.750592396 ], [ 140.502248829, 35.750570953 ], [ 140.50217841, 35.750530139 ], [ 140.502095188999988, 35.750469731 ], [ 140.502051701, 35.750435759 ] ] ] } },
{ "type": "Feature", "properties": { "fid": 66, "__EMPTY": 66, "__EMPTY_1": "小川　勝巳", "__EMPTY_2": "北中472", "__EMPTY_3": "北中餅田3899", "__EMPTY_4": "3-①", "__EMPTY_5": 1496, "__EMPTY_6": 1442, "__EMPTY_7": null, "__EMPTY_9": null, "__EMPTY_10": null, "__EMPTY_11": null, "手動一致フラグ": null, "検索_AreaOnRegistry": 1496, "検索_Address": "北中餅田3899", "検索_Tiban": "3899" }, "geometry": { "type": "Polygon", "coordinates": [ [ [ 140.501908809000014, 35.750324139 ], [ 140.501332334000011, 35.750797144 ], [ 140.501493641, 35.750921574 ], [ 140.502051701, 35.750435759 ], [ 140.501908809000014, 35.750324139 ] ] ] } },
{ "type": "Feature", "properties": { "fid": 67, "__EMPTY": 67, "__EMPTY_1": "小川　孝一", "__EMPTY_2": "北中475-11", "__EMPTY_3": "北中菖蒲入3889", "__EMPTY_4": "3-①", "__EMPTY_5": 1482, "__EMPTY_6": 1428, "__EMPTY_7": 1428, "__EMPTY_9": null, "__EMPTY_10": null, "__EMPTY_11": null, "手動一致フラグ": null, "検索_AreaOnRegistry": 1482, "検索_Address": "北中菖蒲入3889", "検索_Tiban": "3889" }, "geometry": { "type": "Polygon", "coordinates": [ [ [ 140.501501529, 35.749829195 ], [ 140.502018048999986, 35.749356318 ], [ 140.501875754999986, 35.749245559 ], [ 140.501680775000011, 35.749420828 ], [ 140.501526751, 35.749548109 ], [ 140.501418957, 35.749640015 ], [ 140.50130604, 35.749737569 ], [ 140.501373664999988, 35.749787763 ], [ 140.501415348, 35.749826864 ], [ 140.501434350000011, 35.749832378 ], [ 140.50146345600001, 35.74980974 ], [ 140.501487579000013, 35.749809606 ], [ 140.501501529, 35.749829195 ] ] ] } },
{ "type": "Feature", "properties": { "fid": 68, "__EMPTY": 68, "__EMPTY_1": "内藤　義美", "__EMPTY_2": "北中478", "__EMPTY_3": "北中菖蒲入3884", "__EMPTY_4": "3-①", "__EMPTY_5": 200, "__EMPTY_6": 192, "__EMPTY_7": 1886, "__EMPTY_9": null, "__EMPTY_10": null, "__EMPTY_11": null, "手動一致フラグ": null, "検索_AreaOnRegistry": 200, "検索_Address": "北中菖蒲入3884", "検索_Tiban": "3884" }, "geometry": { "type": "Polygon", "coordinates": [ [ [ 140.501506146999986, 35.748689044 ], [ 140.501429439, 35.748674486 ], [ 140.501385005, 35.74867286 ], [ 140.501340602999989, 35.74867498 ], [ 140.50127787400001, 35.748683444 ], [ 140.501235065, 35.748693046 ], [ 140.50120225500001, 35.748707588 ], [ 140.501340959, 35.748809207 ], [ 140.501506146999986, 35.748689044 ] ] ] } },
{ "type": "Feature", "properties": { "fid": 69, "__EMPTY": 69, "__EMPTY_1": "内藤　義美", "__EMPTY_2": "北中478", "__EMPTY_3": "北中菖蒲入3885", "__EMPTY_4": "3-①", "__EMPTY_5": 734, "__EMPTY_6": 707, "__EMPTY_7": null, "__EMPTY_9": null, "__EMPTY_10": null, "__EMPTY_11": null, "手動一致フラグ": null, "検索_AreaOnRegistry": 734, "検索_Address": "北中菖蒲入3885", "検索_Tiban": "3885" }, "geometry": { "type": "Polygon", "coordinates": [ [ [ 140.501553852, 35.748996564 ], [ 140.501211029, 35.748731315 ], [ 140.501187953, 35.748719456 ], [ 140.501149006, 35.748732783 ], [ 140.501126164, 35.74874883 ], [ 140.501088069, 35.748864229 ], [ 140.501052263, 35.748978679 ], [ 140.501031993, 35.749027489 ], [ 140.501024335000011, 35.749073419 ], [ 140.50102346, 35.749106201 ], [ 140.501043723, 35.749194118 ], [ 140.501084107, 35.749352722 ], [ 140.501092053, 35.749380347 ], [ 140.501553852, 35.748996564 ] ] ] } },
{ "type": "Feature", "properties": { "fid": 70, "__EMPTY": 70, "__EMPTY_1": "内藤　義美", "__EMPTY_2": "北中478", "__EMPTY_3": "北中菖蒲入3886", "__EMPTY_4": "3-①", "__EMPTY_5": 1024, "__EMPTY_6": 987, "__EMPTY_7": null, "__EMPTY_9": null, "__EMPTY_10": null, "__EMPTY_11": null, "手動一致フラグ": null, "検索_AreaOnRegistry": 1024, "検索_Address": "北中菖蒲入3886", "検索_Tiban": "3886" }, "geometry": { "type": "Polygon", "coordinates": [ [ [ 140.501553852, 35.748996564 ], [ 140.501211029, 35.748731315 ], [ 140.501187953, 35.748719456 ], [ 140.501149006, 35.748732783 ], [ 140.501126164, 35.74874883 ], [ 140.501088069, 35.748864229 ], [ 140.501052263, 35.748978679 ], [ 140.501031993, 35.749027489 ], [ 140.501024335000011, 35.749073419 ], [ 140.50102346, 35.749106201 ], [ 140.501043723, 35.749194118 ], [ 140.501084107, 35.749352722 ], [ 140.501092053, 35.749380347 ], [ 140.501553852, 35.748996564 ] ] ] } },
{ "type": "Feature", "properties": { "fid": 71, "__EMPTY": 71, "__EMPTY_1": "小川　大直", "__EMPTY_2": "北中486-1", "__EMPTY_3": "北中亀甲3780", "__EMPTY_4": "3-①", "__EMPTY_5": 2172, "__EMPTY_6": 2093, "__EMPTY_7": 6562, "__EMPTY_9": null, "__EMPTY_10": null, "__EMPTY_11": null, "手動一致フラグ": null, "検索_AreaOnRegistry": 2172, "検索_Address": "北中亀甲3780", "検索_Tiban": "3780" }, "geometry": { "type": "Polygon", "coordinates": [ [ [ 140.503139297, 35.745937185 ], [ 140.503483405, 35.745843653 ], [ 140.503262869, 35.745297259 ], [ 140.503233567, 35.74525452 ], [ 140.502924885999988, 35.745470748 ], [ 140.502933043000013, 35.745488493 ], [ 140.50313291, 35.74592329 ], [ 140.503139297, 35.745937185 ] ] ] } },
{ "type": "Feature", "properties": { "fid": 72, "__EMPTY": 72, "__EMPTY_1": "小川　大直", "__EMPTY_2": "北中486-1", "__EMPTY_3": "北中亀甲3786", "__EMPTY_4": "3-①", "__EMPTY_5": 1475, "__EMPTY_6": 1421, "__EMPTY_7": null, "__EMPTY_9": null, "__EMPTY_10": null, "__EMPTY_11": null, "手動一致フラグ": null, "検索_AreaOnRegistry": 1475, "検索_Address": "北中亀甲3786", "検索_Tiban": "3786" }, "geometry": { "type": "Polygon", "coordinates": [ [ [ 140.50251685500001, 35.746186696 ], [ 140.502714383000011, 35.746638504 ], [ 140.502755349000012, 35.746676962 ], [ 140.502801406, 35.746674917 ], [ 140.502832122, 35.746674746 ], [ 140.502921998, 35.746665303 ], [ 140.502994322, 35.746655957 ], [ 140.503018336, 35.746641515 ], [ 140.502978558, 35.74657026 ], [ 140.502936895, 35.746485831 ], [ 140.502779151999988, 35.74611342 ], [ 140.502770301999988, 35.746104526 ], [ 140.502684902999988, 35.746124676 ], [ 140.502531794, 35.746180975 ], [ 140.50251685500001, 35.746186696 ] ] ] } },
{ "type": "Feature", "properties": { "fid": 73, "__EMPTY": 73, "__EMPTY_1": "小川　大直", "__EMPTY_2": "北中486-1", "__EMPTY_3": "北中亀甲3787", "__EMPTY_4": "3-①", "__EMPTY_5": 1438, "__EMPTY_6": 1386, "__EMPTY_7": null, "__EMPTY_9": null, "__EMPTY_10": null, "__EMPTY_11": null, "手動一致フラグ": null, "検索_AreaOnRegistry": 1438, "検索_Address": "北中亀甲3787", "検索_Tiban": "3787" }, "geometry": { "type": "Polygon", "coordinates": [ [ [ 140.503242738000012, 35.746452462 ], [ 140.503208343000011, 35.746412776 ], [ 140.503035106999988, 35.746024354 ], [ 140.502787778999988, 35.746095486 ], [ 140.502779151999988, 35.74611342 ], [ 140.502936895, 35.746485831 ], [ 140.502978558, 35.74657026 ], [ 140.503018336, 35.746641515 ], [ 140.50305117, 35.746632388 ], [ 140.50308175, 35.746616122 ], [ 140.50311227, 35.7465927 ], [ 140.503142656, 35.746553181 ], [ 140.503186113999988, 35.746502858 ], [ 140.503242738000012, 35.746452462 ] ] ] } },
{ "type": "Feature", "properties": { "fid": 74, "__EMPTY": 74, "__EMPTY_1": "小川　大直", "__EMPTY_2": "北中486-1", "__EMPTY_3": "北中亀甲3852", "__EMPTY_4": "3-①", "__EMPTY_5": 1725, "__EMPTY_6": 1662, "__EMPTY_7": null, "__EMPTY_9": null, "__EMPTY_10": null, "__EMPTY_11": null, "手動一致フラグ": "手動一致", "検索_AreaOnRegistry": 1725, "検索_Address": "北中筋田3852", "検索_Tiban": "3852" }, "geometry": { "type": "Polygon", "coordinates": [ [ [ 140.504447639, 35.747860887 ], [ 140.503985092, 35.748263891 ], [ 140.504236709, 35.748456857 ], [ 140.504393474000011, 35.748326947 ], [ 140.504650635, 35.748271999 ], [ 140.504618249, 35.748147982 ], [ 140.504630193, 35.748133868 ], [ 140.504628281, 35.748111403 ], [ 140.504542292, 35.747926458 ], [ 140.504519244, 35.747881614 ], [ 140.504447639, 35.747860887 ] ] ] } },
{ "type": "Feature", "properties": { "fid": 75, "__EMPTY": 75, "__EMPTY_1": "小川　よし子", "__EMPTY_2": "北中496-1", "__EMPTY_3": "北中ヤワラヘタ3829", "__EMPTY_4": "3-①", "__EMPTY_5": 580, "__EMPTY_6": 559, "__EMPTY_7": 7290, "__EMPTY_9": null, "__EMPTY_10": null, "__EMPTY_11": null, "手動一致フラグ": null, "検索_AreaOnRegistry": 580, "検索_Address": "北中ヤワラヘタ3829", "検索_Tiban": "3829" }, "geometry": { "type": "Polygon", "coordinates": [ [ [ 140.506031916000012, 35.750137884 ], [ 140.506198958, 35.750089174 ], [ 140.505826503, 35.749226755 ], [ 140.505657049, 35.749276143 ], [ 140.506031916000012, 35.750137884 ] ] ] } },
{ "type": "Feature", "properties": { "fid": 76, "__EMPTY": 76, "__EMPTY_1": "小川　よし子", "__EMPTY_2": "北中496-1", "__EMPTY_3": "北中ヤワラヘタ3830", "__EMPTY_4": "3-①", "__EMPTY_5": 1040, "__EMPTY_6": 1002, "__EMPTY_7": null, "__EMPTY_9": null, "__EMPTY_10": null, "__EMPTY_11": null, "手動一致フラグ": null, "検索_AreaOnRegistry": 1040, "検索_Address": "北中ヤワラヘタ3830", "検索_Tiban": "3830" }, "geometry": { "type": "Polygon", "coordinates": [ [ [ 140.506031916000012, 35.750137884 ], [ 140.506198958, 35.750089174 ], [ 140.505826503, 35.749226755 ], [ 140.505657049, 35.749276143 ], [ 140.506031916000012, 35.750137884 ] ] ] } },
{ "type": "Feature", "properties": { "fid": 77, "__EMPTY": 77, "__EMPTY_1": "小川　よし子", "__EMPTY_2": "北中496-1", "__EMPTY_3": "北中筋田3865", "__EMPTY_4": "3-①", "__EMPTY_5": 2969, "__EMPTY_6": 2862, "__EMPTY_7": null, "__EMPTY_9": null, "__EMPTY_10": null, "__EMPTY_11": null, "手動一致フラグ": null, "検索_AreaOnRegistry": 2969, "検索_Address": "北中筋田3865", "検索_Tiban": "3865" }, "geometry": { "type": "Polygon", "coordinates": [ [ [ 140.503449735, 35.749118433 ], [ 140.50422394, 35.748466117 ], [ 140.503974711000012, 35.748266643 ], [ 140.503210547, 35.748925785 ], [ 140.503299559999988, 35.748994175 ], [ 140.503449735, 35.749118433 ] ] ] } },
{ "type": "Feature", "properties": { "fid": 78, "__EMPTY": 78, "__EMPTY_1": "小川　よし子", "__EMPTY_2": "北中496-1", "__EMPTY_3": "北中菖蒲入3874-1", "__EMPTY_4": "3-①", "__EMPTY_5": 2975, "__EMPTY_6": 2867, "__EMPTY_7": null, "__EMPTY_9": null, "__EMPTY_10": null, "__EMPTY_11": null, "手動一致フラグ": null, "検索_AreaOnRegistry": 2975, "検索_Address": "北中菖蒲入3874-1", "検索_Tiban": "3874-1" }, "geometry": { "type": "Polygon", "coordinates": [ [ [ 140.503157971, 35.749337062 ], [ 140.503382963, 35.749160846 ], [ 140.503370964, 35.749152559 ], [ 140.503194040000011, 35.749014477 ], [ 140.503147292, 35.748978569 ], [ 140.502384522, 35.749622964 ], [ 140.502626045999989, 35.749807099 ], [ 140.503102251, 35.749402123 ], [ 140.503114438000011, 35.749385767 ], [ 140.503157971, 35.749337062 ] ] ] } },
{ "type": "Feature", "properties": { "fid": 79, "__EMPTY": 79, "__EMPTY_1": "小川　勝康", "__EMPTY_2": "北中504", "__EMPTY_3": "北中餅田3904", "__EMPTY_4": "3-①", "__EMPTY_5": 1526, "__EMPTY_6": 1471, "__EMPTY_7": 1471, "__EMPTY_9": null, "__EMPTY_10": null, "__EMPTY_11": null, "手動一致フラグ": null, "検索_AreaOnRegistry": 1526, "検索_Address": "北中餅田3904", "検索_Tiban": "3904" }, "geometry": { "type": "Polygon", "coordinates": [ [ [ 140.501376274, 35.749899516 ], [ 140.501154826, 35.750124445 ], [ 140.501108689, 35.750171058 ], [ 140.501028311, 35.75024455 ], [ 140.500961719, 35.750317965 ], [ 140.500848894, 35.750426755 ], [ 140.50098396300001, 35.750529618 ], [ 140.501550169000012, 35.750041467 ], [ 140.501400153, 35.749919756 ], [ 140.501376274, 35.749899516 ] ] ] } },
{ "type": "Feature", "properties": { "fid": 80, "__EMPTY": 80, "__EMPTY_1": "大木　啓治", "__EMPTY_2": "北中508", "__EMPTY_3": "北中大堺3812", "__EMPTY_4": "3-①", "__EMPTY_5": 2884, "__EMPTY_6": 2780, "__EMPTY_7": 3746, "__EMPTY_9": null, "__EMPTY_10": null, "__EMPTY_11": null, "手動一致フラグ": null, "検索_AreaOnRegistry": 2884, "検索_Address": "北中大堺3812", "検索_Tiban": "3812" }, "geometry": { "type": "Polygon", "coordinates": [ [ [ 140.505112368, 35.748398915 ], [ 140.50542099, 35.748313968 ], [ 140.50506934500001, 35.747468613 ], [ 140.504822345, 35.747537267 ], [ 140.504757305999988, 35.747586347 ], [ 140.504921797, 35.747962791 ], [ 140.505112368, 35.748398915 ] ] ] } },
{ "type": "Feature", "properties": { "fid": 81, "__EMPTY": 81, "__EMPTY_1": "大木　啓治", "__EMPTY_2": "北中508", "__EMPTY_3": "北中筋田3861", "__EMPTY_4": "3-①", "__EMPTY_5": 1003, "__EMPTY_6": 966, "__EMPTY_7": null, "__EMPTY_9": null, "__EMPTY_10": null, "__EMPTY_11": null, "手動一致フラグ": null, "検索_AreaOnRegistry": 1003, "検索_Address": "北中筋田3861", "検索_Tiban": "3861" }, "geometry": { "type": "Polygon", "coordinates": [ [ [ 140.502843386, 35.748635251 ], [ 140.503599486000013, 35.747984123 ], [ 140.503566611999986, 35.747959222 ], [ 140.503512029, 35.74802583 ], [ 140.50344363100001, 35.748088955 ], [ 140.503364635, 35.748121235 ], [ 140.503302760999986, 35.74814031 ], [ 140.503214418999988, 35.748153912 ], [ 140.503135242000013, 35.748164654 ], [ 140.502943633, 35.748330168 ], [ 140.502872866, 35.748384878 ], [ 140.502790737, 35.748454635 ], [ 140.502705225, 35.748531902 ], [ 140.502800025999989, 35.748603484 ], [ 140.502843386, 35.748635251 ] ] ] } },
{ "type": "Feature", "properties": { "fid": 82, "__EMPTY": 82, "__EMPTY_1": "大木　智勝", "__EMPTY_2": "北中509", "__EMPTY_3": "北中亀甲3791", "__EMPTY_4": "3-①", "__EMPTY_5": 670, "__EMPTY_6": 645, "__EMPTY_7": 2875, "__EMPTY_9": null, "__EMPTY_10": null, "__EMPTY_11": null, "手動一致フラグ": null, "検索_AreaOnRegistry": 670, "検索_Address": "北中亀甲3791", "検索_Tiban": "3791" }, "geometry": { "type": "Polygon", "coordinates": [ [ [ 140.50435117, 35.746618643 ], [ 140.504658314000011, 35.746530957 ], [ 140.504294956, 35.745676512 ], [ 140.503965134999987, 35.745770873 ], [ 140.50435117, 35.746618643 ] ] ] } },
{ "type": "Feature", "properties": { "fid": 83, "__EMPTY": 83, "__EMPTY_1": "大木　智勝", "__EMPTY_2": "北中509", "__EMPTY_3": "北中亀甲3793", "__EMPTY_4": "3-①", "__EMPTY_5": 327, "__EMPTY_6": 315, "__EMPTY_7": null, "__EMPTY_9": null, "__EMPTY_10": null, "__EMPTY_11": null, "手動一致フラグ": null, "検索_AreaOnRegistry": 327, "検索_Address": "北中亀甲3793", "検索_Tiban": "3793" }, "geometry": { "type": "Polygon", "coordinates": [ [ [ 140.50435117, 35.746618643 ], [ 140.504658314000011, 35.746530957 ], [ 140.504294956, 35.745676512 ], [ 140.503965134999987, 35.745770873 ], [ 140.50435117, 35.746618643 ] ] ] } },
{ "type": "Feature", "properties": { "fid": 84, "__EMPTY": 84, "__EMPTY_1": "大木　智勝", "__EMPTY_2": "北中509", "__EMPTY_3": "北中亀甲3794", "__EMPTY_4": "3-①", "__EMPTY_5": 1987, "__EMPTY_6": 1915, "__EMPTY_7": null, "__EMPTY_9": null, "__EMPTY_10": null, "__EMPTY_11": null, "手動一致フラグ": null, "検索_AreaOnRegistry": 1987, "検索_Address": "北中亀甲3794", "検索_Tiban": "3794" }, "geometry": { "type": "Polygon", "coordinates": [ [ [ 140.50435117, 35.746618643 ], [ 140.504658314000011, 35.746530957 ], [ 140.504294956, 35.745676512 ], [ 140.503965134999987, 35.745770873 ], [ 140.50435117, 35.746618643 ] ] ] } },
{ "type": "Feature", "properties": { "fid": 85, "__EMPTY": 85, "__EMPTY_1": "大木　利久", "__EMPTY_2": "北中522-1", "__EMPTY_3": "北中亀甲3789-1", "__EMPTY_4": "3-①", "__EMPTY_5": 1100, "__EMPTY_6": 1060, "__EMPTY_7": 6854, "__EMPTY_9": null, "__EMPTY_10": null, "__EMPTY_11": null, "手動一致フラグ": null, "検索_AreaOnRegistry": 1100, "検索_Address": "北中亀甲3789-1", "検索_Tiban": "3789-1" }, "geometry": { "type": "Polygon", "coordinates": [ [ [ 140.50355595900001, 35.746389905 ], [ 140.503586644, 35.746386157 ], [ 140.503663386, 35.746380363 ], [ 140.503764276999988, 35.746376224 ], [ 140.503856482, 35.746382864 ], [ 140.50364599400001, 35.745876075 ], [ 140.503619697, 35.745879799 ], [ 140.503610727, 35.745856596 ], [ 140.503345878, 35.745931405 ], [ 140.503534107, 35.746363265 ], [ 140.50355595900001, 35.746389905 ] ] ] } },
{ "type": "Feature", "properties": { "fid": 86, "__EMPTY": 86, "__EMPTY_1": "大木　利久", "__EMPTY_2": "北中522-1", "__EMPTY_3": "北中亀甲3789-2", "__EMPTY_4": "3-①", "__EMPTY_5": 383, "__EMPTY_6": 369, "__EMPTY_7": null, "__EMPTY_9": null, "__EMPTY_10": null, "__EMPTY_11": null, "手動一致フラグ": null, "検索_AreaOnRegistry": 383, "検索_Address": "北中亀甲3789-2", "検索_Tiban": "3789-2" }, "geometry": { "type": "Polygon", "coordinates": [ [ [ 140.50355595900001, 35.746389905 ], [ 140.503586644, 35.746386157 ], [ 140.503663386, 35.746380363 ], [ 140.503764276999988, 35.746376224 ], [ 140.503856482, 35.746382864 ], [ 140.50364599400001, 35.745876075 ], [ 140.503619697, 35.745879799 ], [ 140.503610727, 35.745856596 ], [ 140.503345878, 35.745931405 ], [ 140.503534107, 35.746363265 ], [ 140.50355595900001, 35.746389905 ] ] ] } },
{ "type": "Feature", "properties": { "fid": 87, "__EMPTY": 87, "__EMPTY_1": "大木　利久", "__EMPTY_2": "北中522-1", "__EMPTY_3": "北中亀甲3795", "__EMPTY_4": "3-①", "__EMPTY_5": 3000, "__EMPTY_6": 2892, "__EMPTY_7": null, "__EMPTY_9": null, "__EMPTY_10": null, "__EMPTY_11": null, "手動一致フラグ": null, "検索_AreaOnRegistry": 3000, "検索_Address": "北中亀甲3795", "検索_Tiban": "3795" }, "geometry": { "type": "Polygon", "coordinates": [ [ [ 140.504658314000011, 35.746530957 ], [ 140.505002157, 35.746432791 ], [ 140.504636431, 35.745578814 ], [ 140.504294956, 35.745676512 ], [ 140.504658314000011, 35.746530957 ] ] ] } },
{ "type": "Feature", "properties": { "fid": 88, "__EMPTY": 88, "__EMPTY_1": "大木　利久", "__EMPTY_2": "北中522-1", "__EMPTY_3": "北中亀甲3816-1", "__EMPTY_4": "3-①", "__EMPTY_5": 794, "__EMPTY_6": 765, "__EMPTY_7": null, "__EMPTY_9": null, "__EMPTY_10": null, "__EMPTY_11": null, "手動一致フラグ": "手動一致", "検索_AreaOnRegistry": 794, "検索_Address": "北中大堺3816-1", "検索_Tiban": "3816-1" }, "geometry": { "type": "Polygon", "coordinates": [ [ [ 140.50489837500001, 35.748457816 ], [ 140.505112368, 35.748398915 ], [ 140.504921797, 35.747962791 ], [ 140.504828991000011, 35.747989598 ], [ 140.504837781, 35.748019706 ], [ 140.50478958, 35.748040854 ], [ 140.50489837500001, 35.748457816 ] ] ] } },
{ "type": "Feature", "properties": { "fid": 89, "__EMPTY": 90, "__EMPTY_1": "大木　利久", "__EMPTY_2": "北中522-1", "__EMPTY_3": "北中筋田3859-1", "__EMPTY_4": "3-①", "__EMPTY_5": 452, "__EMPTY_6": 435, "__EMPTY_7": null, "__EMPTY_9": null, "__EMPTY_10": null, "__EMPTY_11": null, "手動一致フラグ": null, "検索_AreaOnRegistry": 452, "検索_Address": "北中筋田3859-1", "検索_Tiban": "3859-1" }, "geometry": { "type": "Polygon", "coordinates": [ [ [ 140.50309892300001, 35.748160923 ], [ 140.502964459, 35.748154226 ], [ 140.5028919, 35.748132155 ], [ 140.50282789900001, 35.748103011 ], [ 140.502710293, 35.74805169 ], [ 140.50267058, 35.748042078 ], [ 140.50245808, 35.748182329 ], [ 140.502444436, 35.748199261 ], [ 140.502446606, 35.748252629 ], [ 140.502443783, 35.748327095 ], [ 140.502473369, 35.748362049 ], [ 140.502579078, 35.748433102 ], [ 140.502678001, 35.748516835 ], [ 140.502794349, 35.748417857 ], [ 140.50309892300001, 35.748160923 ] ] ] } },
{ "type": "Feature", "properties": { "fid": 90, "__EMPTY": 91, "__EMPTY_1": "大木　利久", "__EMPTY_2": "北中522-1", "__EMPTY_3": "北中筋田3859-2", "__EMPTY_4": "3-①", "__EMPTY_5": 1350, "__EMPTY_6": 1301, "__EMPTY_7": null, "__EMPTY_9": null, "__EMPTY_10": null, "__EMPTY_11": null, "手動一致フラグ": null, "検索_AreaOnRegistry": 1350, "検索_Address": "北中筋田3859-2", "検索_Tiban": "3859-2" }, "geometry": { "type": "Polygon", "coordinates": [ [ [ 140.50309892300001, 35.748160923 ], [ 140.502964459, 35.748154226 ], [ 140.5028919, 35.748132155 ], [ 140.50282789900001, 35.748103011 ], [ 140.502710293, 35.74805169 ], [ 140.50267058, 35.748042078 ], [ 140.50245808, 35.748182329 ], [ 140.502444436, 35.748199261 ], [ 140.502446606, 35.748252629 ], [ 140.502443783, 35.748327095 ], [ 140.502473369, 35.748362049 ], [ 140.502579078, 35.748433102 ], [ 140.502678001, 35.748516835 ], [ 140.502794349, 35.748417857 ], [ 140.50309892300001, 35.748160923 ] ] ] } },
{ "type": "Feature", "properties": { "fid": 91, "__EMPTY": 92, "__EMPTY_1": "大木　正裕", "__EMPTY_2": "北中526", "__EMPTY_3": "北中亀甲3790-1", "__EMPTY_4": "3-①", "__EMPTY_5": 1584, "__EMPTY_6": 1526, "__EMPTY_7": 5267, "__EMPTY_9": null, "__EMPTY_10": null, "__EMPTY_11": null, "手動一致フラグ": null, "検索_AreaOnRegistry": 1584, "検索_Address": "北中亀甲3790-1", "検索_Tiban": "3790-1" }, "geometry": { "type": "Polygon", "coordinates": [ [ [ 140.504231403, 35.746652835 ], [ 140.50435117, 35.746618643 ], [ 140.503965134999987, 35.745770873 ], [ 140.503780524, 35.74582369 ], [ 140.504192813, 35.746632173 ], [ 140.504231403, 35.746652835 ] ] ] } },
{ "type": "Feature", "properties": { "fid": 92, "__EMPTY": 93, "__EMPTY_1": "大木　正裕", "__EMPTY_2": "北中526", "__EMPTY_3": "北中脇3806-1", "__EMPTY_4": "3-①", "__EMPTY_5": 930, "__EMPTY_6": 896, "__EMPTY_7": null, "__EMPTY_9": null, "__EMPTY_10": null, "__EMPTY_11": null, "手動一致フラグ": null, "検索_AreaOnRegistry": 930, "検索_Address": "北中脇3806-1", "検索_Tiban": "3806-1" }, "geometry": { "type": "Polygon", "coordinates": [ [ [ 140.504603225000011, 35.747617122 ], [ 140.504724650000014, 35.747505092 ], [ 140.504494556999987, 35.746983858 ], [ 140.504325083999987, 35.747027117 ], [ 140.504603225000011, 35.747617122 ] ] ] } },
{ "type": "Feature", "properties": { "fid": 93, "__EMPTY": 94, "__EMPTY_1": "大木　正裕", "__EMPTY_2": "北中526", "__EMPTY_3": "北中大堺3825", "__EMPTY_4": "3-①", "__EMPTY_5": 2952, "__EMPTY_6": 2845, "__EMPTY_7": null, "__EMPTY_9": null, "__EMPTY_10": null, "__EMPTY_11": null, "手動一致フラグ": null, "検索_AreaOnRegistry": 2952, "検索_Address": "北中大堺3825", "検索_Tiban": "3825" }, "geometry": { "type": "Polygon", "coordinates": [ [ [ 140.505825988999987, 35.74919057 ], [ 140.506145460999988, 35.749107413 ], [ 140.505751901999986, 35.748242555 ], [ 140.50544900700001, 35.748330661 ], [ 140.505825988999987, 35.74919057 ] ] ] } },
{ "type": "Feature", "properties": { "fid": 94, "__EMPTY": 95, "__EMPTY_1": "大木　明美", "__EMPTY_2": "北中531", "__EMPTY_3": "北中餅田3900", "__EMPTY_4": "3-①", "__EMPTY_5": 1495, "__EMPTY_6": 1441, "__EMPTY_7": 1441, "__EMPTY_9": null, "__EMPTY_10": null, "__EMPTY_11": null, "手動一致フラグ": null, "検索_AreaOnRegistry": 1495, "検索_Address": "北中餅田3900", "検索_Tiban": "3900" }, "geometry": { "type": "Polygon", "coordinates": [ [ [ 140.501908809000014, 35.750324139 ], [ 140.501828067, 35.750261068 ], [ 140.501724062, 35.750180299 ], [ 140.501159374, 35.750663725 ], [ 140.501332334000011, 35.750797144 ], [ 140.501908809000014, 35.750324139 ] ] ] } },
{ "type": "Feature", "properties": { "fid": 95, "__EMPTY": 96, "__EMPTY_1": "小川　清孝", "__EMPTY_2": "北中536", "__EMPTY_3": "北中ヤワラヘタ3828", "__EMPTY_4": "3-①", "__EMPTY_5": 2964, "__EMPTY_6": 2857, "__EMPTY_7": 3575, "__EMPTY_9": null, "__EMPTY_10": null, "__EMPTY_11": null, "手動一致フラグ": null, "検索_AreaOnRegistry": 2964, "検索_Address": "北中ヤワラヘタ3828", "検索_Tiban": "3828" }, "geometry": { "type": "Polygon", "coordinates": [ [ [ 140.506198958, 35.750089174 ], [ 140.506542906, 35.749988876 ], [ 140.506157189, 35.749130377 ], [ 140.505826503, 35.749226755 ], [ 140.506198958, 35.750089174 ] ] ] } },
{ "type": "Feature", "properties": { "fid": 96, "__EMPTY": 97, "__EMPTY_1": "小川　清孝", "__EMPTY_2": "北中536", "__EMPTY_3": "北中ヤワラヘタ3833", "__EMPTY_4": "3-①", "__EMPTY_5": 745, "__EMPTY_6": 718, "__EMPTY_7": null, "__EMPTY_9": null, "__EMPTY_10": null, "__EMPTY_11": null, "手動一致フラグ": null, "検索_AreaOnRegistry": 745, "検索_Address": "北中ヤワラヘタ3833", "検索_Tiban": "3833" }, "geometry": { "type": "Polygon", "coordinates": [ [ [ 140.505713003000011, 35.749777773 ], [ 140.505513898, 35.749317863 ], [ 140.505410579999989, 35.749347975 ], [ 140.505411790000011, 35.749491797 ], [ 140.505522851, 35.749839151 ], [ 140.505713003000011, 35.749777773 ] ] ] } },
{ "type": "Feature", "properties": { "fid": 97, "__EMPTY": 98, "__EMPTY_1": "大木　哲", "__EMPTY_2": "北中553", "__EMPTY_3": "北中脇3801", "__EMPTY_4": "3-①", "__EMPTY_5": 2979, "__EMPTY_6": 2871, "__EMPTY_7": 12453, "__EMPTY_9": null, "__EMPTY_10": null, "__EMPTY_11": null, "手動一致フラグ": null, "検索_AreaOnRegistry": 2979, "検索_Address": "北中脇3801", "検索_Tiban": "3801" }, "geometry": { "type": "Polygon", "coordinates": [ [ [ 140.505039147, 35.747420704 ], [ 140.505369173, 35.747332146 ], [ 140.50500609, 35.746454958 ], [ 140.504671478, 35.746550709 ], [ 140.505039147, 35.747420704 ] ] ] } },
{ "type": "Feature", "properties": { "fid": 98, "__EMPTY": 99, "__EMPTY_1": "大木　哲", "__EMPTY_2": "北中553", "__EMPTY_3": "北中大堺3811", "__EMPTY_4": "3-①", "__EMPTY_5": 2925, "__EMPTY_6": 2819, "__EMPTY_7": null, "__EMPTY_9": null, "__EMPTY_10": null, "__EMPTY_11": null, "手動一致フラグ": null, "検索_AreaOnRegistry": 2925, "検索_Address": "北中大堺3811", "検索_Tiban": "3811" }, "geometry": { "type": "Polygon", "coordinates": [ [ [ 140.50542099, 35.748313968 ], [ 140.505758644, 35.748221027 ], [ 140.505404362, 35.747376269 ], [ 140.50506934500001, 35.747468613 ], [ 140.50542099, 35.748313968 ] ] ] } },
{ "type": "Feature", "properties": { "fid": 99, "__EMPTY": 100, "__EMPTY_1": "大木　哲", "__EMPTY_2": "北中553", "__EMPTY_3": "北中大堺3813-1", "__EMPTY_4": "3-①", "__EMPTY_5": 551, "__EMPTY_6": 531, "__EMPTY_7": null, "__EMPTY_9": null, "__EMPTY_10": null, "__EMPTY_11": null, "手動一致フラグ": null, "検索_AreaOnRegistry": 551, "検索_Address": "北中大堺3813-1", "検索_Tiban": "3813-1" }, "geometry": { "type": "Polygon", "coordinates": [ [ [ 140.504757305999988, 35.747586347 ], [ 140.504661414, 35.747688954 ], [ 140.504746331, 35.74797382 ], [ 140.504783207, 35.747959695 ], [ 140.504828991000011, 35.747989598 ], [ 140.504921797, 35.747962791 ], [ 140.504757305999988, 35.747586347 ] ] ] } },
{ "type": "Feature", "properties": { "fid": 100, "__EMPTY": 101, "__EMPTY_1": "大木　哲", "__EMPTY_2": "北中553", "__EMPTY_3": "北中ヤワラヘタ3832", "__EMPTY_4": "3-①", "__EMPTY_5": 1012, "__EMPTY_6": 975, "__EMPTY_7": null, "__EMPTY_9": null, "__EMPTY_10": null, "__EMPTY_11": null, "手動一致フラグ": null, "検索_AreaOnRegistry": 1012, "検索_Address": "北中ヤワラヘタ3832", "検索_Tiban": "3832" }, "geometry": { "type": "Polygon", "coordinates": [ [ [ 140.505878581, 35.750178178 ], [ 140.506031916000012, 35.750137884 ], [ 140.505657049, 35.749276143 ], [ 140.505513898, 35.749317863 ], [ 140.505713003000011, 35.749777773 ], [ 140.505878581, 35.750178178 ] ] ] } },
{ "type": "Feature", "properties": { "fid": 101, "__EMPTY": 102, "__EMPTY_1": "大木　哲", "__EMPTY_2": "北中553", "__EMPTY_3": "北中ヤワラヘタ3841", "__EMPTY_4": "3-①", "__EMPTY_5": 1642, "__EMPTY_6": 1582, "__EMPTY_7": null, "__EMPTY_9": null, "__EMPTY_10": null, "__EMPTY_11": null, "手動一致フラグ": null, "検索_AreaOnRegistry": 1642, "検索_Address": "北中ヤワラヘタ3841", "検索_Tiban": "3841" }, "geometry": { "type": "Polygon", "coordinates": [ [ [ 140.506606864, 35.750962385 ], [ 140.50675216, 35.750918393 ], [ 140.506386584000012, 35.750063146 ], [ 140.506352586, 35.750071823 ], [ 140.506208788, 35.7501133 ], [ 140.506220436, 35.750133589 ], [ 140.506606864, 35.750962385 ] ] ] } },
{ "type": "Feature", "properties": { "fid": 102, "__EMPTY": 103, "__EMPTY_1": "大木　哲", "__EMPTY_2": "北中553", "__EMPTY_3": "北中筋田3855", "__EMPTY_4": "3-①", "__EMPTY_5": 1586, "__EMPTY_6": 1528, "__EMPTY_7": null, "__EMPTY_9": null, "__EMPTY_10": null, "__EMPTY_11": null, "手動一致フラグ": null, "検索_AreaOnRegistry": 1586, "検索_Address": "北中筋田3855", "検索_Tiban": "3855" }, "geometry": { "type": "Polygon", "coordinates": [ [ [ 140.503705801, 35.748042583 ], [ 140.503969466, 35.748249931 ], [ 140.504474148000014, 35.74781446 ], [ 140.504405107, 35.747800798 ], [ 140.504275737, 35.747785085 ], [ 140.504168787, 35.747771633 ], [ 140.504082574, 35.747765091 ], [ 140.504056817, 35.747763923 ], [ 140.503705801, 35.748042583 ] ] ] } },
{ "type": "Feature", "properties": { "fid": 103, "__EMPTY": 104, "__EMPTY_1": "大木　哲", "__EMPTY_2": "北中553", "__EMPTY_3": "北中菖蒲入3878", "__EMPTY_4": "3-①", "__EMPTY_5": 2228, "__EMPTY_6": 2147, "__EMPTY_7": null, "__EMPTY_9": null, "__EMPTY_10": null, "__EMPTY_11": null, "手動一致フラグ": null, "検索_AreaOnRegistry": 2228, "検索_Address": "北中菖蒲入3878", "検索_Tiban": "3878" }, "geometry": { "type": "Polygon", "coordinates": [ [ [ 140.502639994, 35.748598249 ], [ 140.502599989, 35.74862328 ], [ 140.502546493000011, 35.748682576 ], [ 140.502486072000011, 35.748738165 ], [ 140.502424416999986, 35.748783459 ], [ 140.502384485, 35.748816458 ], [ 140.502284129, 35.748904671 ], [ 140.502220207, 35.748953724 ], [ 140.502152933, 35.749014032 ], [ 140.502081055, 35.749073431 ], [ 140.50201142, 35.749126261 ], [ 140.501965815, 35.749167719 ], [ 140.501912192, 35.749212033 ], [ 140.50188481, 35.74923466 ], [ 140.502115909999986, 35.749413388 ], [ 140.502879258, 35.748770381 ], [ 140.502639994, 35.748598249 ] ] ] } },
{ "type": "Feature", "properties": { "fid": 104, "__EMPTY": 105, "__EMPTY_1": "小川　恒夫", "__EMPTY_2": "北中556", "__EMPTY_3": "北中亀甲3788", "__EMPTY_4": "3-①", "__EMPTY_5": 1508, "__EMPTY_6": 1453, "__EMPTY_7": 5799, "__EMPTY_9": null, "__EMPTY_10": null, "__EMPTY_11": null, "手動一致フラグ": null, "検索_AreaOnRegistry": 1508, "検索_Address": "北中亀甲3788", "検索_Tiban": "3788" }, "geometry": { "type": "Polygon", "coordinates": [ [ [ 140.50355595900001, 35.746389905 ], [ 140.503534107, 35.746363265 ], [ 140.503345878, 35.745931405 ], [ 140.503035106999988, 35.746024354 ], [ 140.503208343000011, 35.746412776 ], [ 140.503242738000012, 35.746452462 ], [ 140.503303972, 35.746428869 ], [ 140.503415728, 35.74641215 ], [ 140.503501201, 35.746400942 ], [ 140.50355595900001, 35.746389905 ] ] ] } },
{ "type": "Feature", "properties": { "fid": 105, "__EMPTY": 106, "__EMPTY_1": "小川　恒夫", "__EMPTY_2": "北中556", "__EMPTY_3": "北中大堺3819-1", "__EMPTY_4": "3-①", "__EMPTY_5": 146, "__EMPTY_6": 140, "__EMPTY_7": null, "__EMPTY_9": null, "__EMPTY_10": null, "__EMPTY_11": null, "手動一致フラグ": null, "検索_AreaOnRegistry": 146, "検索_Address": "北中大堺3819-1", "検索_Tiban": "3819-1" }, "geometry": { "type": "Polygon", "coordinates": [ [ [ 140.505112825, 35.748431193 ], [ 140.504943268, 35.748481662 ], [ 140.504990435, 35.748676264 ], [ 140.505192295, 35.748609926 ], [ 140.505112825, 35.748431193 ] ] ] } },
{ "type": "Feature", "properties": { "fid": 106, "__EMPTY": 107, "__EMPTY_1": "小川　恒夫", "__EMPTY_2": "北中556", "__EMPTY_3": "北中大堺3820-1", "__EMPTY_4": "3-①", "__EMPTY_5": 242, "__EMPTY_6": 233, "__EMPTY_7": null, "__EMPTY_9": null, "__EMPTY_10": null, "__EMPTY_11": null, "手動一致フラグ": null, "検索_AreaOnRegistry": 242, "検索_Address": "北中大堺3820-1", "検索_Tiban": "3820-1" }, "geometry": { "type": "Polygon", "coordinates": [ [ [ 140.505112825, 35.748431193 ], [ 140.504943268, 35.748481662 ], [ 140.504990435, 35.748676264 ], [ 140.505192295, 35.748609926 ], [ 140.505112825, 35.748431193 ] ] ] } },
{ "type": "Feature", "properties": { "fid": 107, "__EMPTY": 108, "__EMPTY_1": "小川　恒夫", "__EMPTY_2": "北中556", "__EMPTY_3": "北中大堺3823", "__EMPTY_4": "3-①", "__EMPTY_5": 1333, "__EMPTY_6": 1285, "__EMPTY_7": null, "__EMPTY_9": null, "__EMPTY_10": null, "__EMPTY_11": null, "手動一致フラグ": null, "検索_AreaOnRegistry": 1333, "検索_Address": "北中大堺3823", "検索_Tiban": "3823" }, "geometry": { "type": "Polygon", "coordinates": [ [ [ 140.505489417, 35.749278178 ], [ 140.505647419000013, 35.749237051 ], [ 140.505259196, 35.748387988 ], [ 140.505112825, 35.748431193 ], [ 140.505192295, 35.748609926 ], [ 140.505264433, 35.748772167 ], [ 140.505489417, 35.749278178 ] ] ] } },
{ "type": "Feature", "properties": { "fid": 108, "__EMPTY": 109, "__EMPTY_1": "小川　恒夫", "__EMPTY_2": "北中556", "__EMPTY_3": "北中大堺3824", "__EMPTY_4": "3-①", "__EMPTY_5": 1623, "__EMPTY_6": 1564, "__EMPTY_7": null, "__EMPTY_9": null, "__EMPTY_10": null, "__EMPTY_11": null, "手動一致フラグ": null, "検索_AreaOnRegistry": 1623, "検索_Address": "北中大堺3824", "検索_Tiban": "3824" }, "geometry": { "type": "Polygon", "coordinates": [ [ [ 140.505647419000013, 35.749237051 ], [ 140.505825988999987, 35.74919057 ], [ 140.50544900700001, 35.748330661 ], [ 140.505259196, 35.748387988 ], [ 140.505647419000013, 35.749237051 ] ] ] } },
{ "type": "Feature", "properties": { "fid": 109, "__EMPTY": 110, "__EMPTY_1": "小川　恒夫", "__EMPTY_2": "北中556", "__EMPTY_3": "北中ヤワラヘタ3842", "__EMPTY_4": "3-①", "__EMPTY_5": 1166, "__EMPTY_6": 1124, "__EMPTY_7": null, "__EMPTY_9": null, "__EMPTY_10": null, "__EMPTY_11": null, "手動一致フラグ": null, "検索_AreaOnRegistry": 1166, "検索_Address": "北中ヤワラヘタ3842", "検索_Tiban": "3842" }, "geometry": { "type": "Polygon", "coordinates": [ [ [ 140.50675216, 35.750918393 ], [ 140.506906345, 35.750871709 ], [ 140.506536369, 35.750024722 ], [ 140.506386584000012, 35.750063146 ], [ 140.50675216, 35.750918393 ] ] ] } },
{ "type": "Feature", "properties": { "fid": 110, "__EMPTY": 111, "__EMPTY_1": "内藤　敏明", "__EMPTY_2": "南和田117", "__EMPTY_3": "北中亀甲3779-1", "__EMPTY_4": "3-①", "__EMPTY_5": 586, "__EMPTY_6": 564, "__EMPTY_7": 564, "__EMPTY_9": null, "__EMPTY_10": null, "__EMPTY_11": null, "手動一致フラグ": null, "検索_AreaOnRegistry": 586, "検索_Address": "北中亀甲3779-1", "検索_Tiban": "3779-1" }, "geometry": { "type": "Polygon", "coordinates": [ [ [ 140.503483405, 35.745843653 ], [ 140.503606606, 35.745810166 ], [ 140.503509834, 35.745566165 ], [ 140.503429477, 35.74539715 ], [ 140.503331081999988, 35.745273283 ], [ 140.503262869, 35.745297259 ], [ 140.503483405, 35.745843653 ] ] ] } },
{ "type": "Feature", "properties": { "fid": 111, "__EMPTY": 112, "__EMPTY_1": "内藤　清", "__EMPTY_2": "南和田118", "__EMPTY_3": "北中亀甲3774", "__EMPTY_4": "3-①", "__EMPTY_5": 1044, "__EMPTY_6": 1006, "__EMPTY_7": 1006, "__EMPTY_9": null, "__EMPTY_10": null, "__EMPTY_11": null, "手動一致フラグ": null, "検索_AreaOnRegistry": 1044, "検索_Address": "北中亀甲3774", "検索_Tiban": "3774" }, "geometry": { "type": "Polygon", "coordinates": [ [ [ 140.504377603, 35.74560822 ], [ 140.504501, 35.745574756 ], [ 140.504105353999989, 35.744662403 ], [ 140.503988783000011, 35.744722941 ], [ 140.504377603, 35.74560822 ] ] ] } },
{ "type": "Feature", "properties": { "fid": 112, "__EMPTY": 113, "__EMPTY_1": "内藤　磐夫", "__EMPTY_2": "南和田133", "__EMPTY_3": "北中亀甲3776", "__EMPTY_4": "3-①", "__EMPTY_5": 1903, "__EMPTY_6": 1834, "__EMPTY_7": 1834, "__EMPTY_9": null, "__EMPTY_10": null, "__EMPTY_11": null, "手動一致フラグ": null, "検索_AreaOnRegistry": 1903, "検索_Address": "北中亀甲3776", "検索_Tiban": "3776" }, "geometry": { "type": "Polygon", "coordinates": [ [ [ 140.504067634, 35.745692278 ], [ 140.504300836999988, 35.745629037 ], [ 140.503929121, 35.744763176 ], [ 140.503728547, 35.744898442 ], [ 140.504067634, 35.745692278 ] ] ] } },
{ "type": "Feature", "properties": { "fid": 113, "__EMPTY": 114, "__EMPTY_1": "内藤　交子", "__EMPTY_2": "南和田138", "__EMPTY_3": "北中亀甲3777", "__EMPTY_4": "3-①", "__EMPTY_5": 1336, "__EMPTY_6": 1287, "__EMPTY_7": 1287, "__EMPTY_9": null, "__EMPTY_10": null, "__EMPTY_11": null, "手動一致フラグ": null, "検索_AreaOnRegistry": 1336, "検索_Address": "北中亀甲3777", "検索_Tiban": "3777" }, "geometry": { "type": "Polygon", "coordinates": [ [ [ 140.503909206, 35.74573524 ], [ 140.504067634, 35.745692278 ], [ 140.503728547, 35.744898442 ], [ 140.503585428, 35.745000056 ], [ 140.503909206, 35.74573524 ] ] ] } },
{ "type": "Feature", "properties": { "fid": 114, "__EMPTY": 115, "__EMPTY_1": "鈴木　道子", "__EMPTY_2": "南中337", "__EMPTY_3": "北中大越3983", "__EMPTY_4": "3-①", "__EMPTY_5": 1981, "__EMPTY_6": null, "__EMPTY_7": null, "__EMPTY_9": "R8除外", "__EMPTY_10": 1909, "__EMPTY_11": 1909, "手動一致フラグ": null, "検索_AreaOnRegistry": 1981, "検索_Address": "北中大越3983", "検索_Tiban": "3983" }, "geometry": { "type": "Polygon", "coordinates": [ [ [ 140.499273889, 35.75496872 ], [ 140.498559345, 35.755133754 ], [ 140.498569024, 35.755170933 ], [ 140.498595546, 35.755251558 ], [ 140.498628556, 35.755283684 ], [ 140.49868410900001, 35.755332542 ], [ 140.498727148, 35.755378856 ], [ 140.499437011, 35.755205742 ], [ 140.499369054999988, 35.755116217 ], [ 140.499297512, 35.755009854 ], [ 140.499273889, 35.75496872 ] ] ] } },
{ "type": "Feature", "properties": { "fid": 115, "__EMPTY": 116, "__EMPTY_1": "並木　茂信", "__EMPTY_2": "七榮884-7", "__EMPTY_3": "北中大越3986", "__EMPTY_4": "3-①", "__EMPTY_5": 1180, "__EMPTY_6": 1137, "__EMPTY_7": 1137, "__EMPTY_9": null, "__EMPTY_10": null, "__EMPTY_11": null, "手動一致フラグ": null, "検索_AreaOnRegistry": 1180, "検索_Address": "北中大越3986", "検索_Tiban": "3986" }, "geometry": { "type": "Polygon", "coordinates": [ [ [ 140.499608970999986, 35.755464465 ], [ 140.498937542, 35.755605258 ], [ 140.499045805, 35.755721757 ], [ 140.499147149, 35.755840972 ], [ 140.499753739, 35.755705566 ], [ 140.499749579, 35.755696509 ], [ 140.499691939, 35.755604116 ], [ 140.49963254, 35.755507519 ], [ 140.499608970999986, 35.755464465 ] ] ] } },
{ "type": "Feature", "properties": { "fid": 116, "__EMPTY": 117, "__EMPTY_1": "小川　長良", "__EMPTY_2": "山武郡栗山2943", "__EMPTY_3": "北中菖蒲入3877", "__EMPTY_4": "3-①", "__EMPTY_5": 1624, "__EMPTY_6": 1565, "__EMPTY_7": 1565, "__EMPTY_9": null, "__EMPTY_10": null, "__EMPTY_11": null, "手動一致フラグ": null, "検索_AreaOnRegistry": 1624, "検索_Address": "北中菖蒲入3877", "検索_Tiban": "3877" }, "geometry": { "type": "Polygon", "coordinates": [ [ [ 140.502879258, 35.748770381 ], [ 140.502115909999986, 35.749413388 ], [ 140.502371606, 35.749611136 ], [ 140.503131347, 35.748966321 ], [ 140.503019736999988, 35.748880593 ], [ 140.502887037, 35.748775977 ], [ 140.502879258, 35.748770381 ] ] ] } },
{ "type": "Feature", "properties": { "fid": 117, "__EMPTY": 118, "__EMPTY_1": "北田　守", "__EMPTY_2": "松尾町広根1203-3", "__EMPTY_3": "北中千上3926", "__EMPTY_4": "3-①", "__EMPTY_5": 1220, "__EMPTY_6": 1176, "__EMPTY_7": 4523, "__EMPTY_9": null, "__EMPTY_10": null, "__EMPTY_11": null, "手動一致フラグ": null, "検索_AreaOnRegistry": 1220, "検索_Address": "北中千上3926", "検索_Tiban": "3926" }, "geometry": { "type": "Polygon", "coordinates": [ [ [ 140.502896967, 35.7536869 ], [ 140.502606246, 35.754028724 ], [ 140.502685523999986, 35.754037848 ], [ 140.502869049, 35.754071289 ], [ 140.502947334, 35.754090519 ], [ 140.502959301, 35.754094173 ], [ 140.503226860000012, 35.753770302 ], [ 140.503035002, 35.753721525 ], [ 140.50292218300001, 35.753694059 ], [ 140.502896967, 35.7536869 ] ] ] } },
{ "type": "Feature", "properties": { "fid": 118, "__EMPTY": 119, "__EMPTY_1": "北田　守", "__EMPTY_2": "松尾町広根1203-3", "__EMPTY_3": "北中千上3927", "__EMPTY_4": "3-①", "__EMPTY_5": 788, "__EMPTY_6": 759, "__EMPTY_7": null, "__EMPTY_9": null, "__EMPTY_10": null, "__EMPTY_11": null, "手動一致フラグ": null, "検索_AreaOnRegistry": 788, "検索_Address": "北中千上3927", "検索_Tiban": "3927" }, "geometry": { "type": "Polygon", "coordinates": [ [ [ 140.502562546, 35.753599658 ], [ 140.502235879000011, 35.753993625 ], [ 140.502287666, 35.753996046 ], [ 140.502406079, 35.754005689 ], [ 140.502606246, 35.754028724 ], [ 140.502896967, 35.7536869 ], [ 140.502786295, 35.753655482 ], [ 140.502597505000011, 35.753610646 ], [ 140.502562546, 35.753599658 ] ] ] } },
{ "type": "Feature", "properties": { "fid": 119, "__EMPTY": 120, "__EMPTY_1": "北田　守", "__EMPTY_2": "松尾町広根1203-3", "__EMPTY_3": "北中山ノ下3959-1", "__EMPTY_4": "3-①", "__EMPTY_5": 1140, "__EMPTY_6": 1098, "__EMPTY_7": null, "__EMPTY_9": null, "__EMPTY_10": null, "__EMPTY_11": null, "手動一致フラグ": null, "検索_AreaOnRegistry": 1140, "検索_Address": "北中山ノ下3959-1", "検索_Tiban": "3959-1" }, "geometry": { "type": "Polygon", "coordinates": [ [ [ 140.498968552, 35.752782432 ], [ 140.49877815100001, 35.752671037 ], [ 140.498311339, 35.753222796 ], [ 140.498394462, 35.753271502 ], [ 140.49850355, 35.753334111 ], [ 140.498968552, 35.752782432 ] ] ] } },
{ "type": "Feature", "properties": { "fid": 120, "__EMPTY": 121, "__EMPTY_1": "北田　守", "__EMPTY_2": "松尾町広根1203-3", "__EMPTY_3": "北中山ノ下3959-2", "__EMPTY_4": "3-①", "__EMPTY_5": 350, "__EMPTY_6": 337, "__EMPTY_7": null, "__EMPTY_9": null, "__EMPTY_10": null, "__EMPTY_11": null, "手動一致フラグ": null, "検索_AreaOnRegistry": 350, "検索_Address": "北中山ノ下3959-2", "検索_Tiban": "3959-2" }, "geometry": { "type": "Polygon", "coordinates": [ [ [ 140.498968552, 35.752782432 ], [ 140.49877815100001, 35.752671037 ], [ 140.498311339, 35.753222796 ], [ 140.498394462, 35.753271502 ], [ 140.49850355, 35.753334111 ], [ 140.498968552, 35.752782432 ] ] ] } },
{ "type": "Feature", "properties": { "fid": 121, "__EMPTY": 122, "__EMPTY_1": "北田　守", "__EMPTY_2": "松尾町広根1203-3", "__EMPTY_3": "北中下井戸3970-1", "__EMPTY_4": "3-①", "__EMPTY_5": 168, "__EMPTY_6": 161, "__EMPTY_7": null, "__EMPTY_9": null, "__EMPTY_10": null, "__EMPTY_11": null, "手動一致フラグ": null, "検索_AreaOnRegistry": 168, "検索_Address": "北中下井戸3970-1", "検索_Tiban": "3970-1" }, "geometry": { "type": "Polygon", "coordinates": [ [ [ 140.498136201, 35.753010631 ], [ 140.498439986, 35.752654961 ], [ 140.498532138, 35.752546288 ], [ 140.498442088, 35.752493406 ], [ 140.498357148999986, 35.752433473 ], [ 140.498289605, 35.752393109 ], [ 140.49827057600001, 35.75238029 ], [ 140.497908607, 35.752646497 ], [ 140.49794123800001, 35.752671765 ], [ 140.497993599000011, 35.752751546 ], [ 140.498070717, 35.752907044 ], [ 140.498116197, 35.752988267 ], [ 140.498136201, 35.753010631 ] ] ] } },
{ "type": "Feature", "properties": { "fid": 122, "__EMPTY": 123, "__EMPTY_1": "北田　守", "__EMPTY_2": "松尾町広根1203-3", "__EMPTY_3": "北中下井戸3970-2", "__EMPTY_4": "3-①", "__EMPTY_5": 1030, "__EMPTY_6": 992, "__EMPTY_7": null, "__EMPTY_9": null, "__EMPTY_10": null, "__EMPTY_11": null, "手動一致フラグ": null, "検索_AreaOnRegistry": 1030, "検索_Address": "北中下井戸3970-2", "検索_Tiban": "3970-2" }, "geometry": { "type": "Polygon", "coordinates": [ [ [ 140.498136201, 35.753010631 ], [ 140.498439986, 35.752654961 ], [ 140.498532138, 35.752546288 ], [ 140.498442088, 35.752493406 ], [ 140.498357148999986, 35.752433473 ], [ 140.498289605, 35.752393109 ], [ 140.49827057600001, 35.75238029 ], [ 140.497908607, 35.752646497 ], [ 140.49794123800001, 35.752671765 ], [ 140.497993599000011, 35.752751546 ], [ 140.498070717, 35.752907044 ], [ 140.498116197, 35.752988267 ], [ 140.498136201, 35.753010631 ] ] ] } },
{ "type": "Feature", "properties": { "fid": 123, "__EMPTY": 124, "__EMPTY_1": "斉藤　三千夫", "__EMPTY_2": "北中92-6", "__EMPTY_3": "北中千上3936", "__EMPTY_4": "3-①", "__EMPTY_5": 1329, "__EMPTY_6": 1281, "__EMPTY_7": 4263, "__EMPTY_9": null, "__EMPTY_10": null, "__EMPTY_11": null, "手動一致フラグ": null, "検索_AreaOnRegistry": 1329, "検索_Address": "北中千上3936", "検索_Tiban": "3936" }, "geometry": { "type": "Polygon", "coordinates": [ [ [ 140.500864373000013, 35.752295378 ], [ 140.50081912600001, 35.752345496 ], [ 140.500776480000013, 35.752397708 ], [ 140.500742474, 35.752452681 ], [ 140.500677520000011, 35.752516254 ], [ 140.500621324, 35.752596636 ], [ 140.50056835, 35.752650309 ], [ 140.500644546, 35.752694837 ], [ 140.500748523999988, 35.752764497 ], [ 140.500808567, 35.752822288 ], [ 140.501085736, 35.752466154 ], [ 140.501027386, 35.752418089 ], [ 140.500925061, 35.752339992 ], [ 140.500864373000013, 35.752295378 ] ] ] } },
{ "type": "Feature", "properties": { "fid": 124, "__EMPTY": 125, "__EMPTY_1": "斉藤　三千夫", "__EMPTY_2": "北中92-6", "__EMPTY_3": "北中千上3937", "__EMPTY_4": "3-①", "__EMPTY_5": 1428, "__EMPTY_6": 1376, "__EMPTY_7": null, "__EMPTY_9": null, "__EMPTY_10": null, "__EMPTY_11": null, "手動一致フラグ": null, "検索_AreaOnRegistry": 1428, "検索_Address": "北中千上3937", "検索_Tiban": "3937" }, "geometry": { "type": "Polygon", "coordinates": [ [ [ 140.500580668999987, 35.752164908 ], [ 140.500544752, 35.752197416 ], [ 140.500486762, 35.752269379 ], [ 140.500418454999988, 35.752344208 ], [ 140.50039283000001, 35.75237104 ], [ 140.500324651999989, 35.75246132 ], [ 140.500247777, 35.752541816 ], [ 140.500304758999988, 35.752555547 ], [ 140.500380697, 35.752569173 ], [ 140.500470596000014, 35.752603792 ], [ 140.500555361000011, 35.752642655 ], [ 140.500609917, 35.752572116 ], [ 140.500681588, 35.752487435 ], [ 140.500717399, 35.752442285 ], [ 140.500744618999988, 35.752399993 ], [ 140.500841879, 35.752284265 ], [ 140.50071718800001, 35.752210506 ], [ 140.500653183, 35.752181362 ], [ 140.500580668999987, 35.752164908 ] ] ] } },
{ "type": "Feature", "properties": { "fid": 125, "__EMPTY": 126, "__EMPTY_1": "斉藤　三千夫", "__EMPTY_2": "北中92-6", "__EMPTY_3": "北中下井戸3967", "__EMPTY_4": "3-①", "__EMPTY_5": 1666, "__EMPTY_6": 1606, "__EMPTY_7": null, "__EMPTY_9": null, "__EMPTY_10": null, "__EMPTY_11": null, "手動一致フラグ": null, "検索_AreaOnRegistry": 1666, "検索_Address": "北中下井戸3967", "検索_Tiban": "3967" }, "geometry": { "type": "Polygon", "coordinates": [ [ [ 140.49827057600001, 35.75238029 ], [ 140.498225486, 35.752349917 ], [ 140.498088618, 35.752262175 ], [ 140.498000198, 35.752198046 ], [ 140.497936112, 35.752159069 ], [ 140.497856321, 35.752096296 ], [ 140.497769670999986, 35.752037776 ], [ 140.497742728, 35.752018175 ], [ 140.497386111, 35.752279753 ], [ 140.497447179, 35.7523198 ], [ 140.497769462, 35.752530837 ], [ 140.497854459, 35.752597794 ], [ 140.497894407, 35.752635501 ], [ 140.497908607, 35.752646497 ], [ 140.49827057600001, 35.75238029 ] ] ] } },
{ "type": "Feature", "properties": { "fid": 126, "__EMPTY": 127, "__EMPTY_1": "斉藤　洋", "__EMPTY_2": "北中214-1", "__EMPTY_3": "北中大越3985", "__EMPTY_4": "3-①", "__EMPTY_5": 1763, "__EMPTY_6": 1699, "__EMPTY_7": 1699, "__EMPTY_9": null, "__EMPTY_10": null, "__EMPTY_11": null, "手動一致フラグ": null, "検索_AreaOnRegistry": 1763, "検索_Address": "北中大越3985", "検索_Tiban": "3985" }, "geometry": { "type": "Polygon", "coordinates": [ [ [ 140.499608970999986, 35.755464465 ], [ 140.498937542, 35.755605258 ], [ 140.499045805, 35.755721757 ], [ 140.499147149, 35.755840972 ], [ 140.499753739, 35.755705566 ], [ 140.499749579, 35.755696509 ], [ 140.499691939, 35.755604116 ], [ 140.49963254, 35.755507519 ], [ 140.499608970999986, 35.755464465 ] ] ] } }
]
}
