{"type": "FeatureCollection", "name": "重要施設", "features": [{"type": "Feature", "properties": {"fid": 1, "name": "成田国際空港", "path": "Z:/全社共有/千葉支店/01　千葉ガイドマップ/千葉ガイドマップ.gpkg|layername=空港"}, "geometry": {"type": "MultiPolygon", "coordinates": [[[[140.3967497, 35.7845626], [140.3967047, 35.7846227], [140.3966704, 35.7846724], [140.3970983, 35.7848814], [140.3972339, 35.7849903], [140.3972985, 35.7851035], [140.3973084, 35.7852954], [140.397318, 35.7855031], [140.397355, 35.7857314], [140.3971561, 35.7856832], [140.397073, 35.7857027], [140.3968664, 35.7856592], [140.396853, 35.7856832], [140.3964855, 35.7856396], [140.3964413, 35.7856077], [140.3963964, 35.7855982], [140.3963385, 35.7856868], [140.396269, 35.7858037], [140.3961978, 35.7859261], [140.396904, 35.7859965], [140.396503, 35.7872517], [140.3965681, 35.7874807], [140.3961643, 35.7878779], [140.3960565, 35.7878435], [140.396103, 35.7876615], [140.3961229, 35.7870853], [140.3960104, 35.7870691], [140.3958912, 35.7870719], [140.395876, 35.787506], [140.3922504, 35.7869796], [140.3921689, 35.7870918], [140.3948122, 35.7874564], [140.3959777, 35.7876318], [140.3959672, 35.7877333], [140.3959568, 35.7879454], [140.3960212, 35.7879704], [140.3960386, 35.7879976], [140.3960413, 35.7880335], [140.3959863, 35.7881314], [140.3959731, 35.7881855], [140.3958019, 35.7881678], [140.3909021, 35.7948433], [140.3906451, 35.795074], [140.3905715, 35.7950397], [140.3895308, 35.7964607], [140.3891215, 35.796334], [140.3885833, 35.7970586], [140.3888674, 35.7971729], [140.3888137, 35.797235], [140.388763, 35.7973136], [140.3888143, 35.7973292], [140.3893683, 35.7975856], [140.3894065, 35.7975436], [140.3898589, 35.7975425], [140.3899279, 35.7975687], [140.3899734, 35.7976022], [140.3899926, 35.7976702], [140.3900547, 35.7983529], [140.390045, 35.7984572], [140.3900177, 35.7985528], [140.3896836, 35.7993809], [140.3891189, 35.8004714], [140.3889788, 35.8006545], [140.3887154, 35.8009297], [140.3882797, 35.8013344], [140.3881179, 35.801534], [140.3879738, 35.8017444], [140.3876844, 35.8022572], [140.3876261, 35.8022286], [140.3875689, 35.8023024], [140.3870922, 35.8021359], [140.386704, 35.8020433], [140.3852271, 35.8013265], [140.3851787, 35.8013323], [140.385032, 35.8018677], [140.3851531, 35.8020228], [140.3852011, 35.8020861], [140.385156, 35.8022569], [140.3843704, 35.803687], [140.3845284, 35.803744], [140.384508, 35.8046341], [140.3844147, 35.8046844], [140.3825559, 35.8042756], [140.382219, 35.8059537], [140.3821018, 35.806079], [140.3819092, 35.8061216], [140.3813363, 35.8057111], [140.3811475, 35.8059158], [140.3819607, 35.8065025], [140.3811912, 35.8075934], [140.3803838, 35.8072325], [140.3803519, 35.8071044], [140.3796122, 35.8067581], [140.3791194, 35.8074531], [140.3786232, 35.8072199], [140.3784816, 35.807236], [140.3782987, 35.807542], [140.3774645, 35.8081731], [140.3768307, 35.808026], [140.3762379, 35.8078499], [140.3759755, 35.8082071], [140.3761047, 35.8082527], [140.3760887, 35.8082736], [140.3765513, 35.8084377], [140.3764141, 35.8086286], [140.3761959, 35.8089324], [140.3744092, 35.8114193], [140.3742486, 35.8115595], [140.3740236, 35.8118742], [140.3737552, 35.8123023], [140.3732844, 35.8129449], [140.3725747, 35.8125976], [140.3725122, 35.8126665], [140.3724789, 35.8126954], [140.371635, 35.8131582], [140.371753, 35.8133581], [140.3718831, 35.8133167], [140.3723822, 35.8141164], [140.3723762, 35.8141382], [140.3720594, 35.8142739], [140.37212, 35.8144815], [140.3721347, 35.8146245], [140.3721072, 35.8146447], [140.3708341, 35.8148289], [140.3707923, 35.8148047], [140.3706578, 35.8143515], [140.370604, 35.8142182], [140.3706309, 35.814114], [140.370882, 35.8140776], [140.3707564, 35.8136172], [140.3707714, 35.8135663], [140.3708491, 35.8135615], [140.3713478, 35.8134283], [140.3712797, 35.8132919], [140.3716161, 35.813142], [140.3724668, 35.812681], [140.3725017, 35.8126509], [140.3725599, 35.8125901], [140.3723213, 35.8124781], [140.3721655, 35.8123154], [140.3728558, 35.8113557], [140.3730294, 35.8111603], [140.3731785, 35.8109495], [140.3735486, 35.8104293], [140.3736958, 35.8102479], [140.3738075, 35.8100947], [140.3745158, 35.8091234], [140.3745007, 35.8090526], [140.3749744, 35.8084191], [140.3752194, 35.8083547], [140.3753037, 35.8080746], [140.3758774, 35.8081729], [140.3759462, 35.8081919], [140.3759678, 35.8082038], [140.3762235, 35.8078438], [140.3758309, 35.807725], [140.3758304, 35.8077193], [140.375825, 35.807426], [140.3757943, 35.8072922], [140.375231, 35.8068708], [140.3752329, 35.8062554], [140.3751765, 35.8061604], [140.3742464, 35.805577], [140.3751302, 35.8043259], [140.3759255, 35.8032094], [140.3765708, 35.8026368], [140.3765558, 35.8025926], [140.3767726, 35.8024115], [140.3768343, 35.802332], [140.3764782, 35.8020531], [140.3762407, 35.8018518], [140.3759204, 35.8015578], [140.3758965, 35.8015359], [140.375659, 35.8013086], [140.3756937, 35.8012845], [140.3757337, 35.8012567], [140.3759899, 35.8014515], [140.3770596, 35.7999972], [140.3782252, 35.7983936], [140.3782773, 35.7983253], [140.3783643, 35.7983049], [140.3783723, 35.7982146], [140.3784737, 35.7981436], [140.3785791, 35.7981], [140.3787104, 35.7980823], [140.3794185, 35.798113], [140.3795253, 35.7981005], [140.3796214, 35.798071], [140.3797248, 35.7980145], [140.3797984, 35.7979253], [140.3801795, 35.7973104], [140.3803497, 35.7968201], [140.380444, 35.7965782], [140.3805171, 35.7964391], [140.3806002, 35.7963182], [140.3812218, 35.795462], [140.3819197, 35.7944843], [140.3825406, 35.7935789], [140.3837983, 35.7918097], [140.384825, 35.7903928], [140.3852006, 35.7898782], [140.38542, 35.7896113], [140.3855297, 35.789548], [140.385661, 35.7895044], [140.3858324, 35.7894613], [140.3860273, 35.7894726], [140.3863393, 35.789551], [140.3866606, 35.7896183], [140.387315, 35.789365], [140.3874824, 35.7891062], [140.3877035, 35.7885368], [140.3865533, 35.7882466], [140.3867376, 35.7879608], [140.3865318, 35.7878694], [140.3871257, 35.787006], [140.3867054, 35.786887], [140.3869003, 35.78662], [140.3867483, 35.7861861], [140.3866213, 35.7861614], [140.3867161, 35.7859467], [140.3866494, 35.7857698], [140.3858877, 35.7855717], [140.3859273, 35.7851454], [140.3858408, 35.7848261], [140.3859007, 35.7847487], [140.3861344, 35.7846992], [140.3872247, 35.7849212], [140.3873132, 35.7849147], [140.3871175, 35.7834177], [140.3869726, 35.7833633], [140.3868921, 35.7833154], [140.3868125, 35.783291], [140.3855118, 35.7836988], [140.3854091, 35.7836545], [140.3852392, 35.7832295], [140.3851272, 35.782891], [140.3849867, 35.7824621], [140.3848889, 35.7821695], [140.3852392, 35.78204], [140.385669, 35.7816996], [140.3854503, 35.7814872], [140.3854164, 35.7814389], [140.3852715, 35.7810567], [140.3850846, 35.7808578], [140.38497, 35.7807686], [140.3845087, 35.7807613], [140.3843737, 35.7808309], [140.3841652, 35.7806452], [140.3838567, 35.780812], [140.3829296, 35.7797718], [140.3826699, 35.7795422], [140.3831303, 35.7791918], [140.3826339, 35.7786919], [140.3824602, 35.778786], [140.3822306, 35.7782246], [140.3820705, 35.7781071], [140.382049, 35.7780723], [140.3820034, 35.7781071], [140.3818049, 35.7779548], [140.3816628, 35.7779483], [140.3815447, 35.7778242], [140.3815045, 35.7778155], [140.381711, 35.7775218], [140.3819792, 35.7774565], [140.3820973, 35.7773781], [140.3820919, 35.7773063], [140.382108, 35.7772041], [140.3821536, 35.7771127], [140.3822153, 35.7770191], [140.3822958, 35.7769669], [140.3826069, 35.7768145], [140.3832158, 35.7764794], [140.3833365, 35.776314], [140.3833686, 35.7762335], [140.3834841, 35.7761471], [140.3835537, 35.7760943], [140.3835269, 35.7760116], [140.3843396, 35.7747995], [140.3842296, 35.7747494], [140.3839828, 35.774893], [140.3837092, 35.7753087], [140.3836315, 35.7755045], [140.3834544, 35.77572], [140.383264, 35.7759049], [140.3831931, 35.7759631], [140.3826042, 35.776425], [140.3824701, 35.776449], [140.3822313, 35.7763902], [140.3817584, 35.7761721], [140.3817672, 35.7760993], [140.3816437, 35.7760832], [140.3815266, 35.7760674], [140.3814603, 35.7760584], [140.3814358, 35.7760551], [140.3813928, 35.7762481], [140.3812765, 35.7766093], [140.3809982, 35.7770629], [140.3806474, 35.7774757], [140.3805676, 35.7774719], [140.38041, 35.7773892], [140.3804492, 35.7773666], [140.3804315, 35.7772383], [140.3804815, 35.7771111], [140.3805903, 35.7770167], [140.3805865, 35.7769315], [140.3804043, 35.7767689], [140.3803556, 35.7768084], [140.3801564, 35.7767406], [140.3793322, 35.7760242], [140.3790288, 35.7757606], [140.3790199, 35.7757114], [140.3789946, 35.7756508], [140.3788118, 35.7756975], [140.3786386, 35.7753845], [140.3786695, 35.7752552], [140.3784316, 35.7750549], [140.3783205, 35.7750489], [140.3763205, 35.775838], [140.3763067, 35.775801], [140.3761296, 35.7756301], [140.3760587, 35.7755902], [140.3759637, 35.7755367], [140.3741726, 35.7735296], [140.3740165, 35.7736118], [140.3738934, 35.7734633], [140.3738054, 35.7734254], [140.3735919, 35.773581], [140.3717612, 35.7761474], [140.3716052, 35.7762681], [140.3708589, 35.7772987], [140.3707176, 35.777294], [140.3706386, 35.777283], [140.3705297, 35.7772627], [140.3703556, 35.7772112], [140.3703153, 35.7772677], [140.3698007, 35.7779893], [140.3692691, 35.7780024], [140.3684731, 35.7776541], [140.3683526, 35.7778197], [140.3675089, 35.7773944], [140.3674177, 35.7773994], [140.367364, 35.777456], [140.3672638, 35.7773675], [140.3670975, 35.7772964], [140.3668792, 35.7775983], [140.367042, 35.777681], [140.3675451, 35.7778153], [140.3669967, 35.779038], [140.3663462, 35.7797243], [140.3657396, 35.780564], [140.3653847, 35.7810493], [140.3652261, 35.7810689], [140.3646197, 35.7818995], [140.3646306, 35.7819807], [140.3644213, 35.7822811], [140.3643515, 35.782268], [140.3641437, 35.7825818], [140.3634059, 35.7829504], [140.3626772, 35.7825851], [140.3625376, 35.7828219], [140.3622814, 35.7827121], [140.3619964, 35.7825627], [140.3621202, 35.7823291], [140.3619158, 35.7822474], [140.3619322, 35.7818], [140.3621325, 35.7814673], [140.3621012, 35.7814467], [140.3624974, 35.7805691], [140.3629732, 35.7800208], [140.3631771, 35.7798957], [140.3634526, 35.7795808], [140.363331, 35.7794778], [140.3632558, 35.7794487], [140.3643764, 35.7778953], [140.3643488, 35.7778432], [140.364415, 35.7776291], [140.3644034, 35.7774514], [140.3644517, 35.7773723], [140.364612, 35.7771287], [140.3645002, 35.7766059], [140.3644573, 35.7765483], [140.3644113, 35.7764848], [140.3642197, 35.7763798], [140.3642325, 35.7763622], [140.3642684, 35.7763148], [140.3645173, 35.7764639], [140.3646786, 35.7765045], [140.3648621, 35.7765948], [140.3648954, 35.7765519], [140.3656295, 35.7769106], [140.365788, 35.7766986], [140.3651179, 35.7763872], [140.365104, 35.7764166], [140.364926, 35.7763263], [140.3648682, 35.7762578], [140.3637496, 35.7757002], [140.363543, 35.7752018], [140.3643101, 35.774092], [140.364231, 35.7740126], [140.3647889, 35.7732313], [140.3647621, 35.7731465], [140.3647648, 35.7731029], [140.3651654, 35.7730615], [140.3652606, 35.772653], [140.3652311, 35.7726095], [140.3655261, 35.772492], [140.3658399, 35.7721242], [140.3661457, 35.7716977], [140.3659928, 35.7714909], [140.3666956, 35.7708533], [140.3672079, 35.7698152], [140.367511, 35.7694822], [140.3677926, 35.7691601], [140.3677363, 35.7691297], [140.3678945, 35.7689665], [140.3682942, 35.7686291], [140.3678489, 35.7684158], [140.3678221, 35.7683201], [140.3682137, 35.7677938], [140.3683424, 35.7677564], [140.3687957, 35.7679762], [140.3695563, 35.7669772], [140.3692272, 35.7668059], [140.3697423, 35.7662456], [140.370025, 35.7663182], [140.3716778, 35.7640162], [140.371444, 35.7638939], [140.3717053, 35.762681], [140.3718849, 35.7623567], [140.3721986, 35.761981], [140.3720873, 35.7613001], [140.3716496, 35.7613138], [140.3713444, 35.7615312], [140.3708131, 35.7612364], [140.3716607, 35.7600948], [140.3725074, 35.7589275], [140.3740452, 35.7567342], [140.3743646, 35.7562883], [140.3744293, 35.756304], [140.3744661, 35.7562877], [140.3745124, 35.756267], [140.3744561, 35.7561908], [140.3767095, 35.7530323], [140.3797277, 35.7488014], [140.3809589, 35.7490869], [140.381651, 35.7480931], [140.3827385, 35.7486222], [140.3827782, 35.7485696], [140.3828493, 35.7486052], [140.3837189, 35.747426], [140.3832415, 35.7467315], [140.3834455, 35.7464429], [140.3852445, 35.7457883], [140.3852815, 35.7458049], [140.3853104, 35.7458179], [140.3857402, 35.7452789], [140.3857134, 35.7452661], [140.385928, 35.744955], [140.3863906, 35.7436903], [140.3879546, 35.7415068], [140.387812, 35.7413218], [140.3877843, 35.7412136], [140.3876188, 35.7411457], [140.3875821, 35.7411329], [140.3875315, 35.7411201], [140.3874776, 35.7410841], [140.3874491, 35.7410481], [140.3873604, 35.7408604], [140.3872875, 35.7407935], [140.3867496, 35.7404871], [140.3867393, 35.7403918], [140.3871889, 35.7397548], [140.3874726, 35.7394991], [140.387806, 35.739369], [140.3882651, 35.7392385], [140.3886752, 35.7391945], [140.3892796, 35.7392165], [140.3908379, 35.7393167], [140.3917043, 35.7393733], [140.3919899, 35.7389417], [140.3925573, 35.7381846], [140.3937026, 35.7379277], [140.3943919, 35.7380496], [140.3945528, 35.737821], [140.3945716, 35.7378341], [140.394687, 35.7376773], [140.3946682, 35.7376664], [140.3947352, 35.7375706], [140.3947084, 35.7374574], [140.3942471, 35.7372397], [140.3944509, 35.7369545], [140.3951644, 35.7372919], [140.3948506, 35.7377448], [140.3947594, 35.7376991], [140.3946387, 35.7378689], [140.3947191, 35.7379146], [140.3945958, 35.7380779], [140.3946019, 35.7392146], [140.3947406, 35.7392786], [140.3947719, 35.7393031], [140.3947876, 35.7393203], [140.3947954, 35.7393385], [140.3947967, 35.7393805], [140.3947888, 35.7394099], [140.3947294, 35.7394918], [140.3947093, 35.7395299], [140.3946959, 35.7395825], [140.3947006, 35.7396373], [140.3948201, 35.740215], [140.3948278, 35.7402603], [140.3948166, 35.7403193], [140.394792, 35.7403574], [140.3943623, 35.7409594], [140.3944357, 35.7409947], [140.3944967, 35.741024], [140.3947998, 35.7408847], [140.3953899, 35.7401837], [140.3957198, 35.7405146], [140.395752, 35.7408259], [140.3956071, 35.7410545], [140.395752, 35.7410327], [140.3958137, 35.7410349], [140.3961463, 35.7411264], [140.3963018, 35.7412265], [140.3963394, 35.7412918], [140.3963394, 35.7415748], [140.3963742, 35.7416401], [140.3964124, 35.7416446], [140.3965056, 35.7416541], [140.3965231, 35.7416192], [140.3970593, 35.7416301], [140.3974815, 35.7417341], [140.3977317, 35.741412], [140.398128, 35.7416075], [140.3981468, 35.7416582], [140.3983158, 35.7417414], [140.3983802, 35.7417327], [140.3986277, 35.7418385], [140.3989445, 35.7419405], [140.3993845, 35.7420211], [140.400099, 35.7419259], [140.4008398, 35.7416005], [140.4019478, 35.7409073], [140.4025055, 35.7415896], [140.4027671, 35.7420149], [140.4029411, 35.7424715], [140.403168, 35.7432337], [140.4035043, 35.7447301], [140.4035127, 35.7448871], [140.4035049, 35.7450281], [140.4034748, 35.7452044], [140.403424, 35.7453526], [140.4033599, 35.7454963], [140.4032894, 35.7456183], [140.4026372, 35.7465613], [140.4016356, 35.7479253], [140.401301, 35.7483912], [140.4011672, 35.7485652], [140.4010623, 35.7487904], [140.4008505, 35.7490255], [140.4006895, 35.7491833], [140.4005916, 35.7493465], [140.400381, 35.7497363], [140.4003087, 35.7499234], [140.4002751, 35.7501465], [140.4002912, 35.7503403], [140.4003382, 35.7504981], [140.4003768, 35.7506468], [140.4008369, 35.7519152], [140.4009159, 35.7521493], [140.400935, 35.7522663], [140.4009442, 35.7523821], [140.4009347, 35.7525367], [140.4009227, 35.7526493], [140.4009055, 35.7527346], [140.4008481, 35.7528934], [140.4007745, 35.7530303], [140.4006777, 35.7531579], [140.4005595, 35.7532877], [140.4004202, 35.7534061], [140.4002459, 35.7535223], [140.3998824, 35.7537079], [140.3983187, 35.754362], [140.3976133, 35.7546569], [140.3974462, 35.7547192], [140.3969039, 35.7551242], [140.3968318, 35.7551813], [140.3967819, 35.7552208], [140.396684, 35.7552983], [140.3964571, 35.7554685], [140.3961995, 35.755673], [140.3958971, 35.7559275], [140.3956619, 35.7562297], [140.3950418, 35.7570574], [140.3945163, 35.7578214], [140.3940709, 35.7584296], [140.3940947, 35.7584725], [140.3941671, 35.7586032], [140.3942793, 35.7588026], [140.3949096, 35.7577731], [140.3950061, 35.7577644], [140.3955516, 35.7583176], [140.3959126, 35.7589549], [140.3959021, 35.7592529], [140.3957584, 35.7595687], [140.3951983, 35.7601373], [140.3951656, 35.7602144], [140.3953981, 35.7606168], [140.3956782, 35.7610365], [140.3959194, 35.7614483], [140.3963104, 35.7621615], [140.3964434, 35.7624254], [140.3965039, 35.7626073], [140.3965299, 35.7627678], [140.3965795, 35.7629078], [140.3966472, 35.7630289], [140.3967273, 35.7631333], [140.396828, 35.7632453], [140.3970374, 35.7634423], [140.3972223, 35.7636963], [140.3973132, 35.7638233], [140.3978943, 35.7649933], [140.3980495, 35.7652657], [140.3982321, 35.7654636], [140.3984198, 35.765549], [140.3985381, 35.7657129], [140.3986088, 35.7657915], [140.3982246, 35.7659888], [140.3984838, 35.7662461], [140.3992954, 35.7669836], [140.3995506, 35.7673017], [140.3996567, 35.7675668], [140.3996959, 35.7678308], [140.399727, 35.7684798], [140.3997561, 35.76862], [140.3998117, 35.7687267], [140.4000115, 35.7690595], [140.400093, 35.7692577], [140.4001518, 35.7693611], [140.4002751, 35.7694416], [140.4005285, 35.7693938], [140.4011214, 35.7684786], [140.401918, 35.7688986], [140.4021165, 35.7689835], [140.4025698, 35.7689378], [140.4027119, 35.7688812], [140.4032752, 35.7680498], [140.4050401, 35.7702207], [140.4051608, 35.7704046], [140.4048255, 35.7709312], [140.4046136, 35.7711728], [140.4043373, 35.7715797], [140.4043213, 35.771669], [140.4043454, 35.7717647], [140.40434, 35.771867], [140.4042864, 35.771991], [140.4034844, 35.7730617], [140.4028704, 35.77399], [140.4026394, 35.7743156], [140.4032742, 35.7755018], [140.4028, 35.7761397], [140.4026556, 35.7762441], [140.4025846, 35.7762826], [140.40243, 35.7763113], [140.4022403, 35.7762848], [140.4022338, 35.7764863], [140.401931, 35.7764908], [140.4020549, 35.7783483], [140.4021404, 35.7799072], [140.402113, 35.7802783], [140.4020232, 35.7802765], [140.4020312, 35.7804685], [140.4020991, 35.7813497], [140.4021282, 35.7814685], [140.4021518, 35.7815635], [140.4021299, 35.7817022], [140.4020299, 35.7819289], [140.4019018, 35.7821285], [140.4017225, 35.7823585], [140.4015035, 35.7825314], [140.4011527, 35.7827256], [140.3990983, 35.783482], [140.3977285, 35.7840246], [140.3976506, 35.7840747], [140.3975593, 35.7841466], [140.3970822, 35.7846932], [140.3970638, 35.7847078], [140.3967497, 35.7845626]], [[140.3960418, 35.7843797], [140.3961197, 35.7842533], [140.3957871, 35.7841815], [140.3956469, 35.7841706], [140.3954565, 35.7841733], [140.3951861, 35.7842275], [140.3950659, 35.7842438], [140.3949657, 35.7842329], [140.3947487, 35.7841842], [140.394829, 35.7840027], [140.3949397, 35.7838805], [140.3958556, 35.7834466], [140.3959873, 35.7835137], [140.3973574, 35.7816296], [140.3983425, 35.7812659], [140.3990893, 35.7814196], [140.3992242, 35.7812526], [140.4000944, 35.7814053], [140.400134, 35.7814371], [140.4002307, 35.7814601], [140.4002859, 35.7814395], [140.4005147, 35.781475], [140.4006537, 35.7814673], [140.4007697, 35.7814268], [140.4008623, 35.7811309], [140.4008568, 35.7809928], [140.3993426, 35.7807366], [140.39792, 35.7804791], [140.397819, 35.7804874], [140.3976858, 35.7805322], [140.3975477, 35.780745], [140.3974392, 35.7808237], [140.397361, 35.7809494], [140.397142, 35.7809742], [140.397128, 35.7808827], [140.3966364, 35.7808625], [140.3959284, 35.7832674], [140.3958548, 35.7832966], [140.3945803, 35.7830451], [140.3941217, 35.7836978], [140.3938839, 35.7835313], [140.3937691, 35.7834679], [140.3936441, 35.7834135], [140.3936782, 35.7833753], [140.3938478, 35.7833761], [140.3938944, 35.7832081], [140.3942209, 35.7826552], [140.394603, 35.7827414], [140.3945645, 35.7828432], [140.3949049, 35.7829376], [140.3949246, 35.7829838], [140.3957365, 35.7831425], [140.3958078, 35.7831055], [140.3964431, 35.7809783], [140.3960213, 35.780926], [140.3959669, 35.7809916], [140.3956308, 35.7809535], [140.3955592, 35.7811782], [140.395425, 35.7814051], [140.3953674, 35.7815912], [140.3955026, 35.7818765], [140.3949426, 35.7826619], [140.3945102, 35.7825757], [140.3946569, 35.7822481], [140.3951424, 35.7815765], [140.3950697, 35.781381], [140.39583, 35.780332], [140.3955588, 35.7802021], [140.3954058, 35.7799097], [140.3952487, 35.7798156], [140.3950997, 35.7797991], [140.3949042, 35.7798248], [140.3945319, 35.7797403], [140.3942351, 35.7796771], [140.3937724, 35.7796075], [140.3934931, 35.7797193], [140.3932238, 35.7797525], [140.3922082, 35.7801714], [140.3918423, 35.7807167], [140.391933, 35.7808165], [140.3919289, 35.7808809], [140.3920359, 35.7809605], [140.3921867, 35.7810213], [140.3924689, 35.7811999], [140.3926719, 35.7815735], [140.3925524, 35.7819579], [140.3925051, 35.781995], [140.3924291, 35.7822069], [140.3925582, 35.7827365], [140.3923915, 35.7832595], [140.3923651, 35.7833384], [140.3921576, 35.7834128], [140.3918488, 35.7835601], [140.3918132, 35.7835996], [140.3918307, 35.7836236], [140.3918791, 35.7836957], [140.3919211, 35.7837472], [140.3922759, 35.7835872], [140.3923709, 35.7835428], [140.3926355, 35.7834465], [140.3927894, 35.7834293], [140.3929985, 35.7834092], [140.3932899, 35.7834336], [140.3934238, 35.783472], [140.393545, 35.7835195], [140.3936838, 35.7835938], [140.3938718, 35.7837204], [140.3942071, 35.7839574], [140.3943218, 35.7840435], [140.3943574, 35.7841001], [140.3943649, 35.7841388], [140.3943631, 35.7842037], [140.3942153, 35.7845135], [140.394174, 35.7845721], [140.3941151, 35.784619], [140.3940572, 35.7846622], [140.3936248, 35.7849094], [140.3935386, 35.7849312], [140.3934357, 35.7849216], [140.3934488, 35.7848587], [140.3932351, 35.7848287], [140.3931838, 35.7848636], [140.3930853, 35.7848517], [140.3930693, 35.784889], [140.3930083, 35.7848796], [140.3929839, 35.7849344], [140.3930165, 35.7850217], [140.3933091, 35.785067], [140.3933764, 35.7850145], [140.393606, 35.7850286], [140.3938269, 35.7850219], [140.3938315, 35.7849298], [140.3941254, 35.7847647], [140.3942719, 35.7846799], [140.3942924, 35.7846215], [140.3943383, 35.7845974], [140.3943848, 35.7845051], [140.394375, 35.7844439], [140.3944792, 35.7842642], [140.3945211, 35.7842457], [140.3945916, 35.784249], [140.3947838, 35.7843439], [140.3949868, 35.7843944], [140.3951787, 35.7843692], [140.3954107, 35.7843109], [140.395578, 35.7842969], [140.3957012, 35.7843026], [140.3958967, 35.7843231], [140.3960418, 35.7843797]], [[140.3924506, 35.7604782], [140.392403, 35.7605014], [140.3923573, 35.7605164], [140.3922702, 35.7605558], [140.3921819, 35.7606211], [140.392125, 35.7606792], [140.3920745, 35.7607474], [140.3920428, 35.7608349], [140.3920308, 35.760914], [140.3920371, 35.7610792], [140.3920376, 35.7611757], [140.3920197, 35.7612917], [140.3919775, 35.7614318], [140.391918, 35.7615469], [140.3918373, 35.7616645], [140.3918611, 35.7616845], [140.3919308, 35.7616104], [140.3920474, 35.7613893], [140.392143, 35.7614087], [140.3924432, 35.7611889], [140.3925574, 35.7612234], [140.3925733, 35.7612492], [140.3927061, 35.7612665], [140.3927619, 35.7612428], [140.3927725, 35.761163], [140.3927725, 35.7611048], [140.3926875, 35.7609561], [140.3924644, 35.7606629], [140.3925042, 35.7606263], [140.3924865, 35.7605761], [140.3924506, 35.7604782]], [[140.3970092, 35.76845], [140.396869, 35.7683649], [140.396775, 35.7682648], [140.396739, 35.7681713], [140.3967333, 35.7681064], [140.396813, 35.7679721], [140.3968003, 35.7679084], [140.3966394, 35.7677854], [140.3965938, 35.7677234], [140.3965841, 35.7676591], [140.3966166, 35.7676037], [140.3966669, 35.7675553], [140.3967842, 35.7674998], [140.3968386, 35.7675052], [140.396873, 35.7675443], [140.396836, 35.7675867], [140.3967711, 35.7676245], [140.3967098, 35.7676441], [140.3966749, 35.7676804], [140.3966901, 35.7677238], [140.39672, 35.7676964], [140.3970318, 35.7679599], [140.3971234, 35.7680643], [140.3971758, 35.7682072], [140.3971312, 35.7683986], [140.3970092, 35.76845]], [[140.3868904, 35.7704514], [140.3869602, 35.7705494], [140.3870058, 35.7705646], [140.3870379, 35.7705973], [140.387011, 35.770644], [140.387306, 35.7707898], [140.3884245, 35.7692272], [140.3882781, 35.7690127], [140.3882366, 35.7690017], [140.387915, 35.7694438], [140.3876976, 35.7693404], [140.3877084, 35.769249], [140.3876627, 35.7692291], [140.3876118, 35.7692069], [140.3873382, 35.7695972], [140.3874643, 35.7696581], [140.3872498, 35.7699574], [140.3872042, 35.76994], [140.3870809, 35.7701185], [140.3871238, 35.7701402], [140.3868904, 35.7704514]], [[140.3914371, 35.7818662], [140.3914076, 35.7819772], [140.3912106, 35.7819945], [140.3906619, 35.7818727], [140.389927, 35.7841671], [140.390022, 35.7842178], [140.3901497, 35.7842178], [140.3903425, 35.784209], [140.3905652, 35.7841561], [140.3906467, 35.7841362], [140.3906467, 35.7840878], [140.3908965, 35.7840195], [140.3909179, 35.7840511], [140.3908513, 35.7840781], [140.3908922, 35.7841664], [140.3909285, 35.7842241], [140.3907227, 35.7842941], [140.3904919, 35.7843389], [140.3902909, 35.7843698], [140.3901524, 35.784372], [140.3900954, 35.7844689], [140.3898989, 35.7848863], [140.3897938, 35.7849431], [140.3896984, 35.7849608], [140.3891207, 35.7848496], [140.3890723, 35.7849772], [140.3889975, 35.7849584], [140.3890463, 35.7848213], [140.3889393, 35.784723], [140.3888886, 35.7845383], [140.3890176, 35.7842073], [140.3887297, 35.7841308], [140.3886147, 35.78409], [140.3886002, 35.7839593], [140.3886358, 35.7839698], [140.3888817, 35.7839147], [140.3889265, 35.7837181], [140.3890998, 35.7837434], [140.3893746, 35.7832203], [140.3897032, 35.7827995], [140.389703, 35.7827571], [140.3888623, 35.782641], [140.3888351, 35.7813665], [140.3888837, 35.7813376], [140.3914371, 35.7818662]]]]}}, {"type": "Feature", "properties": {"fid": 4, "name": "浦安へリポート", "path": "Z:/全社共有/千葉支店/01　千葉ガイドマップ/千葉ガイドマップ.gpkg|layername=空港"}, "geometry": {"type": "MultiPolygon", "coordinates": [[[[139.8943564, 35.6234828], [139.8943689, 35.6234858], [139.8946141, 35.6235457], [139.8946357, 35.6235509], [139.8951796, 35.6236812], [139.8946945, 35.6250486], [139.8938649, 35.6248494], [139.8943564, 35.6234828]]]]}}, {"type": "Feature", "properties": {"fid": 5, "name": "陸上自衛隊木更津駐屯地", "path": "Z:/全社共有/千葉支店/01　千葉ガイドマップ/千葉ガイドマップ.gpkg|layername=自衛隊施設"}, "geometry": {"type": "MultiPolygon", "coordinates": [[[[139.9128758, 35.407621], [139.9129702, 35.4076015], [139.9130054, 35.4075154], [139.9130043, 35.407321], [139.9130209, 35.4070924], [139.91446, 35.4045421], [139.9180237, 35.4056141], [139.9182246, 35.4056177], [139.9182853, 35.4055623], [139.918288, 35.405511], [139.9190514, 35.4036292], [139.9152383, 35.4024357], [139.9153838, 35.4016563], [139.9159836, 35.3999604], [139.9161161, 35.3993288], [139.9161863, 35.3988541], [139.9162653, 35.3983195], [139.9171624, 35.3972547], [139.9175215, 35.3966174], [139.9184951, 35.3952915], [139.9186613, 35.3950594], [139.9190501, 35.3944789], [139.9193438, 35.393883], [139.919296, 35.3937685], [139.9192336, 35.3935685], [139.9191711, 35.3934075], [139.9191011, 35.3932847], [139.9189376, 35.3931213], [139.9174204, 35.3926085], [139.9178328, 35.3912301], [139.9182921, 35.3899041], [139.9181643, 35.3897174], [139.9178152, 35.3896179], [139.9175326, 35.3895389], [139.9174972, 35.3894238], [139.9147897, 35.3888256], [139.9144072, 35.3889106], [139.9140292, 35.3898981], [139.9139445, 35.3898734], [139.9139111, 35.3899463], [139.913827, 35.3899175], [139.9136812, 35.3902811], [139.9134641, 35.3907702], [139.9135404, 35.3907959], [139.9132806, 35.3914133], [139.9126025, 35.3912179], [139.9082055, 35.3899328], [139.9065733, 35.3894485], [139.9063353, 35.3900324], [139.9059497, 35.3902839], [139.9057739, 35.3905047], [139.9057347, 35.390681], [139.905724, 35.3908844], [139.9057433, 35.3911669], [139.9046598, 35.3939935], [139.9044651, 35.3944894], [139.9038507, 35.3957616], [139.9022098, 35.3995233], [139.9023008, 35.3996931], [139.9039033, 35.4006277], [139.903673, 35.4008726], [139.9028596, 35.40095], [139.9026456, 35.401868], [139.9025001, 35.4043205], [139.9026141, 35.404564], [139.9063156, 35.4056389], [139.9128758, 35.407621]]]]}}, {"type": "Feature", "properties": {"fid": 6, "name": "航空自衛隊 柏送信所", "path": "Z:/全社共有/千葉支店/01　千葉ガイドマップ/千葉ガイドマップ.gpkg|layername=自衛隊施設"}, "geometry": {"type": "MultiPolygon", "coordinates": [[[[139.9363627, 35.8879579], [139.9393213, 35.8879932], [139.9394944, 35.8880049], [139.9395306, 35.8880103], [139.9396264, 35.8880761], [139.9400691, 35.8896525], [139.9400556, 35.8896896], [139.9367588, 35.890287], [139.9367123, 35.8902655], [139.936536, 35.8895553], [139.9364139, 35.8891055], [139.9361814, 35.8882678], [139.9364233, 35.8882506], [139.9363627, 35.8879579]]]]}}, {"type": "Feature", "properties": {"fid": 7, "name": "海上自衛隊館山航空基地", "path": "Z:/全社共有/千葉支店/01　千葉ガイドマップ/千葉ガイドマップ.gpkg|layername=自衛隊施設"}, "geometry": {"type": "MultiPolygon", "coordinates": [[[[139.8367615, 34.982911], [139.837045, 34.98299], [139.8376561, 34.9831923], [139.8382283, 34.9833798], [139.839116, 34.983536], [139.8393772, 34.9835363], [139.8402046, 34.9835372], [139.8406626, 34.9835929], [139.8415295, 34.983573], [139.841573, 34.9857525], [139.8415737, 34.9859107], [139.8415227, 34.9860008], [139.8414799, 34.9861475], [139.8415818, 34.988906], [139.8415835, 34.9889661], [139.8407594, 34.9901221], [139.8406071, 34.9899795], [139.8402839, 34.9899674], [139.840069, 34.9901341], [139.8398717, 34.9905937], [139.8397376, 34.9912066], [139.8386943, 34.9910835], [139.8378856, 34.9909534], [139.8377332, 34.9909353], [139.8369721, 34.990858], [139.8327331, 34.9907922], [139.8303178, 34.9907547], [139.8293503, 34.9907397], [139.829237, 34.9907379], [139.8291953, 34.9907336], [139.829139, 34.9907193], [139.829088, 34.990683], [139.8290493, 34.9906409], [139.8275282, 34.9884627], [139.8274243, 34.9885218], [139.8273369, 34.9885715], [139.8233954, 34.9830259], [139.823385, 34.9826423], [139.8241965, 34.9823014], [139.8242797, 34.9822332], [139.8242623, 34.9821224], [139.8243178, 34.9820769], [139.8245467, 34.9820741], [139.8256668, 34.9830685], [139.8265718, 34.983864], [139.8268943, 34.9841339], [139.8272272, 34.9843356], [139.8276676, 34.9845516], [139.8280352, 34.9846709], [139.8285102, 34.9847618], [139.828857, 34.9847987], [139.829502, 34.9847874], [139.830303, 34.9847362], [139.8323871, 34.9845771], [139.8325258, 34.984543], [139.8326749, 34.9844919], [139.8356745, 34.9832816], [139.8359345, 34.9831594], [139.8363194, 34.9830429], [139.8367615, 34.982911]]]]}}, {"type": "Feature", "properties": {"fid": 8, "name": "航空自衛隊木更津基地", "path": "Z:/全社共有/千葉支店/01　千葉ガイドマップ/千葉ガイドマップ.gpkg|layername=自衛隊施設"}, "geometry": {"type": "MultiPolygon", "coordinates": [[[[139.9258634, 35.4156539], [139.9279442, 35.4149313], [139.9274254, 35.413982], [139.9284562, 35.413652], [139.928293, 35.4133487], [139.9291472, 35.4130668], [139.9288487, 35.4124237], [139.9296674, 35.4121394], [139.9281955, 35.4092319], [139.9279354, 35.4091259], [139.9251395, 35.4100464], [139.9253134, 35.4104269], [139.9251307, 35.4107767], [139.9241273, 35.4111124], [139.9259521, 35.4147458], [139.9258634, 35.4156539]]]]}}, {"type": "Feature", "properties": {"fid": 9, "name": "海上自衛隊下総航空基地", "path": "Z:/全社共有/千葉支店/01　千葉ガイドマップ/千葉ガイドマップ.gpkg|layername=自衛隊施設"}, "geometry": {"type": "MultiPolygon", "coordinates": [[[[140.0100399, 35.7868513], [140.009975, 35.7866672], [140.0100262, 35.7864607], [140.0101053, 35.7863078], [140.0102601, 35.7862018], [140.0136692, 35.7862317], [140.013867, 35.7862778], [140.0142599, 35.7865062], [140.0143737, 35.7865594], [140.0145998, 35.7865644], [140.0145603, 35.7868159], [140.0145119, 35.7870048], [140.0142951, 35.7873852], [140.0141137, 35.7876426], [140.0140236, 35.7879069], [140.014084, 35.7879193], [140.0141177, 35.7880358], [140.0145126, 35.7884012], [140.0146115, 35.788529], [140.0147672, 35.7890748], [140.0148456, 35.7895466], [140.0150652, 35.7902787], [140.015244, 35.7905491], [140.0153904, 35.7908921], [140.0157482, 35.7921518], [140.0154555, 35.7922375], [140.0155785, 35.7928554], [140.0156178, 35.7932082], [140.0162187, 35.7931494], [140.01646, 35.7936178], [140.016261, 35.7937078], [140.0165448, 35.7951309], [140.0164851, 35.7951502], [140.0161755, 35.7951935], [140.0161157, 35.795604], [140.0160516, 35.7956299], [140.0162182, 35.7960941], [140.0188446, 35.7963937], [140.0198888, 35.7965565], [140.0199571, 35.7966224], [140.0202148, 35.7967319], [140.0208345, 35.7967451], [140.0212946, 35.7965337], [140.021704, 35.7965099], [140.021838, 35.7965099], [140.0221778, 35.7965098], [140.0224613, 35.7966727], [140.0228883, 35.7969827], [140.0232706, 35.7972408], [140.023909, 35.7974607], [140.0241628, 35.7976194], [140.024296, 35.7978492], [140.0243864, 35.7979745], [140.0244873, 35.7980318], [140.0247492, 35.7980876], [140.025156, 35.7981693], [140.0252409, 35.7982122], [140.0254891, 35.7983786], [140.0256413, 35.7985891], [140.0257625, 35.7986801], [140.0259132, 35.7987298], [140.0262693, 35.7987864], [140.0264309, 35.7990324], [140.0267933, 35.7993116], [140.0273006, 35.7994855], [140.0276117, 35.7995125], [140.0281311, 35.7996937], [140.0283878, 35.7999043], [140.0289072, 35.8003648], [140.0290763, 35.8010628], [140.0290159, 35.8013788], [140.0290672, 35.8018343], [140.0293541, 35.8026229], [140.0291276, 35.803365], [140.0289283, 35.8034556], [140.0288196, 35.8037544], [140.0264032, 35.8043919], [140.025667, 35.8045775], [140.0255602, 35.8049516], [140.0258037, 35.8050659], [140.0259702, 35.8058036], [140.026235, 35.8058105], [140.0262008, 35.8063993], [140.0254535, 35.8066383], [140.0224341, 35.8066002], [140.0223289, 35.8067359], [140.0222462, 35.8068426], [140.0221437, 35.8068911], [140.021943, 35.8073137], [140.0212042, 35.8075873], [140.0209907, 35.8076011], [140.0208028, 35.8078678], [140.0208113, 35.8082038], [140.0188938, 35.8086817], [140.0187102, 35.8084704], [140.0166389, 35.8090627], [140.0157805, 35.8092047], [140.0151784, 35.8094263], [140.0146403, 35.8094748], [140.0144823, 35.8098904], [140.013799, 35.80988], [140.0136516, 35.8109189], [140.0136666, 35.8109813], [140.0140339, 35.8109432], [140.013967, 35.8118433], [140.0115619, 35.8118101], [140.0097803, 35.8119649], [140.0097333, 35.8118748], [140.0102501, 35.811809], [140.0102928, 35.8110471], [140.0103141, 35.8105242], [140.0101988, 35.8102367], [140.0101701, 35.8101335], [140.0098914, 35.8091527], [140.0097846, 35.8091112], [140.0099768, 35.8089276], [140.0097205, 35.8088445], [140.0103654, 35.8082418], [140.0102245, 35.8081553], [140.0103953, 35.8078574], [140.0100237, 35.8077293], [140.0099853, 35.8071682], [140.0098487, 35.8068115], [140.0095155, 35.8063958], [140.0096052, 35.8047715], [140.0094686, 35.8045844], [140.0077945, 35.8040233], [140.0075639, 35.803386], [140.0084458, 35.8026327], [140.0084415, 35.8025496], [140.0083262, 35.8019452], [140.0089668, 35.8008455], [140.0092486, 35.8004922], [140.0098914, 35.7992088], [140.0098828, 35.7991188], [140.0099816, 35.7989888], [140.0103385, 35.7880874], [140.0103379, 35.7878776], [140.0100399, 35.7868513]]]]}}, {"type": "Feature", "properties": {"fid": 10, "name": "陸上自衛隊習志野駐屯地", "path": "Z:/全社共有/千葉支店/01　千葉ガイドマップ/千葉ガイドマップ.gpkg|layername=自衛隊施設"}, "geometry": {"type": "MultiPolygon", "coordinates": [[[[140.0496981, 35.7112944], [140.0534376, 35.7124561], [140.0540893, 35.7110716], [140.0543167, 35.7107072], [140.0544836, 35.708488], [140.0545158, 35.7079827], [140.0547626, 35.707974], [140.0547999, 35.707558], [140.0546014, 35.7075101], [140.0547784, 35.7058635], [140.0504228, 35.7055919], [140.0503615, 35.7060226], [140.0502876, 35.7068338], [140.0501536, 35.7083495], [140.0501335, 35.7085248], [140.0497867, 35.7088146], [140.0497381, 35.7093252], [140.0497453, 35.7093508], [140.0497644, 35.7093725], [140.0503385, 35.709901], [140.0502484, 35.7109419], [140.0500816, 35.7111125], [140.0496992, 35.7112813], [140.0496981, 35.7112944]]]]}}, {"type": "Feature", "properties": {"fid": 11, "name": "陸上自衛隊習志野演習場", "path": "Z:/全社共有/千葉支店/01　千葉ガイドマップ/千葉ガイドマップ.gpkg|layername=自衛隊施設"}, "geometry": {"type": "MultiPolygon", "coordinates": [[[[140.0577663, 35.7140596], [140.0582242, 35.7096957], [140.0613114, 35.7098998], [140.0613825, 35.7092572], [140.0620192, 35.7093325], [140.0650824, 35.7087817], [140.065762, 35.7088004], [140.0657614, 35.7090577], [140.0683934, 35.7082754], [140.0715061, 35.7074054], [140.0738147, 35.706791], [140.0749052, 35.7065088], [140.076023, 35.7062205], [140.0761364, 35.7061995], [140.0773596, 35.7059103], [140.0775254, 35.7058746], [140.0780063, 35.7057574], [140.078703, 35.7055855], [140.0793874, 35.7054117], [140.0796227, 35.705349], [140.0796751, 35.7053351], [140.0799419, 35.705264], [140.0800293, 35.7052407], [140.0812237, 35.7049226], [140.0812975, 35.7049029], [140.0825866, 35.7045575], [140.0826589, 35.7045382], [140.0832201, 35.7043878], [140.083403, 35.7043388], [140.085074, 35.7038814], [140.0856516, 35.7040284], [140.0862397, 35.7051575], [140.0863255, 35.7058545], [140.0861538, 35.7065166], [140.0862525, 35.7072432], [140.0864113, 35.7077711], [140.0869692, 35.7084332], [140.0870121, 35.7089908], [140.0871538, 35.7097522], [140.0874971, 35.7105536], [140.0880448, 35.7113343], [140.08816, 35.7118222], [140.0881662, 35.7121254], [140.0885042, 35.7126991], [140.0877123, 35.7126734], [140.0871895, 35.7125071], [140.0859017, 35.7125254], [140.0839558, 35.712147], [140.0822406, 35.7115722], [140.0813181, 35.7113189], [140.0811143, 35.7119718], [140.0812244, 35.7120095], [140.081111, 35.7122775], [140.0807995, 35.7120166], [140.0802425, 35.7128849], [140.0796981, 35.713814], [140.0784579, 35.7147045], [140.0773208, 35.7147836], [140.0752052, 35.7148036], [140.0746674, 35.7149255], [140.0739403, 35.7150626], [140.0735817, 35.7152129], [140.0727251, 35.716271], [140.0720325, 35.7169578], [140.0718594, 35.7170914], [140.0716279, 35.7172292], [140.071454, 35.7173021], [140.0707517, 35.7175364], [140.0693703, 35.7180754], [140.0675692, 35.7188327], [140.0673415, 35.7189037], [140.066108, 35.7178862], [140.0655526, 35.7174582], [140.0653146, 35.7172948], [140.0646451, 35.7169441], [140.063231, 35.716211], [140.062869, 35.7160241], [140.0623133, 35.7157494], [140.0617411, 35.7155151], [140.0601869, 35.7149391], [140.0577663, 35.7140596]]]]}}, {"type": "Feature", "properties": {"fid": 12, "name": "陸上自衛隊松戸駐屯地", "path": "Z:/全社共有/千葉支店/01　千葉ガイドマップ/千葉ガイドマップ.gpkg|layername=自衛隊施設"}, "geometry": {"type": "MultiPolygon", "coordinates": [[[[139.9740278, 35.7903024], [139.9739564, 35.7902154], [139.9713, 35.7901721], [139.9713978, 35.7882736], [139.9714824, 35.7848192], [139.9714846, 35.783798], [139.9724937, 35.7838216], [139.9730786, 35.7837109], [139.9760131, 35.7837174], [139.975959, 35.7834841], [139.9759024, 35.7833353], [139.9759116, 35.7832735], [139.9777619, 35.7828654], [139.9783245, 35.7827471], [139.9791363, 35.783067], [139.9788832, 35.7832936], [139.9790344, 35.7838215], [139.9771709, 35.7842455], [139.977636, 35.7856598], [139.9773714, 35.7858105], [139.9766976, 35.7856825], [139.9765224, 35.7857111], [139.9768826, 35.787108], [139.9740278, 35.7903024]]]]}}, {"type": "Feature", "properties": {"fid": 13, "name": "海上自衛隊市原送信所 (Maritime Self-Defense Force Ichihara transmitting station)", "path": "Z:/全社共有/千葉支店/01　千葉ガイドマップ/千葉ガイドマップ.gpkg|layername=自衛隊施設"}, "geometry": {"type": "MultiPolygon", "coordinates": [[[[140.1861912, 35.44662], [140.1860995, 35.4469105], [140.1845207, 35.4466831], [140.1843575, 35.4467432], [140.1843562, 35.4468293], [140.1840099, 35.4468293], [140.1822258, 35.4467972], [140.1820332, 35.446792], [140.1818729, 35.4466604], [140.1818319, 35.4465998], [140.1818198, 35.4464817], [140.1818426, 35.4464029], [140.1819058, 35.4463092], [140.1820424, 35.4461463], [140.1822875, 35.4460869], [140.1833422, 35.44596], [140.1840606, 35.4458879], [140.1843933, 35.4458649], [140.1844358, 35.4457409], [140.1848923, 35.4458303], [140.1848569, 35.4459629], [140.1849348, 35.4459831], [140.1849158, 35.4460644], [140.1860718, 35.4461929], [140.1860562, 35.4464263], [140.1860473, 35.4465188], [140.1860854, 35.4465976], [140.1861912, 35.44662]]]]}}, {"type": "Feature", "properties": {"fid": 14, "name": "陸上自衛隊柏訓練場", "path": "Z:/全社共有/千葉支店/01　千葉ガイドマップ/千葉ガイドマップ.gpkg|layername=自衛隊施設"}, "geometry": {"type": "MultiPolygon", "coordinates": [[[[139.9761432, 35.9029165], [139.9759427, 35.9028798], [139.9755157, 35.9032728], [139.975319, 35.9033733], [139.9748635, 35.9040736], [139.9748629, 35.9041634], [139.9746862, 35.9042253], [139.9703464, 35.9084817], [139.970534, 35.908618], [139.9710128, 35.908466], [139.9716468, 35.9080992], [139.9719703, 35.9080468], [139.9722291, 35.9079577], [139.9725461, 35.9078267], [139.9728136, 35.9079364], [139.9729731, 35.9079734], [139.9730701, 35.9079734], [139.973206, 35.907942], [139.9741635, 35.9076381], [139.9745129, 35.9074913], [139.9748234, 35.9073708], [139.975121, 35.9072503], [139.9752892, 35.9071455], [139.9754769, 35.9069935], [139.9757033, 35.9067315], [139.9758392, 35.9065481], [139.975878, 35.9063804], [139.975988, 35.9056415], [139.9759815, 35.90539], [139.9759556, 35.9051908], [139.9759103, 35.9050808], [139.9757745, 35.9049917], [139.9761432, 35.9029165]]]]}}, {"type": "Feature", "properties": {"fid": 16, "name": "千葉県警察機動隊総合訓練施設 多古訓練場", "path": "Z:/全社共有/千葉支店/01　千葉ガイドマップ/千葉ガイドマップ.gpkg|layername=自衛隊施設"}, "geometry": {"type": "MultiPolygon", "coordinates": [[[[140.4174259, 35.7741132], [140.417492, 35.773279], [140.4171882, 35.7732356], [140.4169266, 35.773239], [140.4167044, 35.7732653], [140.4160363, 35.7734798], [140.4158506, 35.7735848], [140.4149983, 35.7743802], [140.4149715, 35.7744076], [140.4148562, 35.7744803], [140.4142383, 35.774844], [140.4139789, 35.77496], [140.4135822, 35.7750188], [140.4134335, 35.7750513], [140.4125924, 35.7752896], [140.412682, 35.7756362], [140.4126274, 35.7758607], [140.4129749, 35.7760425], [140.4132189, 35.776263], [140.4136176, 35.7763064], [140.4138656, 35.7764625], [140.413931, 35.7764384], [140.413935, 35.7763467], [140.4140223, 35.7761535], [140.4141631, 35.7759781], [140.4142782, 35.775925], [140.4143417, 35.775727], [140.4144647, 35.7756803], [140.4145698, 35.7756015], [140.4149606, 35.7755323], [140.4152741, 35.7755757], [140.4158851, 35.775381], [140.4162481, 35.7753713], [140.416758, 35.7754067], [140.4174039, 35.7751131], [140.4173518, 35.7746435], [140.4174102, 35.7742271], [140.4174259, 35.7741132]]]]}}, {"type": "Feature", "properties": {"fid": 17, "name": "陸上自衛隊下志津駐屯地", "path": "Z:/全社共有/千葉支店/01　千葉ガイドマップ/千葉ガイドマップ.gpkg|layername=自衛隊施設"}, "geometry": {"type": "MultiPolygon", "coordinates": [[[[140.1502084, 35.6572565], [140.1499565, 35.6566249], [140.1524022, 35.6557152], [140.1524429, 35.6556399], [140.1513432, 35.6536111], [140.1529204, 35.6530638], [140.152915, 35.6529766], [140.1527039, 35.6525953], [140.1522659, 35.6515776], [140.152105, 35.6515471], [140.1515388, 35.6501515], [140.1510023, 35.6486738], [140.1506244, 35.6476936], [140.1504337, 35.6477235], [140.1493662, 35.6495805], [140.1491814, 35.6495506], [140.1479288, 35.6470228], [140.1458125, 35.6477372], [140.1461183, 35.6483998], [140.1456202, 35.6485709], [140.1455792, 35.6487691], [140.14398, 35.6493211], [140.1442509, 35.6498083], [140.1421425, 35.6496945], [140.1419311, 35.6513154], [140.1444339, 35.6515079], [140.1443641, 35.6523925], [140.1446669, 35.6524182], [140.1445787, 35.6532861], [140.1450089, 35.6533164], [140.1449421, 35.65412], [140.1467001, 35.654262], [140.1478027, 35.655143], [140.1481675, 35.6553217], [140.1502084, 35.6572565]]]]}}, {"type": "Feature", "properties": {"fid": 18, "name": "航空自衛隊峯岡山分屯基地", "path": "Z:/全社共有/千葉支店/01　千葉ガイドマップ/千葉ガイドマップ.gpkg|layername=自衛隊施設"}, "geometry": {"type": "MultiPolygon", "coordinates": [[[[139.9805885, 35.1154943], [139.9805725, 35.1151038], [139.9806476, 35.1149063], [139.9808514, 35.1148493], [139.9811357, 35.1148273], [139.9813932, 35.1137566], [139.981581, 35.113151], [139.9817043, 35.1131554], [139.9825895, 35.1136688], [139.9830615, 35.1140682], [139.9833995, 35.1144236], [139.9834102, 35.1147439], [139.9835819, 35.114937], [139.9837857, 35.1150511], [139.9840647, 35.1150379], [139.9843597, 35.1150994], [139.9845529, 35.1148712], [139.9847889, 35.1144982], [139.9850678, 35.1147001], [139.9851161, 35.1149063], [139.9853253, 35.1152135], [139.985556, 35.1152091], [139.9856472, 35.1150906], [139.9859047, 35.1150204], [139.9860978, 35.1148229], [139.9862963, 35.1144061], [139.9865645, 35.113919], [139.9869722, 35.1135811], [139.987101, 35.1128526], [139.9872351, 35.1126069], [139.9874282, 35.1124182], [139.987632, 35.1123129], [139.9879968, 35.1122032], [139.9882489, 35.1122032], [139.9885118, 35.1122602], [139.9886727, 35.1123919], [139.9891233, 35.1121418], [139.9894988, 35.1119399], [139.989633, 35.1119662], [139.9899173, 35.1122822], [139.9900943, 35.1125279], [139.9902391, 35.1124402], [139.990561, 35.1125586], [139.9906522, 35.1126288], [139.9902284, 35.1131862], [139.9900514, 35.1133222], [139.9895364, 35.1133748], [139.9889678, 35.1133748], [139.9887049, 35.1134494], [139.9888015, 35.1139102], [139.9886137, 35.114055], [139.9882758, 35.1141384], [139.9877232, 35.1140945], [139.9872673, 35.1141998], [139.9870634, 35.1143271], [139.9869186, 35.1145377], [139.9868596, 35.1147922], [139.9870259, 35.1153144], [139.9870044, 35.1155426], [139.9868113, 35.1158234], [139.986484, 35.1160779], [139.9859101, 35.1162271], [139.9852985, 35.116271], [139.9838716, 35.1158322], [139.9831527, 35.1156259], [139.9825144, 35.1152749], [139.9822891, 35.1152486], [139.9818438, 35.1153627], [139.9805885, 35.1154943]]]]}}, {"type": "Feature", "properties": {"fid": 19, "name": "海上自衛隊飯岡受信所", "path": null}, "geometry": {"type": "MultiPolygon", "coordinates": [[[[140.7116254, 35.7313948], [140.7121005, 35.7310256], [140.7123027, 35.730845], [140.7124038, 35.7303855], [140.7124543, 35.7299835], [140.7124038, 35.7295404], [140.7122319, 35.7291055], [140.7122117, 35.7287936], [140.7123633, 35.7282685], [140.7123735, 35.7280223], [140.7119287, 35.727333], [140.7117973, 35.7271443], [140.7115951, 35.726775], [140.7113626, 35.726455], [140.7112616, 35.7260119], [140.7111807, 35.7254785], [140.7112514, 35.7248958], [140.7110493, 35.7247645], [140.7105641, 35.7247563], [140.7103013, 35.7246496], [140.7100385, 35.7241491], [140.7096038, 35.7244363], [140.7086435, 35.72506], [140.7085829, 35.7248466], [140.7076529, 35.7253882], [140.7066927, 35.7258231], [140.7071273, 35.7263811], [140.7072284, 35.7271689], [140.7075417, 35.7273084], [140.7076934, 35.727653], [140.7081482, 35.7280551], [140.7083706, 35.7281454], [140.7085728, 35.7289085], [140.7088154, 35.7290562], [140.7091591, 35.7291629], [140.7094219, 35.7295075], [140.7100284, 35.7296881], [140.7103518, 35.7302707], [140.710645, 35.7305907], [140.7107764, 35.7309845], [140.7112413, 35.7313292], [140.7116254, 35.7313948]]]]}}]}