{"type": "FeatureCollection", "name": "重要施設半径一キロ", "features": [{"type": "Feature", "properties": {"fid": 1, "full_id": "r3182579", "osm_id": "3182579", "osm_type": "relation", "aeroway": "aerodrome", "source:ja": null, "military": null, "landuse": null, "wikipedia": "ja:成田国際空港", "wikidata": "Q36454", "website:ja": "https://www.narita-airport.jp/", "website:en": "https://www.narita-airport.jp/en/", "website": "https://www.narita-airport.jp/", "type": "multipolygon", "target:ja": "東京", "target:iata": "TYO", "target:en": "Tokyo", "target": "東京", "short_name:ja-Hira": "なりたくうこう", "short_name:en": "Narita Airport", "short_name": "成田空港", "service_times": "06:00-00:00", "ref": "NRT", "phone": "+81-476-34-8000", "passengers": "64211074", "passenger": "international", "owner:wikidata": "Q6965987", "owner:ja": "成田国際空港株式会社", "owner:en": "Narita International Airport Corporation", "owner": "成田国際空港株式会社", "operator:wikidata": "Q6965987", "operator:ja": "成田国際空港株式会社", "operator:en": "Narita International Airport Corporation", "operator": "成田国際空港株式会社", "opening_hours": "24/7", "old_name:ja": "新東京国際空港", "old_name:en": "New Tokyo International Airport", "old_name": "新東京国際空港", "name:zh-Hant-TW": "成田國際機場", "name:zh-Hant-HK": "成田國際機場", "name:zh-Hant": "成田國際機場", "name:zh-Hans": "成田国际机场", "name:zh": "成田國際機場", "name:yue": "成田國際機場", "name:th": "สนามบินนานาชาตินาริตะ", "name:ru": "Международный аэропорт Нарита", "name:ko": "나리타국제공항", "name:ja-Latn": "Narita kokusai kūkō", "name:ja-Hira": "なりたこくさいくうこう", "name:ja": "成田国際空港", "name:it": "Aeroporto internazionale di Narita", "name:fr": "Aéroport International de Narita", "name:es": "Aeropuerto Internacional de Narita", "name:en": "Narita International Airport", "name:cmn": "成田國際機場", "name": "成田国際空港", "int_name:en": "Tokyo Narita Airport", "int_name": "Tokyo Narita Airport", "importance": "international", "icao": "RJAA", "iata": "NRT", "ele": "43", "contact:website:ja": "https://www.narita-airport.jp/ja/inquiry/contact/", "contact:website:en": "https://www.narita-airport.jp/en/inquiry/contact/", "contact:website": "https://www.narita-airport.jp/en/inquiry/contact/", "contact:url:ja": "https://www.narita-airport.jp/ja/bf", "contact:url:en": "https://www.narita-airport.jp/en/bf", "contact:url": "https://www.narita-airport.jp/en/bf", "contact:phone": "+81-0476-34-8000", "city_served": "Tokyo", "cargo": "international", "alt_name:zh-Hant": "東京成田國際機場;成田機場", "alt_name:zh-Hans": "东京成田国际机场;成田机场", "aerodrome": "international", "addr:quarter": "古込", "addr:province": "千葉県", "addr:neighbourhood": "1", "addr:country": "JP", "addr:city": "成田市", "addr:block_number": "1", "access": "yes", "building": null, "addr:housename": null, "source:name": null, "source:geometry": null, "layer": "空港半径１キロ", "path": "Z:/全社共有/千葉支店/01　千葉ガイドマップ/千葉ガイドマップ.gpkg|layername=空港半径１キロ"}, "geometry": {"type": "MultiPolygon", "coordinates": [[[[140.3731276, 35.7847443], [140.3753818, 35.7836523], [140.3756844, 35.7840217], [140.37565, 35.7840418], [140.3765356, 35.7850354], [140.3765632, 35.7851187], [140.3766942, 35.7854775], [140.3768641, 35.7859025], [140.3770616, 35.7861919], [140.377067, 35.7863902], [140.3770978, 35.7865038], [140.3771148, 35.7866534], [140.3770951, 35.7866804], [140.3770806, 35.7867003], [140.3760539, 35.7881173], [140.3760162, 35.7881697], [140.3747585, 35.789939], [140.3746902, 35.7900368], [140.3741069, 35.7908875], [140.3734643, 35.7917878], [140.3730184, 35.7924019], [140.3726035, 35.7926282], [140.3725021, 35.7926992], [140.3709397, 35.7941225], [140.3708014, 35.794346], [140.3706381, 35.7944917], [140.370586, 35.79456], [140.3704867, 35.7946933], [140.3694435, 35.7961285], [140.3679977, 35.7975043], [140.3669254, 35.7996031], [140.3667329, 35.8015574], [140.3664519, 35.8019553], [140.3655075, 35.8038897], [140.3652758, 35.8059617], [140.3655524, 35.8070911], [140.3653976, 35.8073088], [140.3653961, 35.8073108], [140.3650963, 35.8076851], [140.364519, 35.8084877], [140.3632785, 35.8095479], [140.3620343, 35.8118731], [140.3620193, 35.811924], [140.3620161, 35.8122324], [140.3618384, 35.8126214], [140.3618115, 35.8127256], [140.3616344, 35.8146184], [140.3619655, 35.8160479], [140.361924, 35.8160559], [140.3620585, 35.8165091], [140.3633452, 35.8188784], [140.3655726, 35.8207331], [140.3656144, 35.8207573], [140.3677159, 35.8216602], [140.370036, 35.8220843], [140.372412, 35.8219999], [140.3736851, 35.8218157], [140.3760654, 35.8211837], [140.378138, 35.8200434], [140.3781655, 35.8200232], [140.3798909, 35.8182994], [140.3801558, 35.817755], [140.380225, 35.8176816], [140.3804442, 35.8172146], [140.3810073, 35.8166657], [140.3814781, 35.8160231], [140.3817628, 35.8156038], [140.3819041, 35.8153785], [140.3821711, 35.8150865], [140.382378, 35.8147985], [140.3849296, 35.8142175], [140.3872497, 35.8129722], [140.3889887, 35.8112108], [140.3892846, 35.8107913], [140.3893877, 35.8107514], [140.389481, 35.8107011], [140.3915921, 35.8091139], [140.3919235, 35.8086236], [140.3941007, 35.8073562], [140.3955072, 35.8056968], [140.3958114, 35.8053973], [140.3960748, 35.8051221], [140.3966116, 35.8044962], [140.3967517, 35.8043131], [140.3974012, 35.8032927], [140.3979659, 35.8022022], [140.3982213, 35.8016468], [140.3985554, 35.8008188], [140.3987692, 35.8001968], [140.3987965, 35.8001012], [140.3990027, 35.7990052], [140.3990124, 35.7989009], [140.3990133, 35.798036], [140.4030353, 35.7925567], [140.4030948, 35.792514], [140.4034986, 35.7921168], [140.4037083, 35.7918311], [140.4038745, 35.7916523], [140.403928, 35.7915316], [140.4048964, 35.7902119], [140.405171, 35.789267], [140.4051983, 35.7892094], [140.4062162, 35.7887449], [140.406567, 35.7885507], [140.4077687, 35.7877538], [140.4079877, 35.7875809], [140.4093148, 35.7862536], [140.4094941, 35.7860236], [140.4098697, 35.7854938], [140.4099978, 35.7852943], [140.4104878, 35.7843843], [140.4105878, 35.7841576], [140.4110403, 35.7826281], [140.4110622, 35.7824894], [140.4109985, 35.7810444], [140.411035, 35.7808965], [140.4110648, 35.780895], [140.4110578, 35.7808044], [140.4110801, 35.7807141], [140.4111075, 35.780343], [140.4111147, 35.7795833], [140.4110843, 35.7790294], [140.4120304, 35.7771297], [140.4121709, 35.7754197], [140.4127634, 35.7744031], [140.412817, 35.7742791], [140.4128241, 35.7742489], [140.4131418, 35.7737499], [140.4140366, 35.7715283], [140.4140186, 35.7691911], [140.4130898, 35.7669786], [140.4129691, 35.7667947], [140.4125388, 35.7662073], [140.4107739, 35.7640362], [140.4090209, 35.7624467], [140.4067759, 35.7613369], [140.4056456, 35.7610993], [140.4056452, 35.7610986], [140.4050813, 35.7601624], [140.4049904, 35.7600354], [140.4049569, 35.759989], [140.4048193, 35.7598], [140.4050297, 35.7596925], [140.4059481, 35.7591553], [140.4061224, 35.7590391], [140.4069174, 35.7584403], [140.4070567, 35.7583219], [140.407784, 35.7576204], [140.4079022, 35.7574906], [140.4083274, 35.7569798], [140.4084242, 35.7568522], [140.4090081, 35.7559456], [140.4090817, 35.7558087], [140.4094681, 35.7549454], [140.4095255, 35.7547866], [140.4097708, 35.7539119], [140.409788, 35.7538266], [140.4098725, 35.7532775], [140.4098845, 35.7531649], [140.4099067, 35.7528998], [140.4099162, 35.7527452], [140.4099088, 35.751913], [140.4098996, 35.7517972], [140.4098404, 35.7513088], [140.4098213, 35.7511918], [140.4097891, 35.7510628], [140.4103539, 35.7502937], [140.4104706, 35.75013], [140.4111228, 35.749187], [140.4114225, 35.7487142], [140.411493, 35.7485922], [140.4118066, 35.7479782], [140.4118707, 35.7478345], [140.4120785, 35.7473068], [140.4121293, 35.7471586], [140.4123729, 35.7462051], [140.412403, 35.7460288], [140.412479, 35.7453551], [140.4124868, 35.7452141], [140.4124874, 35.7445708], [140.412479, 35.7444138], [140.4123417, 35.7434218], [140.4120054, 35.7419253], [140.4118999, 35.7415213], [140.411673, 35.7407591], [140.4115231, 35.740317], [140.4113491, 35.7398604], [140.4108043, 35.738758], [140.4105427, 35.7383327], [140.4099911, 35.7375586], [140.4094334, 35.7368763], [140.407432, 35.7351322], [140.4048447, 35.7340052], [140.4029089, 35.7337449], [140.4018454, 35.7324174], [140.3996864, 35.7309912], [140.3989729, 35.7306538], [140.3963496, 35.7298272], [140.3935401, 35.7297001], [140.3908199, 35.7302847], [140.388456, 35.7315239], [140.3880322, 35.7319468], [140.387498, 35.7319656], [140.3870879, 35.7320096], [140.385296, 35.7323565], [140.3848369, 35.732487], [140.3839137, 35.7327973], [140.3835803, 35.7329274], [140.3807974, 35.7346195], [140.3805137, 35.7348753], [140.3793943, 35.7361302], [140.3789447, 35.7367672], [140.3779656, 35.7388264], [140.3778063, 35.7408312], [140.3774168, 35.7410376], [140.3764338, 35.7420284], [140.3763636, 35.742041], [140.3738387, 35.7432958], [140.3719535, 35.7451485], [140.3689353, 35.7493795], [140.366682, 35.7525381], [140.3666767, 35.752549], [140.3665983, 35.7526247], [140.3662789, 35.7530706], [140.3662374, 35.7531291], [140.3647323, 35.7552759], [140.3639424, 35.7563649], [140.3631186, 35.7574745], [140.3620866, 35.7595066], [140.3618478, 35.7616958], [140.3620444, 35.7624284], [140.3620267, 35.7624476], [140.3617566, 35.7628719], [140.3605234, 35.7640266], [140.3601318, 35.7645529], [140.3591885, 35.7666399], [140.3588684, 35.7671058], [140.3587801, 35.7672849], [140.357762, 35.7685711], [140.3577098, 35.7687344], [140.357462, 35.7690462], [140.3572117, 35.7693251], [140.3571844, 35.7693952], [140.3570331, 35.7695856], [140.357016, 35.7695776], [140.3568094, 35.769867], [140.3564862, 35.7702735], [140.3564647, 35.7703496], [140.3564581, 35.7703589], [140.3561466, 35.7710021], [140.3557078, 35.7716369], [140.3548017, 35.7735219], [140.3545693, 35.7755364], [140.3548653, 35.7768181], [140.3540622, 35.7780628], [140.353666, 35.7789404], [140.3532905, 35.7804744], [140.352953, 35.7815834], [140.3529366, 35.7820308], [140.3532253, 35.7840924], [140.3533503, 35.784333], [140.3534027, 35.7846852], [140.35416, 35.7858917], [140.3542185, 35.7860043], [140.3542509, 35.7860365], [140.3548251, 35.7869515], [140.357121, 35.7886833], [140.357406, 35.7888327], [140.3580853, 35.7891554], [140.3583415, 35.7892652], [140.361072, 35.7900114], [140.3614127, 35.7900122], [140.3633991, 35.7902375], [140.3658505, 35.7899625], [140.3681165, 35.7891553], [140.3688543, 35.7887868], [140.371334, 35.7869502], [140.3716116, 35.7866495], [140.3722417, 35.7858669], [140.372451, 35.7855666], [140.3725684, 35.7853126], [140.3725797, 35.7852971], [140.3731105, 35.7847676], [140.3731276, 35.7847443]]]]}}, {"type": "Feature", "properties": {"fid": 2, "full_id": "w55683493", "osm_id": "55683493", "osm_type": "way", "aeroway": "aerodrome", "source:ja": "国土画像情報(オルソ化空中写真)国土計画局", "military": "airfield", "landuse": "military", "wikipedia": "ja:木更津駐屯地", "wikidata": "Q3245032", "website:ja": null, "website:en": null, "website": null, "type": null, "target:ja": null, "target:iata": null, "target:en": null, "target": null, "short_name:ja-Hira": null, "short_name:en": null, "short_name": null, "service_times": null, "ref": null, "phone": null, "passengers": null, "passenger": null, "owner:wikidata": null, "owner:ja": null, "owner:en": null, "owner": null, "operator:wikidata": null, "operator:ja": null, "operator:en": null, "operator": null, "opening_hours": null, "old_name:ja": null, "old_name:en": null, "old_name": null, "name:zh-Hant-TW": null, "name:zh-Hant-HK": null, "name:zh-Hant": null, "name:zh-Hans": null, "name:zh": null, "name:yue": null, "name:th": null, "name:ru": null, "name:ko": null, "name:ja-Latn": null, "name:ja-Hira": null, "name:ja": null, "name:it": null, "name:fr": null, "name:es": null, "name:en": null, "name:cmn": null, "name": "陸上自衛隊木更津駐屯地", "int_name:en": null, "int_name": "Kisarazu Air Field", "importance": null, "icao": "RJTK", "iata": null, "ele": "3", "contact:website:ja": null, "contact:website:en": null, "contact:website": null, "contact:url:ja": null, "contact:url:en": null, "contact:url": null, "contact:phone": null, "city_served": null, "cargo": null, "alt_name:zh-Hant": null, "alt_name:zh-Hans": null, "aerodrome": null, "addr:quarter": null, "addr:province": null, "addr:neighbourhood": null, "addr:country": null, "addr:city": null, "addr:block_number": null, "access": null, "building": null, "addr:housename": null, "source:name": null, "source:geometry": null, "layer": "空港半径１キロ", "path": "Z:/全社共有/千葉支店/01　千葉ガイドマップ/千葉ガイドマップ.gpkg|layername=空港半径１キロ"}, "geometry": {"type": "MultiPolygon", "coordinates": [[[[139.8936876, 35.4014136], [139.893673, 35.4015143], [139.8935275, 35.4039668], [139.8941073, 35.4069309], [139.8942213, 35.4071744], [139.8954766, 35.4090099], [139.8973199, 35.4104791], [139.8995992, 35.411461], [139.9032469, 35.4125202], [139.9097534, 35.4144859], [139.9123964, 35.414932], [139.9150827, 35.414718], [139.9151771, 35.4146985], [139.9179072, 35.4137181], [139.9190765, 35.4128327], [139.9205857, 35.4126819], [139.9229498, 35.4118446], [139.9249249, 35.4104946], [139.9249856, 35.4104392], [139.9268336, 35.4078129], [139.9275997, 35.4058799], [139.9280342, 35.403696], [139.9276486, 35.401506], [139.9264781, 35.3995098], [139.9261064, 35.3991839], [139.926203, 35.3990524], [139.9262533, 35.398983], [139.9264195, 35.3987509], [139.9265458, 35.3985685], [139.9269346, 35.397988], [139.9273856, 35.3972089], [139.9276793, 35.3966131], [139.9283237, 35.3940808], [139.9279325, 35.3919778], [139.928002, 35.3919634], [139.9279396, 35.3917634], [139.9277982, 35.3913591], [139.9277357, 35.391198], [139.9273177, 35.3903214], [139.9272477, 35.3901986], [139.9271186, 35.3900306], [139.927214, 35.38905], [139.9261365, 35.3863354], [139.9260087, 35.3861486], [139.923945, 35.3841116], [139.9229204, 35.3836359], [139.9227032, 35.3834554], [139.9216964, 35.3830675], [139.921129, 35.3828041], [139.9207799, 35.3827046], [139.920729, 35.3826902], [139.9206848, 35.3826778], [139.919847, 35.3823551], [139.9171395, 35.3817568], [139.9147832, 35.3815018], [139.9124272, 35.3817597], [139.9120447, 35.3818447], [139.9099169, 35.3826469], [139.9096457, 35.3825665], [139.9068361, 35.3821279], [139.9039998, 35.3824318], [139.9014245, 35.3834472], [139.8993713, 35.3850712], [139.898822, 35.38593], [139.8984147, 35.3862967], [139.8982389, 35.3865175], [139.8969348, 35.3891985], [139.8968956, 35.3893748], [139.8968273, 35.3898743], [139.8960948, 35.3917853], [139.8959989, 35.3920294], [139.895492, 35.3930791], [139.8953867, 35.3933082], [139.8937458, 35.39707], [139.8932322, 35.3997804], [139.8936876, 35.4014136]]]]}}, {"type": "Feature", "properties": {"fid": 3, "full_id": "w1137015607", "osm_id": "1137015607", "osm_type": "way", "aeroway": "aerodrome", "source:ja": null, "military": null, "landuse": null, "wikipedia": null, "wikidata": null, "website:ja": null, "website:en": null, "website": null, "type": null, "target:ja": null, "target:iata": null, "target:en": null, "target": null, "short_name:ja-Hira": null, "short_name:en": null, "short_name": null, "service_times": null, "ref": null, "phone": null, "passengers": null, "passenger": null, "owner:wikidata": null, "owner:ja": null, "owner:en": null, "owner": null, "operator:wikidata": null, "operator:ja": null, "operator:en": null, "operator": "美樹観光", "opening_hours": null, "old_name:ja": null, "old_name:en": null, "old_name": null, "name:zh-Hant-TW": null, "name:zh-Hant-HK": null, "name:zh-Hant": null, "name:zh-Hans": null, "name:zh": null, "name:yue": null, "name:th": null, "name:ru": null, "name:ko": null, "name:ja-Latn": null, "name:ja-Hira": null, "name:ja": null, "name:it": null, "name:fr": null, "name:es": null, "name:en": null, "name:cmn": null, "name": "美樹ヘリポート", "int_name:en": null, "int_name": null, "importance": null, "icao": null, "iata": null, "ele": null, "contact:website:ja": null, "contact:website:en": null, "contact:website": null, "contact:url:ja": null, "contact:url:en": null, "contact:url": null, "contact:phone": null, "city_served": null, "cargo": null, "alt_name:zh-Hant": null, "alt_name:zh-Hans": null, "aerodrome": null, "addr:quarter": null, "addr:province": null, "addr:neighbourhood": null, "addr:country": null, "addr:city": null, "addr:block_number": null, "access": "private", "building": null, "addr:housename": null, "source:name": null, "source:geometry": null, "layer": "空港半径１キロ", "path": "Z:/全社共有/千葉支店/01　千葉ガイドマップ/千葉ガイドマップ.gpkg|layername=空港半径１キロ"}, "geometry": {"type": "MultiPolygon", "coordinates": [[[[140.2783464, 35.5618086], [140.2783344, 35.5617258], [140.2772058, 35.5618341], [140.2745207, 35.5624463], [140.2721958, 35.5636988], [140.270455, 35.5654709], [140.2694662, 35.5675918], [140.2693246, 35.5698571], [140.2693747, 35.5702437], [140.2700676, 35.5723863], [140.2715181, 35.5742615], [140.2735929, 35.5756968], [140.2761012, 35.5765604], [140.2788124, 35.5767729], [140.2793636, 35.5767477], [140.2796446, 35.5767312], [140.2799767, 35.5767075], [140.2808511, 35.5766097], [140.2811742, 35.5765603], [140.2814712, 35.5765107], [140.2815891, 35.5764893], [140.2843236, 35.5755894], [140.2865522, 35.5740175], [140.2880348, 35.5719432], [140.2886112, 35.56959], [140.2883251, 35.5678527], [140.2883742, 35.5678461], [140.2883631, 35.5677914], [140.2882806, 35.5675828], [140.2882195, 35.5672118], [140.2880979, 35.5668899], [140.2880149, 35.5669106], [140.2875539, 35.565745], [140.2875423, 35.5657259], [140.2857619, 35.5637322], [140.2832681, 35.5623333], [140.2803445, 35.5616882], [140.2783464, 35.5618086]]]]}}, {"type": "Feature", "properties": {"fid": 4, "full_id": "w1137019248", "osm_id": "1137019248", "osm_type": "way", "aeroway": "aerodrome", "source:ja": null, "military": null, "landuse": null, "wikipedia": null, "wikidata": null, "website:ja": null, "website:en": null, "website": null, "type": null, "target:ja": null, "target:iata": null, "target:en": null, "target": null, "short_name:ja-Hira": null, "short_name:en": null, "short_name": null, "service_times": null, "ref": null, "phone": null, "passengers": null, "passenger": null, "owner:wikidata": null, "owner:ja": null, "owner:en": null, "owner": null, "operator:wikidata": null, "operator:ja": null, "operator:en": null, "operator": "エクセル航空", "opening_hours": null, "old_name:ja": null, "old_name:en": null, "old_name": null, "name:zh-Hant-TW": null, "name:zh-Hant-HK": null, "name:zh-Hant": null, "name:zh-Hans": null, "name:zh": null, "name:yue": null, "name:th": null, "name:ru": null, "name:ko": null, "name:ja-Latn": null, "name:ja-Hira": null, "name:ja": null, "name:it": null, "name:fr": null, "name:es": null, "name:en": "Urayasu Heliport", "name:cmn": null, "name": "浦安へリポート", "int_name:en": null, "int_name": null, "importance": null, "icao": null, "iata": null, "ele": null, "contact:website:ja": null, "contact:website:en": null, "contact:website": null, "contact:url:ja": null, "contact:url:en": null, "contact:url": null, "contact:phone": null, "city_served": null, "cargo": null, "alt_name:zh-Hant": null, "alt_name:zh-Hans": null, "aerodrome": null, "addr:quarter": null, "addr:province": null, "addr:neighbourhood": null, "addr:country": null, "addr:city": null, "addr:block_number": null, "access": "private", "building": null, "addr:housename": null, "source:name": null, "source:geometry": null, "layer": "空港半径１キロ", "path": "Z:/全社共有/千葉支店/01　千葉ガイドマップ/千葉ガイドマップ.gpkg|layername=空港半径１キロ"}, "geometry": {"type": "MultiPolygon", "coordinates": [[[[139.8857342, 35.6214338], [139.8852427, 35.6228005], [139.8848856, 35.6250624], [139.8854044, 35.6273036], [139.8867484, 35.6293053], [139.8887865, 35.6308723], [139.89132, 35.6318519], [139.8921496, 35.6320511], [139.894948, 35.6323473], [139.8977214, 35.6319232], [139.9001961, 35.6308207], [139.9021278, 35.6291486], [139.903326, 35.6270718], [139.9038111, 35.6257044], [139.9041581, 35.6234459], [139.9036328, 35.6212102], [139.9022862, 35.6192146], [139.9002492, 35.6176528], [139.8977196, 35.6166768], [139.8971769, 35.6165468], [139.8969544, 35.6164924], [139.8969127, 35.6164823], [139.8969002, 35.6164793], [139.8941085, 35.6161832], [139.8913412, 35.6166041], [139.8888701, 35.6177006], [139.8869378, 35.619365], [139.8857342, 35.6214338]]]]}}, {"type": "Feature", "properties": {"fid": 5, "full_id": "w55683493", "osm_id": "55683493", "osm_type": "way", "aeroway": "aerodrome", "source:ja": "国土画像情報(オルソ化空中写真)国土計画局", "military": "airfield", "landuse": "military", "wikipedia": "ja:木更津駐屯地", "wikidata": "Q3245032", "website:ja": null, "website:en": null, "website": null, "type": null, "target:ja": null, "target:iata": null, "target:en": null, "target": null, "short_name:ja-Hira": null, "short_name:en": null, "short_name": null, "service_times": null, "ref": null, "phone": null, "passengers": null, "passenger": null, "owner:wikidata": null, "owner:ja": null, "owner:en": null, "owner": null, "operator:wikidata": null, "operator:ja": null, "operator:en": null, "operator": null, "opening_hours": null, "old_name:ja": null, "old_name:en": null, "old_name": null, "name:zh-Hant-TW": null, "name:zh-Hant-HK": null, "name:zh-Hant": null, "name:zh-Hans": null, "name:zh": null, "name:yue": null, "name:th": null, "name:ru": null, "name:ko": null, "name:ja-Latn": null, "name:ja-Hira": null, "name:ja": null, "name:it": null, "name:fr": null, "name:es": null, "name:en": null, "name:cmn": null, "name": "陸上自衛隊木更津駐屯地", "int_name:en": null, "int_name": "Kisarazu Air Field", "importance": null, "icao": "RJTK", "iata": null, "ele": "3", "contact:website:ja": null, "contact:website:en": null, "contact:website": null, "contact:url:ja": null, "contact:url:en": null, "contact:url": null, "contact:phone": null, "city_served": null, "cargo": null, "alt_name:zh-Hant": null, "alt_name:zh-Hans": null, "aerodrome": null, "addr:quarter": null, "addr:province": null, "addr:neighbourhood": null, "addr:country": null, "addr:city": null, "addr:block_number": null, "access": null, "building": null, "addr:housename": null, "source:name": null, "source:geometry": null, "layer": "自衛隊施設半径１キロ", "path": "Z:/全社共有/千葉支店/01　千葉ガイドマップ/千葉ガイドマップ.gpkg|layername=自衛隊施設半径１キロ"}, "geometry": {"type": "MultiPolygon", "coordinates": [[[[139.8936876, 35.4014136], [139.893673, 35.4015143], [139.8935275, 35.4039668], [139.8941073, 35.4069309], [139.8942213, 35.4071744], [139.8954766, 35.4090099], [139.8973199, 35.4104791], [139.8995992, 35.411461], [139.9032469, 35.4125202], [139.9097534, 35.4144859], [139.9123964, 35.414932], [139.9150827, 35.414718], [139.9151771, 35.4146985], [139.9179072, 35.4137181], [139.9190765, 35.4128327], [139.9205857, 35.4126819], [139.9229498, 35.4118446], [139.9249249, 35.4104946], [139.9249856, 35.4104392], [139.9268336, 35.4078129], [139.9275997, 35.4058799], [139.9280342, 35.403696], [139.9276486, 35.401506], [139.9264781, 35.3995098], [139.9261064, 35.3991839], [139.926203, 35.3990524], [139.9262533, 35.398983], [139.9264195, 35.3987509], [139.9265458, 35.3985685], [139.9269346, 35.397988], [139.9273856, 35.3972089], [139.9276793, 35.3966131], [139.9283237, 35.3940808], [139.9279325, 35.3919778], [139.928002, 35.3919634], [139.9279396, 35.3917634], [139.9277982, 35.3913591], [139.9277357, 35.391198], [139.9273177, 35.3903214], [139.9272477, 35.3901986], [139.9271186, 35.3900306], [139.927214, 35.38905], [139.9261365, 35.3863354], [139.9260087, 35.3861486], [139.923945, 35.3841116], [139.9229204, 35.3836359], [139.9227032, 35.3834554], [139.9216964, 35.3830675], [139.921129, 35.3828041], [139.9207799, 35.3827046], [139.920729, 35.3826902], [139.9206848, 35.3826778], [139.919847, 35.3823551], [139.9171395, 35.3817568], [139.9147832, 35.3815018], [139.9124272, 35.3817597], [139.9120447, 35.3818447], [139.9099169, 35.3826469], [139.9096457, 35.3825665], [139.9068361, 35.3821279], [139.9039998, 35.3824318], [139.9014245, 35.3834472], [139.8993713, 35.3850712], [139.898822, 35.38593], [139.8984147, 35.3862967], [139.8982389, 35.3865175], [139.8969348, 35.3891985], [139.8968956, 35.3893748], [139.8968273, 35.3898743], [139.8960948, 35.3917853], [139.8959989, 35.3920294], [139.895492, 35.3930791], [139.8953867, 35.3933082], [139.8937458, 35.39707], [139.8932322, 35.3997804], [139.8936876, 35.4014136]]]]}}, {"type": "Feature", "properties": {"fid": 6, "full_id": "w163593448", "osm_id": "163593448", "osm_type": "way", "aeroway": null, "source:ja": null, "military": "communication", "landuse": "military", "wikipedia": null, "wikidata": null, "website:ja": null, "website:en": null, "website": null, "type": null, "target:ja": null, "target:iata": null, "target:en": null, "target": null, "short_name:ja-Hira": null, "short_name:en": null, "short_name": null, "service_times": null, "ref": null, "phone": null, "passengers": null, "passenger": null, "owner:wikidata": null, "owner:ja": null, "owner:en": null, "owner": null, "operator:wikidata": null, "operator:ja": null, "operator:en": null, "operator": "航空システム通信隊", "opening_hours": null, "old_name:ja": null, "old_name:en": null, "old_name": null, "name:zh-Hant-TW": null, "name:zh-Hant-HK": null, "name:zh-Hant": null, "name:zh-Hans": null, "name:zh": null, "name:yue": null, "name:th": null, "name:ru": null, "name:ko": null, "name:ja-Latn": null, "name:ja-Hira": null, "name:ja": null, "name:it": null, "name:fr": null, "name:es": null, "name:en": null, "name:cmn": null, "name": "航空自衛隊 柏送信所", "int_name:en": null, "int_name": null, "importance": null, "icao": null, "iata": null, "ele": null, "contact:website:ja": null, "contact:website:en": null, "contact:website": null, "contact:url:ja": null, "contact:url:en": null, "contact:url": null, "contact:phone": null, "city_served": null, "cargo": null, "alt_name:zh-Hant": null, "alt_name:zh-Hans": null, "aerodrome": null, "addr:quarter": null, "addr:province": null, "addr:neighbourhood": null, "addr:country": null, "addr:city": null, "addr:block_number": null, "access": null, "building": null, "addr:housename": null, "source:name": "survey", "source:geometry": "bing", "layer": "自衛隊施設半径１キロ", "path": "Z:/全社共有/千葉支店/01　千葉ガイドマップ/千葉ガイドマップ.gpkg|layername=自衛隊施設半径１キロ"}, "geometry": {"type": "MultiPolygon", "coordinates": [[[[139.9281475, 35.8850184], [139.9281344, 35.8850329], [139.9272626, 35.8873987], [139.9274171, 35.8898644], [139.927645, 35.8906854], [139.9277451, 35.8910544], [139.9279055, 35.8917004], [139.9287569, 35.8936457], [139.9302483, 35.895319], [139.9322596, 35.8965859], [139.9323061, 35.8966074], [139.9354228, 35.8974834], [139.9387196, 35.8973888], [139.9420164, 35.8967915], [139.944939, 35.8957978], [139.9472536, 35.8940437], [139.9486722, 35.8917475], [139.9486857, 35.8917104], [139.9490478, 35.8898816], [139.9488284, 35.888038], [139.9483857, 35.8864615], [139.9473051, 35.884299], [139.9454355, 35.8825246], [139.9453397, 35.8824588], [139.9433784, 35.8814336], [139.9411573, 35.8808525], [139.9411211, 35.8808471], [139.9402413, 35.8807519], [139.9400682, 35.8807402], [139.9394536, 35.8807158], [139.936495, 35.8806805], [139.9339041, 35.8809576], [139.9315213, 35.8818272], [139.9295483, 35.8832157], [139.928152, 35.8850054], [139.9281475, 35.8850184]]]]}}, {"type": "Feature", "properties": {"fid": 7, "full_id": "w194055537", "osm_id": "194055537", "osm_type": "way", "aeroway": null, "source:ja": null, "military": null, "landuse": "military", "wikipedia": "ja:館山航空基地", "wikidata": null, "website:ja": null, "website:en": null, "website": "https://www.mod.go.jp/msdf/tateyama/", "type": null, "target:ja": null, "target:iata": null, "target:en": null, "target": null, "short_name:ja-Hira": null, "short_name:en": null, "short_name": null, "service_times": null, "ref": null, "phone": null, "passengers": null, "passenger": null, "owner:wikidata": null, "owner:ja": null, "owner:en": null, "owner": null, "operator:wikidata": null, "operator:ja": null, "operator:en": null, "operator": null, "opening_hours": null, "old_name:ja": null, "old_name:en": null, "old_name": null, "name:zh-Hant-TW": null, "name:zh-Hant-HK": null, "name:zh-Hant": null, "name:zh-Hans": null, "name:zh": null, "name:yue": null, "name:th": null, "name:ru": null, "name:ko": null, "name:ja-Latn": null, "name:ja-Hira": null, "name:ja": "海上自衛隊館山航空基地", "name:it": null, "name:fr": null, "name:es": null, "name:en": "JMSDF Tateyama Air Base", "name:cmn": null, "name": "海上自衛隊館山航空基地", "int_name:en": null, "int_name": null, "importance": null, "icao": null, "iata": null, "ele": null, "contact:website:ja": null, "contact:website:en": null, "contact:website": null, "contact:url:ja": null, "contact:url:en": null, "contact:url": null, "contact:phone": null, "city_served": null, "cargo": null, "alt_name:zh-Hant": null, "alt_name:zh-Hans": null, "aerodrome": null, "addr:quarter": null, "addr:province": null, "addr:neighbourhood": null, "addr:country": null, "addr:city": null, "addr:block_number": null, "access": null, "building": null, "addr:housename": null, "source:name": null, "source:geometry": null, "layer": "自衛隊施設半径１キロ", "path": "Z:/全社共有/千葉支店/01　千葉ガイドマップ/千葉ガイドマップ.gpkg|layername=自衛隊施設半径１キロ"}, "geometry": {"type": "MultiPolygon", "coordinates": [[[[139.8196719, 34.9759307], [139.8192865, 34.9760926], [139.8172383, 34.9772748], [139.8156681, 34.9788745], [139.8146983, 34.9807672], [139.8144041, 34.9828058], [139.8144145, 34.9831894], [139.8147492, 34.9850228], [139.8156325, 34.9867295], [139.819574, 34.9922748], [139.8204349, 34.9931253], [139.8212521, 34.9942954], [139.8218734, 34.995068], [139.8219121, 34.9951101], [139.8231964, 34.9962384], [139.8232474, 34.9962747], [139.8264788, 34.9977483], [139.8265351, 34.9977626], [139.8280735, 34.9980351], [139.8281152, 34.9980394], [139.8290628, 34.9980956], [139.8291803, 34.9980975], [139.8301477, 34.9981125], [139.8325629, 34.9981499], [139.8363327, 34.9982085], [139.8364216, 34.9982175], [139.8369633, 34.9983046], [139.8374137, 34.9983674], [139.838457, 34.9984905], [139.8412065, 34.9984666], [139.8438184, 34.9977625], [139.8460479, 34.9964443], [139.8474144, 34.9949355], [139.8485165, 34.9938336], [139.8493406, 34.9926776], [139.8502813, 34.9908062], [139.8505643, 34.9887956], [139.8505626, 34.9887355], [139.8505609, 34.9886834], [139.8504695, 34.986211], [139.8505568, 34.985884], [139.8505561, 34.9857258], [139.850555, 34.9856322], [139.8505115, 34.9834527], [139.8500197, 34.9811682], [139.8486845, 34.9791226], [139.8466386, 34.977519], [139.8440852, 34.9765168], [139.8412779, 34.9762155], [139.8409673, 34.9762226], [139.8404957, 34.9761939], [139.8404103, 34.9761656], [139.8399376, 34.9760216], [139.8396541, 34.9759426], [139.8366655, 34.975551], [139.8336878, 34.9759949], [139.8332457, 34.9761268], [139.8332065, 34.9761386], [139.8328216, 34.9762551], [139.8314646, 34.9767749], [139.831451, 34.9767813], [139.8309817, 34.9769707], [139.8292064, 34.9757813], [139.8269013, 34.9749709], [139.8244126, 34.9747144], [139.8241837, 34.9747172], [139.820817, 34.9752983], [139.8196719, 34.9759307]]]]}}, {"type": "Feature", "properties": {"fid": 8, "full_id": "w194055538", "osm_id": "194055538", "osm_type": "way", "aeroway": null, "source:ja": null, "military": null, "landuse": "military", "wikipedia": null, "wikidata": null, "website:ja": null, "website:en": null, "website": null, "type": null, "target:ja": null, "target:iata": null, "target:en": null, "target": null, "short_name:ja-Hira": null, "short_name:en": null, "short_name": null, "service_times": null, "ref": null, "phone": null, "passengers": null, "passenger": null, "owner:wikidata": null, "owner:ja": null, "owner:en": null, "owner": null, "operator:wikidata": null, "operator:ja": null, "operator:en": null, "operator": null, "opening_hours": null, "old_name:ja": null, "old_name:en": null, "old_name": null, "name:zh-Hant-TW": null, "name:zh-Hant-HK": null, "name:zh-Hant": null, "name:zh-Hans": null, "name:zh": null, "name:yue": null, "name:th": null, "name:ru": null, "name:ko": null, "name:ja-Latn": null, "name:ja-Hira": null, "name:ja": null, "name:it": null, "name:fr": null, "name:es": null, "name:en": null, "name:cmn": null, "name": "航空自衛隊木更津基地", "int_name:en": null, "int_name": null, "importance": null, "icao": null, "iata": null, "ele": null, "contact:website:ja": null, "contact:website:en": null, "contact:website": null, "contact:url:ja": null, "contact:url:en": null, "contact:url": null, "contact:phone": null, "city_served": null, "cargo": null, "alt_name:zh-Hant": null, "alt_name:zh-Hans": null, "aerodrome": null, "addr:quarter": null, "addr:province": null, "addr:neighbourhood": null, "addr:country": null, "addr:city": null, "addr:block_number": null, "access": null, "building": null, "addr:housename": null, "source:name": null, "source:geometry": null, "layer": "自衛隊施設半径１キロ", "path": "Z:/全社共有/千葉支店/01　千葉ガイドマップ/千葉ガイドマップ.gpkg|layername=自衛隊施設半径１キロ"}, "geometry": {"type": "MultiPolygon", "coordinates": [[[[139.9170067, 35.4162613], [139.9170849, 35.4172076], [139.9180109, 35.4192095], [139.9196076, 35.4209077], [139.9217386, 35.4221572], [139.9242218, 35.4228513], [139.9268453, 35.4229307], [139.9293849, 35.4223887], [139.9314657, 35.4216661], [139.933869, 35.4204341], [139.9356805, 35.4186523], [139.9362787, 35.4174118], [139.9367248, 35.4169988], [139.9372393, 35.4160397], [139.9373525, 35.4159303], [139.938409, 35.4138257], [139.9386222, 35.4115583], [139.9379715, 35.4093469], [139.9364996, 35.4064393], [139.9347731, 35.4042452], [139.9322131, 35.4026831], [139.931953, 35.4025771], [139.9295538, 35.4019238], [139.9270262, 35.4018416], [139.9245708, 35.402337], [139.9217749, 35.4032576], [139.9194034, 35.4044117], [139.9175742, 35.4060984], [139.9174258, 35.4063728], [139.9164848, 35.4072646], [139.9154004, 35.4093763], [139.9151691, 35.4116577], [139.9158136, 35.4138858], [139.9170067, 35.4162613]]]]}}, {"type": "Feature", "properties": {"fid": 9, "full_id": "w194056004", "osm_id": "194056004", "osm_type": "way", "aeroway": null, "source:ja": null, "military": "naval_base", "landuse": "military", "wikipedia": "ja:下総航空基地", "wikidata": "Q7496958", "website:ja": null, "website:en": null, "website": "https://www.mod.go.jp/msdf/simohusa/", "type": null, "target:ja": null, "target:iata": null, "target:en": null, "target": null, "short_name:ja-Hira": null, "short_name:en": null, "short_name": null, "service_times": null, "ref": null, "phone": null, "passengers": null, "passenger": null, "owner:wikidata": null, "owner:ja": null, "owner:en": null, "owner": null, "operator:wikidata": null, "operator:ja": null, "operator:en": null, "operator": null, "opening_hours": null, "old_name:ja": null, "old_name:en": null, "old_name": null, "name:zh-Hant-TW": null, "name:zh-Hant-HK": null, "name:zh-Hant": null, "name:zh-Hans": null, "name:zh": null, "name:yue": null, "name:th": null, "name:ru": "Авиабаза «Симофуса»", "name:ko": null, "name:ja-Latn": null, "name:ja-Hira": null, "name:ja": "海上自衛隊下総航空基地", "name:it": null, "name:fr": null, "name:es": "Base aérea Shimofusa de JMSDF", "name:en": "JMSDF Shimofusa Air Base", "name:cmn": null, "name": "海上自衛隊下総航空基地", "int_name:en": null, "int_name": null, "importance": null, "icao": null, "iata": null, "ele": null, "contact:website:ja": null, "contact:website:en": null, "contact:website": null, "contact:url:ja": null, "contact:url:en": null, "contact:url": null, "contact:phone": null, "city_served": null, "cargo": null, "alt_name:zh-Hant": null, "alt_name:zh-Hans": null, "aerodrome": null, "addr:quarter": null, "addr:province": null, "addr:neighbourhood": null, "addr:country": null, "addr:city": null, "addr:block_number": null, "access": null, "building": null, "addr:housename": null, "source:name": null, "source:geometry": null, "layer": "自衛隊施設半径１キロ", "path": "Z:/全社共有/千葉支店/01　千葉ガイドマップ/千葉ガイドマップ.gpkg|layername=自衛隊施設半径１キロ"}, "geometry": {"type": "MultiPolygon", "coordinates": [[[[139.999815, 35.79988], [139.9993295, 35.800474], [139.9985985, 35.8029283], [139.9989443, 35.8054375], [139.9991749, 35.8060748], [140.0002966, 35.8080357], [140.0007867, 35.8084779], [140.0009676, 35.8103283], [140.0009381, 35.8103926], [140.000793, 35.812585], [140.00146, 35.8147129], [140.001507, 35.814803], [140.0030239, 35.8167657], [140.0052241, 35.8182429], [140.0078849, 35.8190854], [140.0107373, 35.8192079], [140.0119655, 35.8191012], [140.0138141, 35.8191267], [140.0165229, 35.8188267], [140.0189949, 35.81788], [140.0210012, 35.8163741], [140.0215125, 35.8156474], [140.0215327, 35.8156451], [140.0234502, 35.8151672], [140.0260414, 35.8141267], [140.026514, 35.8137452], [140.028749, 35.8134154], [140.0294963, 35.8131764], [140.0317273, 35.8121426], [140.0335062, 35.8106389], [140.0341628, 35.8096101], [140.0341672, 35.8096082], [140.0354566, 35.8085333], [140.0354663, 35.8085273], [140.0354756, 35.8085175], [140.0361825, 35.8079282], [140.0364444, 35.8074868], [140.0369452, 35.8069538], [140.0378476, 35.8051156], [140.0380741, 35.8043735], [140.0383351, 35.8024617], [140.03797, 35.800561], [140.0379092, 35.8003937], [140.0378909, 35.7996581], [140.0377218, 35.7989601], [140.0369266, 35.7970815], [140.0355353, 35.7954469], [140.0350159, 35.7949863], [140.0347762, 35.7947818], [140.0345195, 35.7945712], [140.0316806, 35.7930004], [140.0314075, 35.7929051], [140.0312844, 35.7928311], [140.0312124, 35.7927625], [140.0309642, 35.7925961], [140.029991, 35.7920278], [140.0299061, 35.7919849], [140.0297526, 35.7919323], [140.0296476, 35.7918488], [140.0293938, 35.7916901], [140.028453, 35.7912438], [140.0284525, 35.7912435], [140.0276542, 35.790727], [140.0273707, 35.7905641], [140.0249011, 35.7895661], [140.0242075, 35.7894789], [140.0241442, 35.7892561], [140.0238792, 35.7885081], [140.0237328, 35.7881651], [140.0236494, 35.7880107], [140.0235191, 35.787432], [140.023506, 35.787386], [140.0233906, 35.7850643], [140.0222984, 35.7828091], [140.020355, 35.780969], [140.0192873, 35.7804634], [140.0190996, 35.7803543], [140.0188511, 35.7802567], [140.0188591, 35.7802454], [140.0187453, 35.7801922], [140.0187376, 35.7802031], [140.0177753, 35.7797475], [140.0174027, 35.779688], [140.0163476, 35.7792737], [140.0161498, 35.7792276], [140.0137663, 35.7789446], [140.0103572, 35.7789147], [140.0072209, 35.779344], [140.0044657, 35.7806331], [140.0043109, 35.7807391], [140.0028654, 35.7819937], [140.001822, 35.7834879], [140.0017429, 35.7836408], [140.0012194, 35.7850238], [140.0011682, 35.7852303], [140.0009991, 35.7869588], [140.0013338, 35.7886492], [140.001046, 35.7974394], [140.0008445, 35.7977331], [140.0002039, 35.7988328], [139.999815, 35.79988]]]]}}, {"type": "Feature", "properties": {"fid": 10, "full_id": "w263290584", "osm_id": "263290584", "osm_type": "way", "aeroway": null, "source:ja": null, "military": "range", "landuse": "military", "wikipedia": null, "wikidata": null, "website:ja": null, "website:en": null, "website": null, "type": null, "target:ja": null, "target:iata": null, "target:en": null, "target": null, "short_name:ja-Hira": null, "short_name:en": null, "short_name": null, "service_times": null, "ref": null, "phone": null, "passengers": null, "passenger": null, "owner:wikidata": null, "owner:ja": null, "owner:en": null, "owner": null, "operator:wikidata": null, "operator:ja": null, "operator:en": null, "operator": null, "opening_hours": null, "old_name:ja": null, "old_name:en": null, "old_name": null, "name:zh-Hant-TW": null, "name:zh-Hant-HK": null, "name:zh-Hant": null, "name:zh-Hans": null, "name:zh": null, "name:yue": null, "name:th": null, "name:ru": null, "name:ko": null, "name:ja-Latn": null, "name:ja-Hira": null, "name:ja": "陸上自衛隊習志野駐屯地", "name:it": null, "name:fr": null, "name:es": null, "name:en": "JGSDF Camp Narashino", "name:cmn": null, "name": "陸上自衛隊習志野駐屯地", "int_name:en": null, "int_name": null, "importance": null, "icao": null, "iata": null, "ele": null, "contact:website:ja": null, "contact:website:en": null, "contact:website": null, "contact:url:ja": null, "contact:url:en": null, "contact:url": null, "contact:phone": null, "city_served": null, "cargo": null, "alt_name:zh-Hant": null, "alt_name:zh-Hans": null, "aerodrome": null, "addr:quarter": null, "addr:province": null, "addr:neighbourhood": null, "addr:country": null, "addr:city": null, "addr:block_number": null, "access": null, "building": null, "addr:housename": "http://www.mod.go.jp/gsdf/1abnb/", "source:name": null, "source:geometry": null, "layer": "自衛隊施設半径１キロ", "path": "Z:/全社共有/千葉支店/01　千葉ガイドマップ/千葉ガイドマップ.gpkg|layername=自衛隊施設半径１キロ"}, "geometry": {"type": "MultiPolygon", "coordinates": [[[[140.0407358, 35.7107982], [140.0409949, 35.713101], [140.0421287, 35.7152221], [140.0440232, 35.7169485], [140.0464881, 35.7181066], [140.0502276, 35.7192682], [140.052978, 35.7197401], [140.0557734, 35.7194988], [140.0583401, 35.7185679], [140.0604266, 35.7170384], [140.0618288, 35.7150601], [140.0623137, 35.71403], [140.0623299, 35.714004], [140.0632832, 35.7111518], [140.0633912, 35.7097157], [140.0637221, 35.7085037], [140.0637594, 35.7080877], [140.0636527, 35.7071942], [140.0637275, 35.7064978], [140.0635267, 35.7042063], [140.0624582, 35.7020792], [140.060628, 35.7003273], [140.0582177, 35.6991245], [140.0554662, 35.6985901], [140.0511106, 35.6983184], [140.0483763, 35.6984888], [140.0458327, 35.6993213], [140.0437169, 35.7007381], [140.042226, 35.7026072], [140.0414991, 35.7047544], [140.0414378, 35.7051851], [140.0414028, 35.7054845], [140.0413289, 35.7062957], [140.0413275, 35.7063115], [140.0412828, 35.706817], [140.0408303, 35.7082525], [140.0407817, 35.7087631], [140.0409117, 35.7101935], [140.0407369, 35.7107851], [140.0407358, 35.7107982]]]]}}, {"type": "Feature", "properties": {"fid": 11, "full_id": "w263290585", "osm_id": "263290585", "osm_type": "way", "aeroway": null, "source:ja": null, "military": "range", "landuse": "military", "wikipedia": null, "wikidata": null, "website:ja": null, "website:en": null, "website": "https://www.mod.go.jp/gsdf/1abnb/", "type": null, "target:ja": null, "target:iata": null, "target:en": null, "target": null, "short_name:ja-Hira": null, "short_name:en": null, "short_name": null, "service_times": null, "ref": null, "phone": null, "passengers": null, "passenger": null, "owner:wikidata": null, "owner:ja": null, "owner:en": null, "owner": null, "operator:wikidata": null, "operator:ja": null, "operator:en": null, "operator": null, "opening_hours": null, "old_name:ja": null, "old_name:en": null, "old_name": null, "name:zh-Hant-TW": null, "name:zh-Hant-HK": null, "name:zh-Hant": null, "name:zh-Hans": null, "name:zh": null, "name:yue": null, "name:th": null, "name:ru": null, "name:ko": null, "name:ja-Latn": null, "name:ja-Hira": "りくじょうじえいたいならしのえんしゅうじょう", "name:ja": "陸上自衛隊習志野演習場", "name:it": null, "name:fr": null, "name:es": null, "name:en": "Japan Ground Self-Defense Force Narashino Training Area", "name:cmn": null, "name": "陸上自衛隊習志野演習場", "int_name:en": null, "int_name": null, "importance": null, "icao": null, "iata": null, "ele": null, "contact:website:ja": null, "contact:website:en": null, "contact:website": null, "contact:url:ja": null, "contact:url:en": null, "contact:url": null, "contact:phone": null, "city_served": null, "cargo": null, "alt_name:zh-Hant": null, "alt_name:zh-Hans": null, "aerodrome": null, "addr:quarter": null, "addr:province": null, "addr:neighbourhood": null, "addr:country": null, "addr:city": null, "addr:block_number": null, "access": null, "building": null, "addr:housename": null, "source:name": null, "source:geometry": null, "layer": "自衛隊施設半径１キロ", "path": "Z:/全社共有/千葉支店/01　千葉ガイドマップ/千葉ガイドマップ.gpkg|layername=自衛隊施設半径１キロ"}, "geometry": {"type": "MultiPolygon", "coordinates": [[[[140.054097, 35.7207169], [140.0564871, 35.7215853], [140.057852, 35.722091], [140.057948, 35.7221304], [140.0581226, 35.7222167], [140.0584036, 35.7223617], [140.0597928, 35.7230819], [140.059819, 35.7230956], [140.0609393, 35.7240196], [140.0630085, 35.7252923], [140.0654397, 35.7260314], [140.0680297, 35.7261753], [140.0705622, 35.7257119], [140.0707899, 35.7256409], [140.0717003, 35.7253088], [140.0733823, 35.7246017], [140.0744075, 35.7242017], [140.0748683, 35.724048], [140.0755753, 35.7237825], [140.0757492, 35.7237096], [140.0769394, 35.723111], [140.0771709, 35.7229732], [140.0780486, 35.7223774], [140.0782217, 35.7222438], [140.0784737, 35.7220235], [140.0792247, 35.7219713], [140.0819956, 35.7214085], [140.0844089, 35.720168], [140.0850244, 35.7197261], [140.0860589, 35.7198179], [140.0864769, 35.7198119], [140.0873536, 35.7199612], [140.0881455, 35.7199869], [140.0907606, 35.7197589], [140.0931823, 35.7189257], [140.095203, 35.7175587], [140.0966494, 35.7157751], [140.0973976, 35.7137278], [140.0973833, 35.7115922], [140.0969994, 35.7105819], [140.0969825, 35.7104488], [140.0968673, 35.7099609], [140.0958983, 35.7078293], [140.0954641, 35.7060611], [140.0952276, 35.7056788], [140.0952641, 35.705129], [140.0951783, 35.704432], [140.0945133, 35.7023159], [140.0939252, 35.7011867], [140.0925849, 35.6993899], [140.0906696, 35.6979777], [140.0883382, 35.6970673], [140.0877606, 35.6969202], [140.0849778, 35.6965868], [140.0822046, 35.6969686], [140.080561, 35.6974185], [140.0804058, 35.6974601], [140.0797723, 35.6976298], [140.0784168, 35.6979929], [140.0772273, 35.6983098], [140.0771413, 35.6983327], [140.0768218, 35.6984178], [140.0766462, 35.6984646], [140.0760565, 35.6986143], [140.0754093, 35.698774], [140.0750824, 35.6988537], [140.0750572, 35.6988591], [140.0748484, 35.6989063], [140.0736252, 35.6991955], [140.0736256, 35.6991968], [140.0733036, 35.699268], [140.0721776, 35.6995584], [140.0710871, 35.6998407], [140.0710169, 35.6998591], [140.0687083, 35.7004735], [140.0685824, 35.7005079], [140.0654697, 35.7013779], [140.0653056, 35.7014253], [140.0649813, 35.7015217], [140.0631402, 35.7016596], [140.0608865, 35.7020649], [140.0597696, 35.7020812], [140.0584844, 35.702454], [140.0561573, 35.7025969], [140.0535628, 35.7034602], [140.0514224, 35.704931], [140.0499446, 35.7068659], [140.0492735, 35.7090765], [140.0488156, 35.7134404], [140.0490071, 35.7156781], [140.050027, 35.7177626], [140.0517789, 35.7194969], [140.054097, 35.7207169]]]]}}, {"type": "Feature", "properties": {"fid": 12, "full_id": "w296041349", "osm_id": "296041349", "osm_type": "way", "aeroway": null, "source:ja": null, "military": null, "landuse": "military", "wikipedia": null, "wikidata": null, "website:ja": null, "website:en": null, "website": null, "type": null, "target:ja": null, "target:iata": null, "target:en": null, "target": null, "short_name:ja-Hira": null, "short_name:en": null, "short_name": null, "service_times": null, "ref": null, "phone": null, "passengers": null, "passenger": null, "owner:wikidata": null, "owner:ja": null, "owner:en": null, "owner": null, "operator:wikidata": null, "operator:ja": null, "operator:en": null, "operator": null, "opening_hours": null, "old_name:ja": null, "old_name:en": null, "old_name": null, "name:zh-Hant-TW": null, "name:zh-Hant-HK": null, "name:zh-Hant": null, "name:zh-Hans": null, "name:zh": null, "name:yue": null, "name:th": null, "name:ru": null, "name:ko": null, "name:ja-Latn": null, "name:ja-Hira": null, "name:ja": null, "name:it": null, "name:fr": null, "name:es": null, "name:en": null, "name:cmn": null, "name": "陸上自衛隊松戸駐屯地", "int_name:en": null, "int_name": null, "importance": null, "icao": null, "iata": null, "ele": null, "contact:website:ja": null, "contact:website:en": null, "contact:website": null, "contact:url:ja": null, "contact:url:en": null, "contact:url": null, "contact:phone": null, "city_served": null, "cargo": null, "alt_name:zh-Hant": null, "alt_name:zh-Hans": null, "aerodrome": null, "addr:quarter": null, "addr:province": null, "addr:neighbourhood": null, "addr:country": null, "addr:city": null, "addr:block_number": null, "access": null, "building": null, "addr:housename": null, "source:name": null, "source:geometry": null, "layer": "自衛隊施設半径１キロ", "path": "Z:/全社共有/千葉支店/01　千葉ガイドマップ/千葉ガイドマップ.gpkg|layername=自衛隊施設半径１キロ"}, "geometry": {"type": "MultiPolygon", "coordinates": [[[[139.9730223, 35.7764307], [139.9720491, 35.7765204], [139.9717435, 35.7765133], [139.9689094, 35.7768162], [139.9663361, 35.777826], [139.9642841, 35.7794407], [139.9629612, 35.7814965], [139.9625015, 35.7837853], [139.9624994, 35.7847405], [139.9624184, 35.7880491], [139.9623247, 35.7898679], [139.9626586, 35.7921629], [139.9638618, 35.7942577], [139.9658131, 35.7959414], [139.9683162, 35.7970449], [139.9711195, 35.7974571], [139.9731971, 35.797491], [139.9738485, 35.7975874], [139.9766928, 35.7972609], [139.9792646, 35.7962227], [139.9813009, 35.7945792], [139.9841557, 35.791385], [139.9853229, 35.7896029], [139.9854672, 35.7890551], [139.9857846, 35.7885853], [139.9859793, 35.7884437], [139.9873702, 35.7865378], [139.9879911, 35.7843808], [139.9879716, 35.7841725], [139.9880571, 35.7839243], [139.9879557, 35.781682], [139.9870183, 35.7795709], [139.9853336, 35.7777912], [139.9830614, 35.7765117], [139.9822496, 35.7761918], [139.9792149, 35.7754952], [139.9760706, 35.7756924], [139.975508, 35.7758107], [139.9754051, 35.7758329], [139.9735548, 35.776241], [139.9730223, 35.7764307]]]]}}, {"type": "Feature", "properties": {"fid": 13, "full_id": "w365952986", "osm_id": "365952986", "osm_type": "way", "aeroway": null, "source:ja": null, "military": null, "landuse": "military", "wikipedia": null, "wikidata": null, "website:ja": null, "website:en": null, "website": null, "type": null, "target:ja": null, "target:iata": null, "target:en": null, "target": null, "short_name:ja-Hira": null, "short_name:en": null, "short_name": null, "service_times": null, "ref": null, "phone": null, "passengers": null, "passenger": null, "owner:wikidata": null, "owner:ja": null, "owner:en": null, "owner": null, "operator:wikidata": null, "operator:ja": null, "operator:en": null, "operator": null, "opening_hours": null, "old_name:ja": null, "old_name:en": null, "old_name": null, "name:zh-Hant-TW": null, "name:zh-Hant-HK": null, "name:zh-Hant": null, "name:zh-Hans": null, "name:zh": null, "name:yue": null, "name:th": null, "name:ru": null, "name:ko": null, "name:ja-Latn": null, "name:ja-Hira": null, "name:ja": null, "name:it": null, "name:fr": null, "name:es": null, "name:en": "Maritime Self-Defense Force Ichihara transmitting station", "name:cmn": null, "name": "海上自衛隊市原送信所 (Maritime Self-Defense Force Ichihara transmitting station)", "int_name:en": null, "int_name": null, "importance": null, "icao": null, "iata": null, "ele": null, "contact:website:ja": null, "contact:website:en": null, "contact:website": null, "contact:url:ja": null, "contact:url:en": null, "contact:url": null, "contact:phone": null, "city_served": null, "cargo": null, "alt_name:zh-Hant": null, "alt_name:zh-Hans": null, "aerodrome": null, "addr:quarter": null, "addr:province": null, "addr:neighbourhood": null, "addr:country": null, "addr:city": null, "addr:block_number": null, "access": null, "building": null, "addr:housename": null, "source:name": null, "source:geometry": null, "layer": "自衛隊施設半径１キロ", "path": "Z:/全社共有/千葉支店/01　千葉ガイドマップ/千葉ガイドマップ.gpkg|layername=自衛隊施設半径１キロ"}, "geometry": {"type": "MultiPolygon", "coordinates": [[[[140.182636, 35.438657], [140.1822438, 35.4386963], [140.1820297, 35.43872], [140.180975, 35.4388469], [140.1797261, 35.4390722], [140.179481, 35.4391316], [140.1767478, 35.4402341], [140.1746248, 35.4420181], [140.1744882, 35.4421811], [140.1740329, 35.4427849], [140.1739697, 35.4428786], [140.1730991, 35.4447239], [140.1730763, 35.4448027], [140.1728678, 35.4470904], [140.1728799, 35.4472085], [140.1739646, 35.4501323], [140.1740056, 35.4501928], [140.1754964, 35.451815], [140.1756567, 35.4519466], [140.1784426, 35.4534999], [140.1817357, 35.4541058], [140.1819283, 35.454111], [140.1820275, 35.4541133], [140.1838116, 35.4541453], [140.1840099, 35.4541471], [140.1843562, 35.4541471], [140.1845867, 35.4541176], [140.187209, 35.4541723], [140.1897841, 35.4535845], [140.1920327, 35.4524051], [140.1937554, 35.4507388], [140.1947996, 35.4487331], [140.1948913, 35.4484426], [140.1951571, 35.446167], [140.1948697, 35.4451138], [140.1947899, 35.4444283], [140.1945582, 35.4439723], [140.1945482, 35.4439355], [140.1945191, 35.4438952], [140.1937701, 35.4424212], [140.1920721, 35.4407464], [140.1898454, 35.4395514], [140.188604, 35.4392556], [140.186992, 35.4387144], [140.1865355, 35.438625], [140.1837988, 35.4384407], [140.182636, 35.438657]]]]}}, {"type": "Feature", "properties": {"fid": 14, "full_id": "w737766749", "osm_id": "737766749", "osm_type": "way", "aeroway": null, "source:ja": null, "military": null, "landuse": "military", "wikipedia": null, "wikidata": null, "website:ja": null, "website:en": null, "website": null, "type": null, "target:ja": null, "target:iata": null, "target:en": null, "target": null, "short_name:ja-Hira": null, "short_name:en": null, "short_name": null, "service_times": null, "ref": null, "phone": null, "passengers": null, "passenger": null, "owner:wikidata": null, "owner:ja": null, "owner:en": null, "owner": null, "operator:wikidata": null, "operator:ja": null, "operator:en": null, "operator": null, "opening_hours": null, "old_name:ja": null, "old_name:en": null, "old_name": null, "name:zh-Hant-TW": null, "name:zh-Hant-HK": null, "name:zh-Hant": null, "name:zh-Hans": null, "name:zh": null, "name:yue": null, "name:th": null, "name:ru": null, "name:ko": null, "name:ja-Latn": null, "name:ja-Hira": null, "name:ja": null, "name:it": null, "name:fr": null, "name:es": null, "name:en": null, "name:cmn": null, "name": "陸上自衛隊柏訓練場", "int_name:en": null, "int_name": null, "importance": null, "icao": null, "iata": null, "ele": null, "contact:website:ja": null, "contact:website:en": null, "contact:website": null, "contact:url:ja": null, "contact:url:en": null, "contact:url": null, "contact:phone": null, "city_served": null, "cargo": null, "alt_name:zh-Hant": null, "alt_name:zh-Hans": null, "aerodrome": null, "addr:quarter": null, "addr:province": null, "addr:neighbourhood": null, "addr:country": null, "addr:city": null, "addr:block_number": null, "access": null, "building": null, "addr:housename": null, "source:name": null, "source:geometry": null, "layer": "自衛隊施設半径１キロ", "path": "Z:/全社共有/千葉支店/01　千葉ガイドマップ/千葉ガイドマップ.gpkg|layername=自衛隊施設半径１キロ"}, "geometry": {"type": "MultiPolygon", "coordinates": [[[[139.9674254, 35.8999197], [139.9634199, 35.9038485], [139.9620185, 35.9057537], [139.9613908, 35.9079124], [139.961595, 35.9101238], [139.9626123, 35.9121827], [139.964348, 35.9138977], [139.9645356, 35.914034], [139.9665864, 35.9151535], [139.9689363, 35.9157776], [139.9714073, 35.9158591], [139.9738121, 35.9153919], [139.9742909, 35.9152399], [139.9746871, 35.9150659], [139.9755344, 35.91497], [139.9756703, 35.9149386], [139.9764835, 35.9147162], [139.977441, 35.9144123], [139.9782999, 35.9140966], [139.9785229, 35.9140029], [139.978705, 35.9139323], [139.9788402, 35.9138787], [139.9791378, 35.9137582], [139.9805982, 35.9130172], [139.9807664, 35.9129124], [139.9816406, 35.9122908], [139.9818283, 35.9121388], [139.9828365, 35.9111656], [139.9830629, 35.9109036], [139.9834057, 35.9104758], [139.9835416, 35.9102924], [139.9846687, 35.9078883], [139.9847075, 35.9077206], [139.9847966, 35.9072515], [139.9849066, 35.9065126], [139.9849692, 35.9054892], [139.9849627, 35.9052377], [139.9849153, 35.9046279], [139.9849151, 35.9046266], [139.9850348, 35.903953], [139.9850182, 35.9017905], [139.9842177, 35.8997275], [139.9827041, 35.897946], [139.980611, 35.8966036], [139.9781233, 35.8958187], [139.9779228, 35.895782], [139.9747348, 35.8956691], [139.9716993, 35.8964661], [139.9705336, 35.897215], [139.9705265, 35.8972187], [139.9704961, 35.8972391], [139.9691992, 35.8980724], [139.969037, 35.8982217], [139.9687246, 35.898432], [139.9674254, 35.8999197]]]]}}, {"type": "Feature", "properties": {"fid": 15, "full_id": "w810026963", "osm_id": "810026963", "osm_type": "way", "aeroway": null, "source:ja": null, "military": "range", "landuse": "military", "wikipedia": null, "wikidata": null, "website:ja": null, "website:en": null, "website": null, "type": null, "target:ja": null, "target:iata": null, "target:en": null, "target": null, "short_name:ja-Hira": null, "short_name:en": null, "short_name": null, "service_times": null, "ref": null, "phone": null, "passengers": null, "passenger": null, "owner:wikidata": null, "owner:ja": null, "owner:en": null, "owner": null, "operator:wikidata": null, "operator:ja": null, "operator:en": null, "operator": null, "opening_hours": null, "old_name:ja": null, "old_name:en": null, "old_name": null, "name:zh-Hant-TW": null, "name:zh-Hant-HK": null, "name:zh-Hant": null, "name:zh-Hans": null, "name:zh": null, "name:yue": null, "name:th": null, "name:ru": null, "name:ko": null, "name:ja-Latn": null, "name:ja-Hira": null, "name:ja": null, "name:it": null, "name:fr": null, "name:es": null, "name:en": null, "name:cmn": null, "name": null, "int_name:en": null, "int_name": null, "importance": null, "icao": null, "iata": null, "ele": null, "contact:website:ja": null, "contact:website:en": null, "contact:website": null, "contact:url:ja": null, "contact:url:en": null, "contact:url": null, "contact:phone": null, "city_served": null, "cargo": null, "alt_name:zh-Hant": null, "alt_name:zh-Hans": null, "aerodrome": null, "addr:quarter": null, "addr:province": null, "addr:neighbourhood": null, "addr:country": null, "addr:city": null, "addr:block_number": null, "access": null, "building": "yes", "addr:housename": null, "source:name": null, "source:geometry": null, "layer": "自衛隊施設半径１キロ", "path": "Z:/全社共有/千葉支店/01　千葉ガイドマップ/千葉ガイドマップ.gpkg|layername=自衛隊施設半径１キロ"}, "geometry": {"type": "MultiPolygon", "coordinates": [[[[140.4165704, 35.7827418], [140.4199501, 35.7817393], [140.4224061, 35.780631], [140.4243198, 35.7789613], [140.4255039, 35.7768935], [140.4258425, 35.77463], [140.4253024, 35.7723924], [140.4251671, 35.7720921], [140.4238012, 35.7700992], [140.4217432, 35.7685464], [140.4191945, 35.7675854], [140.4164046, 35.7673105], [140.4136466, 35.7677485], [140.4102667, 35.7687507], [140.4078102, 35.7698589], [140.4058961, 35.7715287], [140.4047116, 35.7735967], [140.4043728, 35.7758603], [140.4049127, 35.7780981], [140.4050482, 35.7783989], [140.4064142, 35.7803919], [140.4084725, 35.7819447], [140.4110217, 35.7829055], [140.413812, 35.7831802], [140.4165704, 35.7827418]]]]}}, {"type": "Feature", "properties": {"fid": 16, "full_id": "w810026971", "osm_id": "810026971", "osm_type": "way", "aeroway": null, "source:ja": null, "military": "range", "landuse": "military", "wikipedia": "ja:特殊急襲部隊", "wikidata": "Q987690", "website:ja": null, "website:en": null, "website": null, "type": null, "target:ja": null, "target:iata": null, "target:en": null, "target": null, "short_name:ja-Hira": null, "short_name:en": null, "short_name": null, "service_times": null, "ref": null, "phone": null, "passengers": null, "passenger": null, "owner:wikidata": null, "owner:ja": null, "owner:en": null, "owner": null, "operator:wikidata": null, "operator:ja": null, "operator:en": null, "operator": null, "opening_hours": null, "old_name:ja": null, "old_name:en": null, "old_name": null, "name:zh-Hant-TW": null, "name:zh-Hant-HK": null, "name:zh-Hant": null, "name:zh-Hans": null, "name:zh": null, "name:yue": null, "name:th": null, "name:ru": null, "name:ko": null, "name:ja-Latn": null, "name:ja-Hira": null, "name:ja": null, "name:it": null, "name:fr": null, "name:es": null, "name:en": null, "name:cmn": null, "name": "千葉県警察機動隊総合訓練施設 多古訓練場", "int_name:en": null, "int_name": null, "importance": null, "icao": null, "iata": null, "ele": null, "contact:website:ja": null, "contact:website:en": null, "contact:website": null, "contact:url:ja": null, "contact:url:en": null, "contact:url": null, "contact:phone": null, "city_served": null, "cargo": null, "alt_name:zh-Hant": null, "alt_name:zh-Hans": null, "aerodrome": null, "addr:quarter": null, "addr:province": null, "addr:neighbourhood": null, "addr:country": null, "addr:city": null, "addr:block_number": null, "access": null, "building": null, "addr:housename": null, "source:name": null, "source:geometry": null, "layer": "自衛隊施設半径１キロ", "path": "Z:/全社共有/千葉支店/01　千葉ガイドマップ/千葉ガイドマップ.gpkg|layername=自衛隊施設半径１キロ"}, "geometry": {"type": "MultiPolygon", "coordinates": [[[[140.4037323, 35.7759022], [140.4036922, 35.776613], [140.4043591, 35.7787097], [140.4057558, 35.7805548], [140.4064247, 35.7810326], [140.4065344, 35.7811317], [140.406791, 35.7812941], [140.4077591, 35.7819855], [140.4081066, 35.7821673], [140.4081278, 35.7821406], [140.4090206, 35.7827059], [140.4103019, 35.7830387], [140.4112301, 35.7834295], [140.4144427, 35.7837352], [140.4175806, 35.7830979], [140.417646, 35.7830738], [140.4187747, 35.7824933], [140.4211489, 35.7817647], [140.4217948, 35.7814711], [140.4238365, 35.7802003], [140.4253504, 35.7785119], [140.4262121, 35.7765446], [140.4262896, 35.7753802], [140.4263358, 35.7750511], [140.4263377, 35.7750371], [140.4263534, 35.7749232], [140.4263906, 35.7745808], [140.4264567, 35.7737466], [140.4262428, 35.771632], [140.4252874, 35.769657], [140.4236714, 35.7679888], [140.4215318, 35.7667689], [140.4190498, 35.7661007], [140.418746, 35.7660573], [140.4170443, 35.7659478], [140.4167827, 35.7659512], [140.4156298, 35.7660267], [140.4154076, 35.766053], [140.413399, 35.766488], [140.4127309, 35.7667025], [140.4109001, 35.7675001], [140.4107144, 35.7676051], [140.4095862, 35.7684275], [140.4073416, 35.7693759], [140.4054859, 35.7708313], [140.4042168, 35.7726548], [140.4036391, 35.7746957], [140.4037323, 35.7759022]]]]}}, {"type": "Feature", "properties": {"fid": 17, "full_id": "w853808286", "osm_id": "853808286", "osm_type": "way", "aeroway": null, "source:ja": null, "military": null, "landuse": "military", "wikipedia": "ja:下志津駐屯地", "wikidata": "Q11360909", "website:ja": null, "website:en": null, "website": null, "type": null, "target:ja": null, "target:iata": null, "target:en": null, "target": null, "short_name:ja-Hira": null, "short_name:en": null, "short_name": null, "service_times": null, "ref": null, "phone": null, "passengers": null, "passenger": null, "owner:wikidata": null, "owner:ja": null, "owner:en": null, "owner": null, "operator:wikidata": null, "operator:ja": null, "operator:en": null, "operator": null, "opening_hours": null, "old_name:ja": null, "old_name:en": null, "old_name": null, "name:zh-Hant-TW": null, "name:zh-Hant-HK": null, "name:zh-Hant": null, "name:zh-Hans": null, "name:zh": null, "name:yue": null, "name:th": null, "name:ru": null, "name:ko": null, "name:ja-Latn": null, "name:ja-Hira": null, "name:ja": null, "name:it": null, "name:fr": null, "name:es": null, "name:en": "JGSDF Camp Shimoshizu", "name:cmn": null, "name": "陸上自衛隊下志津駐屯地", "int_name:en": null, "int_name": null, "importance": null, "icao": null, "iata": null, "ele": null, "contact:website:ja": null, "contact:website:en": null, "contact:website": null, "contact:url:ja": null, "contact:url:en": null, "contact:url": null, "contact:phone": null, "city_served": null, "cargo": null, "alt_name:zh-Hant": null, "alt_name:zh-Hans": null, "aerodrome": null, "addr:quarter": null, "addr:province": null, "addr:neighbourhood": null, "addr:country": null, "addr:city": null, "addr:block_number": null, "access": null, "building": null, "addr:housename": null, "source:name": null, "source:geometry": null, "layer": "自衛隊施設半径１キロ", "path": "Z:/全社共有/千葉支店/01　千葉ガイドマップ/千葉ガイドマップ.gpkg|layername=自衛隊施設半径１キロ"}, "geometry": {"type": "MultiPolygon", "coordinates": [[[[140.1515243, 35.6404308], [140.1500551, 35.63993], [140.1472344, 35.6397444], [140.1444826, 35.6402811], [140.1423663, 35.6409956], [140.1400193, 35.642158], [140.1392787, 35.6428493], [140.1374756, 35.643457], [140.1353783, 35.644891], [140.1339107, 35.6467721], [140.1332094, 35.6489252], [140.132998, 35.6505461], [140.1331469, 35.6528429], [140.1341678, 35.6549879], [140.1359595, 35.6567684], [140.1369461, 35.6572811], [140.1372754, 35.6579241], [140.1390543, 35.6596327], [140.1413868, 35.660823], [140.1423537, 35.6610261], [140.1433877, 35.6620063], [140.1454592, 35.6634518], [140.1479694, 35.6643248], [140.1506866, 35.6645448], [140.1533596, 35.6640914], [140.1557414, 35.6630065], [140.1571905, 35.6617544], [140.1588033, 35.6608362], [140.1606271, 35.6586502], [140.1606678, 35.6585749], [140.1613412, 35.656641], [140.1613404, 35.6554175], [140.1616151, 35.6548986], [140.1618922, 35.652697], [140.1618868, 35.6526098], [140.1611074, 35.6499819], [140.1610554, 35.6498881], [140.1607455, 35.6491679], [140.16038, 35.6486293], [140.1601147, 35.6479754], [140.1596183, 35.6466082], [140.1595746, 35.6464914], [140.1591967, 35.6455112], [140.158063, 35.6436009], [140.1563014, 35.642036], [140.1540606, 35.6409486], [140.1515298, 35.6404306], [140.1515243, 35.6404308]]]]}}, {"type": "Feature", "properties": {"fid": 18, "full_id": "w925458937", "osm_id": "925458937", "osm_type": "way", "aeroway": null, "source:ja": null, "military": null, "landuse": "military", "wikipedia": null, "wikidata": null, "website:ja": null, "website:en": null, "website": null, "type": null, "target:ja": null, "target:iata": null, "target:en": null, "target": null, "short_name:ja-Hira": null, "short_name:en": null, "short_name": null, "service_times": null, "ref": null, "phone": null, "passengers": null, "passenger": null, "owner:wikidata": null, "owner:ja": null, "owner:en": null, "owner": null, "operator:wikidata": null, "operator:ja": null, "operator:en": null, "operator": null, "opening_hours": null, "old_name:ja": null, "old_name:en": null, "old_name": null, "name:zh-Hant-TW": null, "name:zh-Hant-HK": null, "name:zh-Hant": null, "name:zh-Hans": null, "name:zh": null, "name:yue": null, "name:th": null, "name:ru": null, "name:ko": null, "name:ja-Latn": null, "name:ja-Hira": null, "name:ja": null, "name:it": null, "name:fr": null, "name:es": null, "name:en": null, "name:cmn": null, "name": "航空自衛隊峯岡山分屯基地", "int_name:en": null, "int_name": null, "importance": null, "icao": null, "iata": null, "ele": null, "contact:website:ja": null, "contact:website:en": null, "contact:website": null, "contact:url:ja": null, "contact:url:en": null, "contact:url": null, "contact:phone": null, "city_served": null, "cargo": null, "alt_name:zh-Hant": null, "alt_name:zh-Hans": null, "aerodrome": null, "addr:quarter": null, "addr:province": null, "addr:neighbourhood": null, "addr:country": null, "addr:city": null, "addr:block_number": null, "access": null, "building": null, "addr:housename": null, "source:name": null, "source:geometry": null, "layer": "自衛隊施設半径１キロ", "path": "Z:/全社共有/千葉支店/01　千葉ガイドマップ/千葉ガイドマップ.gpkg|layername=自衛隊施設半径１キロ"}, "geometry": {"type": "MultiPolygon", "coordinates": [[[[139.972844, 35.1114397], [139.9720698, 35.1127238], [139.9719947, 35.1129213], [139.9715944, 35.1153499], [139.9716104, 35.1157404], [139.9722018, 35.1181272], [139.9737144, 35.1202247], [139.975982, 35.1218025], [139.9787556, 35.1226876], [139.9808553, 35.1227546], [139.9821373, 35.1231488], [139.9860838, 35.1235906], [139.9866954, 35.1235467], [139.9886311, 35.1232297], [139.989205, 35.1230805], [139.9926732, 35.1214035], [139.9930005, 35.1211491], [139.9943996, 35.1196793], [139.9962016, 35.1186781], [139.9963786, 35.1185421], [139.9978565, 35.1170671], [139.9982803, 35.1165097], [139.9994317, 35.1141847], [139.9995599, 35.1116784], [139.9986501, 35.1092827], [139.9968082, 35.107277], [139.996717, 35.1072068], [139.995489, 35.1065358], [139.994599, 35.1058425], [139.9917259, 35.1048196], [139.9915917, 35.1047933], [139.9891659, 35.1045961], [139.9867646, 35.1049398], [139.9863806, 35.1050897], [139.9848973, 35.1053057], [139.9845325, 35.1054154], [139.9831428, 35.1059756], [139.9820958, 35.1058137], [139.9819725, 35.1058093], [139.9789444, 35.106126], [139.9762208, 35.107254], [139.9741162, 35.109063], [139.9728737, 35.1113441], [139.972844, 35.1114397]]]]}}]}