{
"type": "FeatureCollection",
"name": "関宿",
"crs": { "type": "name", "properties": { "name": "urn:ogc:def:crs:OGC:1.3:CRS84" } },
"features": [
{ "type": "Feature", "properties": { "fid": 1, "polygon_uuid": "2e3cf481-61fb-49a3-b954-aa09b536a057", "daicho_shubetsu_cd": "FUD25", "地名地番": "関宿町久世曲輪1451", "番地": "1451", "面積": 3599, "農地識別": "A01", "手動一致フラグ": "手動一致", "検索_AreaOnRegistry": 3599, "検索_Address": "関宿町字久世曲輪1451", "検索_Tiban": "1451", "計算面積": 38, "auxiliary_storage_labeling_positionx": null, "auxiliary_storage_labeling_positiony": null, "auxiliary_storage_labeling_show": null, "auxiliary_storage_labeling_labelrotation": null, "auxiliary_storage_labeling_family": null, "auxiliary_storage_labeling_fontstyle": null, "auxiliary_storage_labeling_size": null, "auxiliary_storage_labeling_bold": null, "auxiliary_storage_labeling_italic": null, "auxiliary_storage_labeling_underline": null, "auxiliary_storage_labeling_color": null, "auxiliary_storage_labeling_strikeout": null, "auxiliary_storage_labeling_multilinealignment": null, "auxiliary_storage_labeling_buffersize": null, "auxiliary_storage_labeling_buffercolor": null, "auxiliary_storage_labeling_bufferdraw": null, "auxiliary_storage_labeling_labeldistance": null, "auxiliary_storage_labeling_hali": null, "auxiliary_storage_labeling_vali": null, "auxiliary_storage_labeling_scalevisibility": null, "auxiliary_storage_labeling_minscale": null, "auxiliary_storage_labeling_maxscale": null, "auxiliary_storage_labeling_alwaysshow": null, "auxiliary_storage_labeling_calloutdraw": null, "auxiliary_storage_labeling_labelallparts": null }, "geometry": { "type": "Polygon", "coordinates": [ [ [ 139.780265194, 36.09719228 ], [ 139.780358756, 36.097379785 ], [ 139.780395855, 36.097457146 ], [ 139.780444249999988, 36.097554178 ], [ 139.780478128999988, 36.097617118 ], [ 139.780500724, 36.097647279 ], [ 139.780777056, 36.097475668 ], [ 139.781097024, 36.097268679 ], [ 139.781100263000013, 36.097255571 ], [ 139.781163282, 36.097222825 ], [ 139.781164921999988, 36.097184809 ], [ 139.780863094000011, 36.096834657 ], [ 139.780265194, 36.09719228 ] ] ] } },
{ "type": "Feature", "properties": { "fid": 2, "polygon_uuid": "90b53be9-e202-4fc6-b9af-f0d5ecb1374c", "daicho_shubetsu_cd": "FUD25", "地名地番": "関宿町久世曲輪1503", "番地": "1503", "面積": 1418, "農地識別": "A02", "手動一致フラグ": "手動一致", "検索_AreaOnRegistry": 1418, "検索_Address": "関宿町字久世曲輪1503", "検索_Tiban": "1503", "計算面積": 15, "auxiliary_storage_labeling_positionx": null, "auxiliary_storage_labeling_positiony": null, "auxiliary_storage_labeling_show": null, "auxiliary_storage_labeling_labelrotation": null, "auxiliary_storage_labeling_family": null, "auxiliary_storage_labeling_fontstyle": null, "auxiliary_storage_labeling_size": null, "auxiliary_storage_labeling_bold": null, "auxiliary_storage_labeling_italic": null, "auxiliary_storage_labeling_underline": null, "auxiliary_storage_labeling_color": null, "auxiliary_storage_labeling_strikeout": null, "auxiliary_storage_labeling_multilinealignment": null, "auxiliary_storage_labeling_buffersize": null, "auxiliary_storage_labeling_buffercolor": null, "auxiliary_storage_labeling_bufferdraw": null, "auxiliary_storage_labeling_labeldistance": null, "auxiliary_storage_labeling_hali": null, "auxiliary_storage_labeling_vali": null, "auxiliary_storage_labeling_scalevisibility": null, "auxiliary_storage_labeling_minscale": null, "auxiliary_storage_labeling_maxscale": null, "auxiliary_storage_labeling_alwaysshow": null, "auxiliary_storage_labeling_calloutdraw": null, "auxiliary_storage_labeling_labelallparts": null }, "geometry": { "type": "Polygon", "coordinates": [ [ [ 139.782242389, 36.096650832 ], [ 139.783073761999987, 36.096033056 ], [ 139.782961230000012, 36.09593368 ], [ 139.782134211, 36.096556409 ], [ 139.782242389, 36.096650832 ] ] ] } },
{ "type": "Feature", "properties": { "fid": 3, "polygon_uuid": "33af9599-d856-4d0e-8aa6-b0ceb7f956b7", "daicho_shubetsu_cd": "FUD25", "地名地番": "関宿町久世曲輪1504", "番地": "1504", "面積": 4518, "農地識別": null, "手動一致フラグ": "手動一致", "検索_AreaOnRegistry": 4518, "検索_Address": "関宿町字久世曲輪1504", "検索_Tiban": "1504", "計算面積": 46, "auxiliary_storage_labeling_positionx": null, "auxiliary_storage_labeling_positiony": null, "auxiliary_storage_labeling_show": null, "auxiliary_storage_labeling_labelrotation": null, "auxiliary_storage_labeling_family": null, "auxiliary_storage_labeling_fontstyle": null, "auxiliary_storage_labeling_size": null, "auxiliary_storage_labeling_bold": null, "auxiliary_storage_labeling_italic": null, "auxiliary_storage_labeling_underline": null, "auxiliary_storage_labeling_color": null, "auxiliary_storage_labeling_strikeout": null, "auxiliary_storage_labeling_multilinealignment": null, "auxiliary_storage_labeling_buffersize": null, "auxiliary_storage_labeling_buffercolor": null, "auxiliary_storage_labeling_bufferdraw": null, "auxiliary_storage_labeling_labeldistance": null, "auxiliary_storage_labeling_hali": null, "auxiliary_storage_labeling_vali": null, "auxiliary_storage_labeling_scalevisibility": null, "auxiliary_storage_labeling_minscale": null, "auxiliary_storage_labeling_maxscale": null, "auxiliary_storage_labeling_alwaysshow": null, "auxiliary_storage_labeling_calloutdraw": null, "auxiliary_storage_labeling_labelallparts": null }, "geometry": { "type": "Polygon", "coordinates": [ [ [ 139.782598285, 36.096943958 ], [ 139.782614442000011, 36.096938721 ], [ 139.783416007, 36.096339959 ], [ 139.783073761999987, 36.096033056 ], [ 139.782242389, 36.096650832 ], [ 139.782349657999987, 36.096744459 ], [ 139.782378739, 36.096735294 ], [ 139.782394884000013, 36.096748411 ], [ 139.782375492, 36.096761512 ], [ 139.782577287, 36.096942507 ], [ 139.782598285, 36.096943958 ] ] ] } },
{ "type": "Feature", "properties": { "fid": 4, "polygon_uuid": "7841ea7e-3117-4d04-9cc7-0f069fe0ab57", "daicho_shubetsu_cd": "FUD25", "地名地番": "関宿江戸町東1646", "番地": "1646", "面積": 1739, "農地識別": "B01", "手動一致フラグ": "手動一致", "検索_AreaOnRegistry": 1739, "検索_Address": "関宿江戸町字東1646", "検索_Tiban": "1646", "計算面積": 11, "auxiliary_storage_labeling_positionx": null, "auxiliary_storage_labeling_positiony": null, "auxiliary_storage_labeling_show": null, "auxiliary_storage_labeling_labelrotation": null, "auxiliary_storage_labeling_family": null, "auxiliary_storage_labeling_fontstyle": null, "auxiliary_storage_labeling_size": null, "auxiliary_storage_labeling_bold": null, "auxiliary_storage_labeling_italic": null, "auxiliary_storage_labeling_underline": null, "auxiliary_storage_labeling_color": null, "auxiliary_storage_labeling_strikeout": null, "auxiliary_storage_labeling_multilinealignment": null, "auxiliary_storage_labeling_buffersize": null, "auxiliary_storage_labeling_buffercolor": null, "auxiliary_storage_labeling_bufferdraw": null, "auxiliary_storage_labeling_labeldistance": null, "auxiliary_storage_labeling_hali": null, "auxiliary_storage_labeling_vali": null, "auxiliary_storage_labeling_scalevisibility": null, "auxiliary_storage_labeling_minscale": null, "auxiliary_storage_labeling_maxscale": null, "auxiliary_storage_labeling_alwaysshow": null, "auxiliary_storage_labeling_calloutdraw": null, "auxiliary_storage_labeling_labelallparts": null }, "geometry": { "type": "Polygon", "coordinates": [ [ [ 139.784292679, 36.08874133 ], [ 139.784658001999986, 36.089391472 ], [ 139.78467049, 36.089408724 ], [ 139.78468673, 36.089423948 ], [ 139.784709222, 36.089433087 ], [ 139.784737965, 36.089443244 ], [ 139.78477171, 36.089447316 ], [ 139.784790457000014, 36.089449352 ], [ 139.784805458, 36.08944733 ], [ 139.784850465, 36.089431116 ], [ 139.784403951, 36.088691665 ], [ 139.784311436, 36.088727135 ], [ 139.784292679, 36.08874133 ] ] ] } },
{ "type": "Feature", "properties": { "fid": 5, "polygon_uuid": "0aa33026-fcfe-4625-bf5c-41fed575678b", "daicho_shubetsu_cd": "FUD25", "地名地番": "関宿江戸町東1647", "番地": "1647", "面積": 1442, "農地識別": null, "手動一致フラグ": "手動一致", "検索_AreaOnRegistry": 1442, "検索_Address": "関宿江戸町字東1647", "検索_Tiban": "1647", "計算面積": 17, "auxiliary_storage_labeling_positionx": null, "auxiliary_storage_labeling_positiony": null, "auxiliary_storage_labeling_show": null, "auxiliary_storage_labeling_labelrotation": null, "auxiliary_storage_labeling_family": null, "auxiliary_storage_labeling_fontstyle": null, "auxiliary_storage_labeling_size": null, "auxiliary_storage_labeling_bold": null, "auxiliary_storage_labeling_italic": null, "auxiliary_storage_labeling_underline": null, "auxiliary_storage_labeling_color": null, "auxiliary_storage_labeling_strikeout": null, "auxiliary_storage_labeling_multilinealignment": null, "auxiliary_storage_labeling_buffersize": null, "auxiliary_storage_labeling_buffercolor": null, "auxiliary_storage_labeling_bufferdraw": null, "auxiliary_storage_labeling_labeldistance": null, "auxiliary_storage_labeling_hali": null, "auxiliary_storage_labeling_vali": null, "auxiliary_storage_labeling_scalevisibility": null, "auxiliary_storage_labeling_minscale": null, "auxiliary_storage_labeling_maxscale": null, "auxiliary_storage_labeling_alwaysshow": null, "auxiliary_storage_labeling_calloutdraw": null, "auxiliary_storage_labeling_labelallparts": null }, "geometry": { "type": "Polygon", "coordinates": [ [ [ 139.784403951, 36.088691665 ], [ 139.784850465, 36.089431116 ], [ 139.784901722, 36.08941389 ], [ 139.784929224, 36.089408829 ], [ 139.784956726, 36.089401738 ], [ 139.785027972, 36.089401767 ], [ 139.784577055999989, 36.088599148 ], [ 139.784570242, 36.088606514 ], [ 139.784562743, 36.088606511 ], [ 139.784546505, 36.088587229 ], [ 139.784397737, 36.08863485 ], [ 139.784403951, 36.088691665 ] ] ] } },
{ "type": "Feature", "properties": { "fid": 6, "polygon_uuid": "23fa481f-bee9-45f8-a7f6-68c9d6c4fc76", "daicho_shubetsu_cd": "FUD25", "地名地番": "関宿江戸町東1691-1", "番地": "1691-1", "面積": 3322, "農地識別": "B02", "手動一致フラグ": "手動一致", "検索_AreaOnRegistry": 3322, "検索_Address": "関宿江戸町字東1691-1", "検索_Tiban": "1691-1", "計算面積": 26, "auxiliary_storage_labeling_positionx": null, "auxiliary_storage_labeling_positiony": null, "auxiliary_storage_labeling_show": null, "auxiliary_storage_labeling_labelrotation": null, "auxiliary_storage_labeling_family": null, "auxiliary_storage_labeling_fontstyle": null, "auxiliary_storage_labeling_size": null, "auxiliary_storage_labeling_bold": null, "auxiliary_storage_labeling_italic": null, "auxiliary_storage_labeling_underline": null, "auxiliary_storage_labeling_color": null, "auxiliary_storage_labeling_strikeout": null, "auxiliary_storage_labeling_multilinealignment": null, "auxiliary_storage_labeling_buffersize": null, "auxiliary_storage_labeling_buffercolor": null, "auxiliary_storage_labeling_bufferdraw": null, "auxiliary_storage_labeling_labeldistance": null, "auxiliary_storage_labeling_hali": null, "auxiliary_storage_labeling_vali": null, "auxiliary_storage_labeling_scalevisibility": null, "auxiliary_storage_labeling_minscale": null, "auxiliary_storage_labeling_maxscale": null, "auxiliary_storage_labeling_alwaysshow": null, "auxiliary_storage_labeling_calloutdraw": null, "auxiliary_storage_labeling_labelallparts": null }, "geometry": { "type": "Polygon", "coordinates": [ [ [ 139.782011042919521, 36.088128410083499 ], [ 139.781848780535029, 36.087774523549676 ], [ 139.781690139, 36.087833361 ], [ 139.781491306, 36.087901133 ], [ 139.781385738000012, 36.087700008 ], [ 139.781332342000013, 36.087698452 ], [ 139.781324907, 36.087703475 ], [ 139.781355704, 36.087958836 ], [ 139.78137038700001, 36.088231279 ], [ 139.781376552000012, 36.088273504 ], [ 139.781394400000011, 36.088354985 ], [ 139.781438981, 36.088367068 ], [ 139.78180694, 36.088205876 ], [ 139.781888707, 36.088172736 ], [ 139.781938882, 36.088153154 ], [ 139.782011042919521, 36.088128410083499 ] ] ] } },
{ "type": "Feature", "properties": { "fid": 7, "polygon_uuid": "23fa481f-bee9-45f8-a7f6-68c9d6c4fc76", "daicho_shubetsu_cd": "FUD25", "地名地番": "関宿江戸町東1691-2", "番地": "1691-2", "面積": 1260, "農地識別": null, "手動一致フラグ": "手動一致", "検索_AreaOnRegistry": 1260, "検索_Address": "関宿江戸町字東1691-2", "検索_Tiban": "1691-2", "計算面積": 20, "auxiliary_storage_labeling_positionx": null, "auxiliary_storage_labeling_positiony": null, "auxiliary_storage_labeling_show": null, "auxiliary_storage_labeling_labelrotation": null, "auxiliary_storage_labeling_family": null, "auxiliary_storage_labeling_fontstyle": null, "auxiliary_storage_labeling_size": null, "auxiliary_storage_labeling_bold": null, "auxiliary_storage_labeling_italic": null, "auxiliary_storage_labeling_underline": null, "auxiliary_storage_labeling_color": null, "auxiliary_storage_labeling_strikeout": null, "auxiliary_storage_labeling_multilinealignment": null, "auxiliary_storage_labeling_buffersize": null, "auxiliary_storage_labeling_buffercolor": null, "auxiliary_storage_labeling_bufferdraw": null, "auxiliary_storage_labeling_labeldistance": null, "auxiliary_storage_labeling_hali": null, "auxiliary_storage_labeling_vali": null, "auxiliary_storage_labeling_scalevisibility": null, "auxiliary_storage_labeling_minscale": null, "auxiliary_storage_labeling_maxscale": null, "auxiliary_storage_labeling_alwaysshow": null, "auxiliary_storage_labeling_calloutdraw": null, "auxiliary_storage_labeling_labelallparts": null }, "geometry": { "type": "Polygon", "coordinates": [ [ [ 139.781848780535029, 36.087774523549676 ], [ 139.782011042919521, 36.088128410083499 ], [ 139.782035511, 36.08812002 ], [ 139.782273362000012, 36.08804774 ], [ 139.782500062999986, 36.087978471 ], [ 139.782507501, 36.087967918 ], [ 139.782303373, 36.087605922 ], [ 139.78221191, 36.087639845 ], [ 139.781848780535029, 36.087774523549676 ] ] ] } },
{ "type": "Feature", "properties": { "fid": 8, "polygon_uuid": "ad41b1c3-19c9-4767-83bd-a0e3343a0401", "daicho_shubetsu_cd": "FUD25", "地名地番": "関宿江戸町東1683", "番地": "1683", "面積": 523, "農地識別": "B03", "手動一致フラグ": "手動一致", "検索_AreaOnRegistry": 523, "検索_Address": "関宿江戸町字東1683", "検索_Tiban": "1683", "計算面積": 6, "auxiliary_storage_labeling_positionx": null, "auxiliary_storage_labeling_positiony": null, "auxiliary_storage_labeling_show": null, "auxiliary_storage_labeling_labelrotation": null, "auxiliary_storage_labeling_family": null, "auxiliary_storage_labeling_fontstyle": null, "auxiliary_storage_labeling_size": null, "auxiliary_storage_labeling_bold": null, "auxiliary_storage_labeling_italic": null, "auxiliary_storage_labeling_underline": null, "auxiliary_storage_labeling_color": null, "auxiliary_storage_labeling_strikeout": null, "auxiliary_storage_labeling_multilinealignment": null, "auxiliary_storage_labeling_buffersize": null, "auxiliary_storage_labeling_buffercolor": null, "auxiliary_storage_labeling_bufferdraw": null, "auxiliary_storage_labeling_labeldistance": null, "auxiliary_storage_labeling_hali": null, "auxiliary_storage_labeling_vali": null, "auxiliary_storage_labeling_scalevisibility": null, "auxiliary_storage_labeling_minscale": null, "auxiliary_storage_labeling_maxscale": null, "auxiliary_storage_labeling_alwaysshow": null, "auxiliary_storage_labeling_calloutdraw": null, "auxiliary_storage_labeling_labelallparts": null }, "geometry": { "type": "Polygon", "coordinates": [ [ [ 139.782034372, 36.088552521 ], [ 139.781943313999989, 36.08839676 ], [ 139.781887639, 36.088304248 ], [ 139.781845831, 36.088218779 ], [ 139.781707071, 36.088281049 ], [ 139.78187879, 36.088578692 ], [ 139.781885714, 36.088597695 ], [ 139.782034372, 36.088552521 ] ] ] } },
{ "type": "Feature", "properties": { "fid": 9, "polygon_uuid": "008af4c2-dea0-4f60-95ca-31e8bb0bd697", "daicho_shubetsu_cd": "FUD25", "地名地番": "関宿江戸町東1731", "番地": "1731", "面積": 2072, "農地識別": "B04", "手動一致フラグ": "手動一致", "検索_AreaOnRegistry": 2072, "検索_Address": "関宿江戸町字東1731", "検索_Tiban": "1731", "計算面積": 21, "auxiliary_storage_labeling_positionx": null, "auxiliary_storage_labeling_positiony": null, "auxiliary_storage_labeling_show": null, "auxiliary_storage_labeling_labelrotation": null, "auxiliary_storage_labeling_family": null, "auxiliary_storage_labeling_fontstyle": null, "auxiliary_storage_labeling_size": null, "auxiliary_storage_labeling_bold": null, "auxiliary_storage_labeling_italic": null, "auxiliary_storage_labeling_underline": null, "auxiliary_storage_labeling_color": null, "auxiliary_storage_labeling_strikeout": null, "auxiliary_storage_labeling_multilinealignment": null, "auxiliary_storage_labeling_buffersize": null, "auxiliary_storage_labeling_buffercolor": null, "auxiliary_storage_labeling_bufferdraw": null, "auxiliary_storage_labeling_labeldistance": null, "auxiliary_storage_labeling_hali": null, "auxiliary_storage_labeling_vali": null, "auxiliary_storage_labeling_scalevisibility": null, "auxiliary_storage_labeling_minscale": null, "auxiliary_storage_labeling_maxscale": null, "auxiliary_storage_labeling_alwaysshow": null, "auxiliary_storage_labeling_calloutdraw": null, "auxiliary_storage_labeling_labelallparts": null }, "geometry": { "type": "Polygon", "coordinates": [ [ [ 139.783684303, 36.086449359 ], [ 139.783903498, 36.086580946 ], [ 139.784153853, 36.086301352 ], [ 139.784163868, 36.086290167 ], [ 139.784375109, 36.086056482 ], [ 139.784406215, 36.086032586 ], [ 139.784411135, 36.086015321 ], [ 139.78440952, 36.085980786 ], [ 139.784221431, 36.085825304 ], [ 139.783684303, 36.086449359 ] ] ] } },
{ "type": "Feature", "properties": { "fid": 10, "polygon_uuid": "cb2095ab-ef0c-4ca2-997a-4ab1eb8b2c08", "daicho_shubetsu_cd": "FUD25", "地名地番": "関宿台町西六5935-1", "番地": "5935-1", "面積": 658, "農地識別": "B05", "手動一致フラグ": "手動一致", "検索_AreaOnRegistry": 658, "検索_Address": "関宿台町字西六5935-1", "検索_Tiban": "5935-1", "計算面積": 7, "auxiliary_storage_labeling_positionx": null, "auxiliary_storage_labeling_positiony": null, "auxiliary_storage_labeling_show": null, "auxiliary_storage_labeling_labelrotation": null, "auxiliary_storage_labeling_family": null, "auxiliary_storage_labeling_fontstyle": null, "auxiliary_storage_labeling_size": 1.5, "auxiliary_storage_labeling_bold": null, "auxiliary_storage_labeling_italic": null, "auxiliary_storage_labeling_underline": null, "auxiliary_storage_labeling_color": null, "auxiliary_storage_labeling_strikeout": null, "auxiliary_storage_labeling_multilinealignment": null, "auxiliary_storage_labeling_buffersize": null, "auxiliary_storage_labeling_buffercolor": null, "auxiliary_storage_labeling_bufferdraw": null, "auxiliary_storage_labeling_labeldistance": null, "auxiliary_storage_labeling_hali": null, "auxiliary_storage_labeling_vali": null, "auxiliary_storage_labeling_scalevisibility": null, "auxiliary_storage_labeling_minscale": null, "auxiliary_storage_labeling_maxscale": null, "auxiliary_storage_labeling_alwaysshow": null, "auxiliary_storage_labeling_calloutdraw": null, "auxiliary_storage_labeling_labelallparts": null }, "geometry": { "type": "Polygon", "coordinates": [ [ [ 139.786017006990079, 36.084199573950826 ], [ 139.785694388179849, 36.084123663642529 ], [ 139.785616785, 36.084324074 ], [ 139.785928317000014, 36.084409064 ], [ 139.786017006990079, 36.084199573950826 ] ] ] } },
{ "type": "Feature", "properties": { "fid": 11, "polygon_uuid": "cb2095ab-ef0c-4ca2-997a-4ab1eb8b2c08", "daicho_shubetsu_cd": "FUD25", "地名地番": "関宿台町西六5935-2", "番地": "5935-2", "面積": 471, "農地識別": null, "手動一致フラグ": "手動一致", "検索_AreaOnRegistry": 471, "検索_Address": "関宿台町字西六5935-2", "検索_Tiban": "5935-2", "計算面積": 6, "auxiliary_storage_labeling_positionx": null, "auxiliary_storage_labeling_positiony": null, "auxiliary_storage_labeling_show": null, "auxiliary_storage_labeling_labelrotation": null, "auxiliary_storage_labeling_family": null, "auxiliary_storage_labeling_fontstyle": null, "auxiliary_storage_labeling_size": 1.5, "auxiliary_storage_labeling_bold": null, "auxiliary_storage_labeling_italic": null, "auxiliary_storage_labeling_underline": null, "auxiliary_storage_labeling_color": null, "auxiliary_storage_labeling_strikeout": null, "auxiliary_storage_labeling_multilinealignment": null, "auxiliary_storage_labeling_buffersize": null, "auxiliary_storage_labeling_buffercolor": null, "auxiliary_storage_labeling_bufferdraw": null, "auxiliary_storage_labeling_labeldistance": null, "auxiliary_storage_labeling_hali": null, "auxiliary_storage_labeling_vali": null, "auxiliary_storage_labeling_scalevisibility": null, "auxiliary_storage_labeling_minscale": null, "auxiliary_storage_labeling_maxscale": null, "auxiliary_storage_labeling_alwaysshow": null, "auxiliary_storage_labeling_calloutdraw": null, "auxiliary_storage_labeling_labelallparts": null }, "geometry": { "type": "Polygon", "coordinates": [ [ [ 139.786092251805229, 36.084021842055577 ], [ 139.785764615258273, 36.083942302080793 ], [ 139.785694388179849, 36.084123663642529 ], [ 139.786017006990079, 36.084199573950826 ], [ 139.786092251805229, 36.084021842055577 ] ] ] } },
{ "type": "Feature", "properties": { "fid": 12, "polygon_uuid": "cb2095ab-ef0c-4ca2-997a-4ab1eb8b2c08", "daicho_shubetsu_cd": "FUD25", "地名地番": "関宿台町西六5935-3", "番地": "5935-3", "面積": 971, "農地識別": null, "手動一致フラグ": "手動一致", "検索_AreaOnRegistry": 971, "検索_Address": "関宿台町字西六5935-3", "検索_Tiban": "5935-3", "計算面積": 8, "auxiliary_storage_labeling_positionx": null, "auxiliary_storage_labeling_positiony": null, "auxiliary_storage_labeling_show": null, "auxiliary_storage_labeling_labelrotation": null, "auxiliary_storage_labeling_family": null, "auxiliary_storage_labeling_fontstyle": null, "auxiliary_storage_labeling_size": 1.5, "auxiliary_storage_labeling_bold": null, "auxiliary_storage_labeling_italic": null, "auxiliary_storage_labeling_underline": null, "auxiliary_storage_labeling_color": null, "auxiliary_storage_labeling_strikeout": null, "auxiliary_storage_labeling_multilinealignment": null, "auxiliary_storage_labeling_buffersize": null, "auxiliary_storage_labeling_buffercolor": null, "auxiliary_storage_labeling_bufferdraw": null, "auxiliary_storage_labeling_labeldistance": null, "auxiliary_storage_labeling_hali": null, "auxiliary_storage_labeling_vali": null, "auxiliary_storage_labeling_scalevisibility": null, "auxiliary_storage_labeling_minscale": null, "auxiliary_storage_labeling_maxscale": null, "auxiliary_storage_labeling_alwaysshow": null, "auxiliary_storage_labeling_calloutdraw": null, "auxiliary_storage_labeling_labelallparts": null }, "geometry": { "type": "Polygon", "coordinates": [ [ [ 139.785764615258273, 36.083942302080793 ], [ 139.786092251805229, 36.084021842055577 ], [ 139.786178151, 36.083818944 ], [ 139.785848707000014, 36.083725135 ], [ 139.785764615258273, 36.083942302080793 ] ] ] } },
{ "type": "Feature", "properties": { "fid": 13, "polygon_uuid": "3f11ff32-3ae0-4ca1-8a7e-f8d7d81285df", "daicho_shubetsu_cd": "FUD25", "地名地番": "関宿台町西六5936-1", "番地": "5936-1", "面積": 392, "農地識別": null, "手動一致フラグ": "手動一致", "検索_AreaOnRegistry": 392, "検索_Address": "関宿台町字西六5936-1", "検索_Tiban": "5936-1", "計算面積": 4, "auxiliary_storage_labeling_positionx": null, "auxiliary_storage_labeling_positiony": null, "auxiliary_storage_labeling_show": null, "auxiliary_storage_labeling_labelrotation": null, "auxiliary_storage_labeling_family": null, "auxiliary_storage_labeling_fontstyle": null, "auxiliary_storage_labeling_size": 1.5, "auxiliary_storage_labeling_bold": null, "auxiliary_storage_labeling_italic": null, "auxiliary_storage_labeling_underline": null, "auxiliary_storage_labeling_color": null, "auxiliary_storage_labeling_strikeout": null, "auxiliary_storage_labeling_multilinealignment": null, "auxiliary_storage_labeling_buffersize": null, "auxiliary_storage_labeling_buffercolor": null, "auxiliary_storage_labeling_bufferdraw": null, "auxiliary_storage_labeling_labeldistance": null, "auxiliary_storage_labeling_hali": null, "auxiliary_storage_labeling_vali": null, "auxiliary_storage_labeling_scalevisibility": null, "auxiliary_storage_labeling_minscale": null, "auxiliary_storage_labeling_maxscale": null, "auxiliary_storage_labeling_alwaysshow": null, "auxiliary_storage_labeling_calloutdraw": null, "auxiliary_storage_labeling_labelallparts": null }, "geometry": { "type": "Polygon", "coordinates": [ [ [ 139.786171276800928, 36.084235872729842 ], [ 139.786017006990079, 36.084199573950826 ], [ 139.785928317000014, 36.084409064 ], [ 139.786082744, 36.084447624 ], [ 139.786171276800928, 36.084235872729842 ] ] ] } },
{ "type": "Feature", "properties": { "fid": 14, "polygon_uuid": "3f11ff32-3ae0-4ca1-8a7e-f8d7d81285df", "daicho_shubetsu_cd": "FUD25", "地名地番": "関宿台町西六5936-2", "番地": "5936-2", "面積": 231, "農地識別": null, "手動一致フラグ": "手動一致", "検索_AreaOnRegistry": 231, "検索_Address": "関宿台町字西六5936-2", "検索_Tiban": "5936-2", "計算面積": 3, "auxiliary_storage_labeling_positionx": null, "auxiliary_storage_labeling_positiony": null, "auxiliary_storage_labeling_show": null, "auxiliary_storage_labeling_labelrotation": null, "auxiliary_storage_labeling_family": null, "auxiliary_storage_labeling_fontstyle": null, "auxiliary_storage_labeling_size": 1.5, "auxiliary_storage_labeling_bold": null, "auxiliary_storage_labeling_italic": null, "auxiliary_storage_labeling_underline": null, "auxiliary_storage_labeling_color": null, "auxiliary_storage_labeling_strikeout": null, "auxiliary_storage_labeling_multilinealignment": null, "auxiliary_storage_labeling_buffersize": null, "auxiliary_storage_labeling_buffercolor": null, "auxiliary_storage_labeling_bufferdraw": null, "auxiliary_storage_labeling_labeldistance": null, "auxiliary_storage_labeling_hali": null, "auxiliary_storage_labeling_vali": null, "auxiliary_storage_labeling_scalevisibility": null, "auxiliary_storage_labeling_minscale": null, "auxiliary_storage_labeling_maxscale": null, "auxiliary_storage_labeling_alwaysshow": null, "auxiliary_storage_labeling_calloutdraw": null, "auxiliary_storage_labeling_labelallparts": null }, "geometry": { "type": "Polygon", "coordinates": [ [ [ 139.786245234668172, 36.084058981541915 ], [ 139.786092251805229, 36.084021842055577 ], [ 139.786017006990079, 36.084199573950826 ], [ 139.786171276800928, 36.084235872729842 ], [ 139.786245234668172, 36.084058981541915 ] ] ] } },
{ "type": "Feature", "properties": { "fid": 15, "polygon_uuid": "3f11ff32-3ae0-4ca1-8a7e-f8d7d81285df", "daicho_shubetsu_cd": "FUD25", "地名地番": "関宿台町西六5936-3", "番地": "5936-3", "面積": 417, "農地識別": null, "手動一致フラグ": "手動一致", "検索_AreaOnRegistry": 417, "検索_Address": "関宿台町字西六5936-3", "検索_Tiban": "5936-3", "計算面積": 3, "auxiliary_storage_labeling_positionx": null, "auxiliary_storage_labeling_positiony": null, "auxiliary_storage_labeling_show": null, "auxiliary_storage_labeling_labelrotation": null, "auxiliary_storage_labeling_family": null, "auxiliary_storage_labeling_fontstyle": null, "auxiliary_storage_labeling_size": 1.5, "auxiliary_storage_labeling_bold": null, "auxiliary_storage_labeling_italic": null, "auxiliary_storage_labeling_underline": null, "auxiliary_storage_labeling_color": null, "auxiliary_storage_labeling_strikeout": null, "auxiliary_storage_labeling_multilinealignment": null, "auxiliary_storage_labeling_buffersize": null, "auxiliary_storage_labeling_buffercolor": null, "auxiliary_storage_labeling_bufferdraw": null, "auxiliary_storage_labeling_labeldistance": null, "auxiliary_storage_labeling_hali": null, "auxiliary_storage_labeling_vali": null, "auxiliary_storage_labeling_scalevisibility": null, "auxiliary_storage_labeling_minscale": null, "auxiliary_storage_labeling_maxscale": null, "auxiliary_storage_labeling_alwaysshow": null, "auxiliary_storage_labeling_calloutdraw": null, "auxiliary_storage_labeling_labelallparts": null }, "geometry": { "type": "Polygon", "coordinates": [ [ [ 139.786092251805229, 36.084021842055577 ], [ 139.786245234668172, 36.084058981541915 ], [ 139.78632778, 36.083861551 ], [ 139.786178151, 36.083818944 ], [ 139.786092251805229, 36.084021842055577 ] ] ] } },
{ "type": "Feature", "properties": { "fid": 16, "polygon_uuid": "e0cbc69c-9132-47b1-9ed3-8d4a411d989b", "daicho_shubetsu_cd": "FUD25", "地名地番": "関宿台町西六5937-1", "番地": "5937-1", "面積": 448, "農地識別": null, "手動一致フラグ": "手動一致", "検索_AreaOnRegistry": 448, "検索_Address": "関宿台町字西六5937-1", "検索_Tiban": "5937-1", "計算面積": 4, "auxiliary_storage_labeling_positionx": null, "auxiliary_storage_labeling_positiony": null, "auxiliary_storage_labeling_show": null, "auxiliary_storage_labeling_labelrotation": null, "auxiliary_storage_labeling_family": null, "auxiliary_storage_labeling_fontstyle": null, "auxiliary_storage_labeling_size": 1.5, "auxiliary_storage_labeling_bold": null, "auxiliary_storage_labeling_italic": null, "auxiliary_storage_labeling_underline": null, "auxiliary_storage_labeling_color": null, "auxiliary_storage_labeling_strikeout": null, "auxiliary_storage_labeling_multilinealignment": null, "auxiliary_storage_labeling_buffersize": null, "auxiliary_storage_labeling_buffercolor": null, "auxiliary_storage_labeling_bufferdraw": null, "auxiliary_storage_labeling_labeldistance": null, "auxiliary_storage_labeling_hali": null, "auxiliary_storage_labeling_vali": null, "auxiliary_storage_labeling_scalevisibility": null, "auxiliary_storage_labeling_minscale": null, "auxiliary_storage_labeling_maxscale": null, "auxiliary_storage_labeling_alwaysshow": null, "auxiliary_storage_labeling_calloutdraw": null, "auxiliary_storage_labeling_labelallparts": null }, "geometry": { "type": "Polygon", "coordinates": [ [ [ 139.786332793555601, 36.084273876672128 ], [ 139.786171276800928, 36.084235872729842 ], [ 139.786082744, 36.084447624 ], [ 139.786243248, 36.084491121 ], [ 139.786332793555601, 36.084273876672128 ] ] ] } },
{ "type": "Feature", "properties": { "fid": 17, "polygon_uuid": "e0cbc69c-9132-47b1-9ed3-8d4a411d989b", "daicho_shubetsu_cd": "FUD25", "地名地番": "関宿台町西六5937-2", "番地": "5937-2", "面積": 235, "農地識別": null, "手動一致フラグ": "手動一致", "検索_AreaOnRegistry": 235, "検索_Address": "関宿台町字西六5937-2", "検索_Tiban": "5937-2", "計算面積": 3, "auxiliary_storage_labeling_positionx": null, "auxiliary_storage_labeling_positiony": null, "auxiliary_storage_labeling_show": null, "auxiliary_storage_labeling_labelrotation": null, "auxiliary_storage_labeling_family": null, "auxiliary_storage_labeling_fontstyle": null, "auxiliary_storage_labeling_size": 1.5, "auxiliary_storage_labeling_bold": null, "auxiliary_storage_labeling_italic": null, "auxiliary_storage_labeling_underline": null, "auxiliary_storage_labeling_color": null, "auxiliary_storage_labeling_strikeout": null, "auxiliary_storage_labeling_multilinealignment": null, "auxiliary_storage_labeling_buffersize": null, "auxiliary_storage_labeling_buffercolor": null, "auxiliary_storage_labeling_bufferdraw": null, "auxiliary_storage_labeling_labeldistance": null, "auxiliary_storage_labeling_hali": null, "auxiliary_storage_labeling_vali": null, "auxiliary_storage_labeling_scalevisibility": null, "auxiliary_storage_labeling_minscale": null, "auxiliary_storage_labeling_maxscale": null, "auxiliary_storage_labeling_alwaysshow": null, "auxiliary_storage_labeling_calloutdraw": null, "auxiliary_storage_labeling_labelallparts": null }, "geometry": { "type": "Polygon", "coordinates": [ [ [ 139.786405348744751, 36.08409785226538 ], [ 139.786245234668172, 36.084058981541915 ], [ 139.786171276800928, 36.084235872729842 ], [ 139.786332793555601, 36.084273876672128 ], [ 139.786405348744751, 36.08409785226538 ] ] ] } },
{ "type": "Feature", "properties": { "fid": 18, "polygon_uuid": "e0cbc69c-9132-47b1-9ed3-8d4a411d989b", "daicho_shubetsu_cd": "FUD25", "地名地番": "関宿台町西六5937-3", "番地": "5937-3", "面積": 377, "農地識別": null, "手動一致フラグ": "手動一致", "検索_AreaOnRegistry": 377, "検索_Address": "関宿台町字西六5937-3", "検索_Tiban": "5937-3", "計算面積": 3, "auxiliary_storage_labeling_positionx": null, "auxiliary_storage_labeling_positiony": null, "auxiliary_storage_labeling_show": null, "auxiliary_storage_labeling_labelrotation": null, "auxiliary_storage_labeling_family": null, "auxiliary_storage_labeling_fontstyle": null, "auxiliary_storage_labeling_size": 1.5, "auxiliary_storage_labeling_bold": null, "auxiliary_storage_labeling_italic": null, "auxiliary_storage_labeling_underline": null, "auxiliary_storage_labeling_color": null, "auxiliary_storage_labeling_strikeout": null, "auxiliary_storage_labeling_multilinealignment": null, "auxiliary_storage_labeling_buffersize": null, "auxiliary_storage_labeling_buffercolor": null, "auxiliary_storage_labeling_bufferdraw": null, "auxiliary_storage_labeling_labeldistance": null, "auxiliary_storage_labeling_hali": null, "auxiliary_storage_labeling_vali": null, "auxiliary_storage_labeling_scalevisibility": null, "auxiliary_storage_labeling_minscale": null, "auxiliary_storage_labeling_maxscale": null, "auxiliary_storage_labeling_alwaysshow": null, "auxiliary_storage_labeling_calloutdraw": null, "auxiliary_storage_labeling_labelallparts": null }, "geometry": { "type": "Polygon", "coordinates": [ [ [ 139.786245234668172, 36.084058981541915 ], [ 139.786405348744751, 36.08409785226538 ], [ 139.786473674, 36.08393209 ], [ 139.786481152, 36.083903062 ], [ 139.78632778, 36.083861551 ], [ 139.786245234668172, 36.084058981541915 ] ] ] } },
{ "type": "Feature", "properties": { "fid": 19, "polygon_uuid": "f644b6a2-8ef5-4a8e-aa61-f98b156bbd76", "daicho_shubetsu_cd": "FUD25", "地名地番": "関宿台町西六5938-1", "番地": "5938-1", "面積": 441, "農地識別": null, "手動一致フラグ": "手動一致", "検索_AreaOnRegistry": 441, "検索_Address": "関宿台町字西六5938-1", "検索_Tiban": "5938-1", "計算面積": 3, "auxiliary_storage_labeling_positionx": null, "auxiliary_storage_labeling_positiony": null, "auxiliary_storage_labeling_show": null, "auxiliary_storage_labeling_labelrotation": null, "auxiliary_storage_labeling_family": null, "auxiliary_storage_labeling_fontstyle": null, "auxiliary_storage_labeling_size": 1.5, "auxiliary_storage_labeling_bold": null, "auxiliary_storage_labeling_italic": null, "auxiliary_storage_labeling_underline": null, "auxiliary_storage_labeling_color": null, "auxiliary_storage_labeling_strikeout": null, "auxiliary_storage_labeling_multilinealignment": null, "auxiliary_storage_labeling_buffersize": null, "auxiliary_storage_labeling_buffercolor": null, "auxiliary_storage_labeling_bufferdraw": null, "auxiliary_storage_labeling_labeldistance": null, "auxiliary_storage_labeling_hali": null, "auxiliary_storage_labeling_vali": null, "auxiliary_storage_labeling_scalevisibility": null, "auxiliary_storage_labeling_minscale": null, "auxiliary_storage_labeling_maxscale": null, "auxiliary_storage_labeling_alwaysshow": null, "auxiliary_storage_labeling_calloutdraw": null, "auxiliary_storage_labeling_labelallparts": null }, "geometry": { "type": "Polygon", "coordinates": [ [ [ 139.786372174494318, 36.084526853723183 ], [ 139.786461903972821, 36.084304255593821 ], [ 139.786332793555601, 36.084273876672128 ], [ 139.786243248, 36.084491121 ], [ 139.786372174494318, 36.084526853723183 ] ] ] } },
{ "type": "Feature", "properties": { "fid": 20, "polygon_uuid": "f644b6a2-8ef5-4a8e-aa61-f98b156bbd76", "daicho_shubetsu_cd": "FUD25", "地名地番": "関宿台町西六5938-2", "番地": "5938-2", "面積": 290, "農地識別": null, "手動一致フラグ": "手動一致", "検索_AreaOnRegistry": 290, "検索_Address": "関宿台町字西六5938-2", "検索_Tiban": "5938-2", "計算面積": 4, "auxiliary_storage_labeling_positionx": null, "auxiliary_storage_labeling_positiony": null, "auxiliary_storage_labeling_show": null, "auxiliary_storage_labeling_labelrotation": null, "auxiliary_storage_labeling_family": null, "auxiliary_storage_labeling_fontstyle": null, "auxiliary_storage_labeling_size": 1.5, "auxiliary_storage_labeling_bold": null, "auxiliary_storage_labeling_italic": null, "auxiliary_storage_labeling_underline": null, "auxiliary_storage_labeling_color": null, "auxiliary_storage_labeling_strikeout": null, "auxiliary_storage_labeling_multilinealignment": null, "auxiliary_storage_labeling_buffersize": null, "auxiliary_storage_labeling_buffercolor": null, "auxiliary_storage_labeling_bufferdraw": null, "auxiliary_storage_labeling_labeldistance": null, "auxiliary_storage_labeling_hali": null, "auxiliary_storage_labeling_vali": null, "auxiliary_storage_labeling_scalevisibility": null, "auxiliary_storage_labeling_minscale": null, "auxiliary_storage_labeling_maxscale": null, "auxiliary_storage_labeling_alwaysshow": null, "auxiliary_storage_labeling_calloutdraw": null, "auxiliary_storage_labeling_labelallparts": null }, "geometry": { "type": "Polygon", "coordinates": [ [ [ 139.786622546104923, 36.084150581036667 ], [ 139.786405348744751, 36.08409785226538 ], [ 139.786332793555601, 36.084273876672128 ], [ 139.786550411013963, 36.084325080779976 ], [ 139.786622546104923, 36.084150581036667 ] ] ] } },
{ "type": "Feature", "properties": { "fid": 21, "polygon_uuid": "f644b6a2-8ef5-4a8e-aa61-f98b156bbd76", "daicho_shubetsu_cd": "FUD25", "地名地番": "関宿台町西六5938-3", "番地": "5938-3", "面積": 440, "農地識別": null, "手動一致フラグ": "手動一致", "検索_AreaOnRegistry": 440, "検索_Address": "関宿台町字西六5938-3", "検索_Tiban": "5938-3", "計算面積": 5, "auxiliary_storage_labeling_positionx": null, "auxiliary_storage_labeling_positiony": null, "auxiliary_storage_labeling_show": null, "auxiliary_storage_labeling_labelrotation": null, "auxiliary_storage_labeling_family": null, "auxiliary_storage_labeling_fontstyle": null, "auxiliary_storage_labeling_size": 1.5, "auxiliary_storage_labeling_bold": null, "auxiliary_storage_labeling_italic": null, "auxiliary_storage_labeling_underline": null, "auxiliary_storage_labeling_color": null, "auxiliary_storage_labeling_strikeout": null, "auxiliary_storage_labeling_multilinealignment": null, "auxiliary_storage_labeling_buffersize": null, "auxiliary_storage_labeling_buffercolor": null, "auxiliary_storage_labeling_bufferdraw": null, "auxiliary_storage_labeling_labeldistance": null, "auxiliary_storage_labeling_hali": null, "auxiliary_storage_labeling_vali": null, "auxiliary_storage_labeling_scalevisibility": null, "auxiliary_storage_labeling_minscale": null, "auxiliary_storage_labeling_maxscale": null, "auxiliary_storage_labeling_alwaysshow": null, "auxiliary_storage_labeling_calloutdraw": null, "auxiliary_storage_labeling_labelallparts": null }, "geometry": { "type": "Polygon", "coordinates": [ [ [ 139.786405348744751, 36.08409785226538 ], [ 139.786622546104923, 36.084150581036667 ], [ 139.786700343, 36.083962385 ], [ 139.786481152, 36.083903062 ], [ 139.786473674, 36.08393209 ], [ 139.786405348744751, 36.08409785226538 ] ] ] } },
{ "type": "Feature", "properties": { "fid": 22, "polygon_uuid": "f644b6a2-8ef5-4a8e-aa61-f98b156bbd76", "daicho_shubetsu_cd": "FUD25", "地名地番": "関宿台町西六5939", "番地": "5939", "面積": 229, "農地識別": null, "手動一致フラグ": "手動一致", "検索_AreaOnRegistry": 229, "検索_Address": "関宿台町字西六5939", "検索_Tiban": "5939", "計算面積": 2, "auxiliary_storage_labeling_positionx": null, "auxiliary_storage_labeling_positiony": null, "auxiliary_storage_labeling_show": null, "auxiliary_storage_labeling_labelrotation": null, "auxiliary_storage_labeling_family": null, "auxiliary_storage_labeling_fontstyle": null, "auxiliary_storage_labeling_size": 1.5, "auxiliary_storage_labeling_bold": null, "auxiliary_storage_labeling_italic": null, "auxiliary_storage_labeling_underline": null, "auxiliary_storage_labeling_color": null, "auxiliary_storage_labeling_strikeout": null, "auxiliary_storage_labeling_multilinealignment": null, "auxiliary_storage_labeling_buffersize": null, "auxiliary_storage_labeling_buffercolor": null, "auxiliary_storage_labeling_bufferdraw": null, "auxiliary_storage_labeling_labeldistance": null, "auxiliary_storage_labeling_hali": null, "auxiliary_storage_labeling_vali": null, "auxiliary_storage_labeling_scalevisibility": null, "auxiliary_storage_labeling_minscale": null, "auxiliary_storage_labeling_maxscale": null, "auxiliary_storage_labeling_alwaysshow": null, "auxiliary_storage_labeling_calloutdraw": null, "auxiliary_storage_labeling_labelallparts": null }, "geometry": { "type": "Polygon", "coordinates": [ [ [ 139.786461903972821, 36.084304255593821 ], [ 139.786372174494318, 36.084526853723183 ], [ 139.786457254, 36.084550434 ], [ 139.786550411013963, 36.084325080779976 ], [ 139.786461903972821, 36.084304255593821 ] ] ] } },
{ "type": "Feature", "properties": { "fid": 23, "polygon_uuid": "de4166c2-346e-4990-8834-3e8877c00e7e", "daicho_shubetsu_cd": "FUD25", "地名地番": "関宿台町西六5940-1", "番地": "5940-1", "面積": 348, "農地識別": "B06", "手動一致フラグ": "手動一致", "検索_AreaOnRegistry": 348, "検索_Address": "関宿台町字西六5940-1", "検索_Tiban": "5940-1", "計算面積": 2, "auxiliary_storage_labeling_positionx": null, "auxiliary_storage_labeling_positiony": null, "auxiliary_storage_labeling_show": null, "auxiliary_storage_labeling_labelrotation": null, "auxiliary_storage_labeling_family": null, "auxiliary_storage_labeling_fontstyle": null, "auxiliary_storage_labeling_size": 1.5, "auxiliary_storage_labeling_bold": null, "auxiliary_storage_labeling_italic": null, "auxiliary_storage_labeling_underline": null, "auxiliary_storage_labeling_color": null, "auxiliary_storage_labeling_strikeout": null, "auxiliary_storage_labeling_multilinealignment": null, "auxiliary_storage_labeling_buffersize": null, "auxiliary_storage_labeling_buffercolor": null, "auxiliary_storage_labeling_bufferdraw": null, "auxiliary_storage_labeling_labeldistance": null, "auxiliary_storage_labeling_hali": null, "auxiliary_storage_labeling_vali": null, "auxiliary_storage_labeling_scalevisibility": null, "auxiliary_storage_labeling_minscale": null, "auxiliary_storage_labeling_maxscale": null, "auxiliary_storage_labeling_alwaysshow": null, "auxiliary_storage_labeling_calloutdraw": null, "auxiliary_storage_labeling_labelallparts": null }, "geometry": { "type": "Polygon", "coordinates": [ [ [ 139.786652466716021, 36.084349093886338 ], [ 139.786550411013963, 36.084325080779976 ], [ 139.786457254, 36.084550434 ], [ 139.786486438, 36.084555381 ], [ 139.786514406, 36.084562302 ], [ 139.786535077999986, 36.084565272 ], [ 139.786563049, 36.08456627 ], [ 139.786652466716021, 36.084349093886338 ] ] ] } },
{ "type": "Feature", "properties": { "fid": 24, "polygon_uuid": "de4166c2-346e-4990-8834-3e8877c00e7e", "daicho_shubetsu_cd": "FUD25", "地名地番": "関宿台町西六5940-2", "番地": "5940-2", "面積": 150, "農地識別": null, "手動一致フラグ": "手動一致", "検索_AreaOnRegistry": 150, "検索_Address": "関宿台町字西六5940-2", "検索_Tiban": "5940-2", "計算面積": 2, "auxiliary_storage_labeling_positionx": null, "auxiliary_storage_labeling_positiony": null, "auxiliary_storage_labeling_show": null, "auxiliary_storage_labeling_labelrotation": null, "auxiliary_storage_labeling_family": null, "auxiliary_storage_labeling_fontstyle": null, "auxiliary_storage_labeling_size": 1.5, "auxiliary_storage_labeling_bold": null, "auxiliary_storage_labeling_italic": null, "auxiliary_storage_labeling_underline": null, "auxiliary_storage_labeling_color": null, "auxiliary_storage_labeling_strikeout": null, "auxiliary_storage_labeling_multilinealignment": null, "auxiliary_storage_labeling_buffersize": null, "auxiliary_storage_labeling_buffercolor": null, "auxiliary_storage_labeling_bufferdraw": null, "auxiliary_storage_labeling_labeldistance": null, "auxiliary_storage_labeling_hali": null, "auxiliary_storage_labeling_vali": null, "auxiliary_storage_labeling_scalevisibility": null, "auxiliary_storage_labeling_minscale": null, "auxiliary_storage_labeling_maxscale": null, "auxiliary_storage_labeling_alwaysshow": null, "auxiliary_storage_labeling_calloutdraw": null, "auxiliary_storage_labeling_labelallparts": null }, "geometry": { "type": "Polygon", "coordinates": [ [ [ 139.786724054, 36.084175224 ], [ 139.786622546104923, 36.084150581036667 ], [ 139.786550411013963, 36.084325080779976 ], [ 139.786652466716021, 36.084349093886338 ], [ 139.786724054, 36.084175224 ] ] ] } },
{ "type": "Feature", "properties": { "fid": 25, "polygon_uuid": "de4166c2-346e-4990-8834-3e8877c00e7e", "daicho_shubetsu_cd": "FUD25", "地名地番": "関宿台町西六5940-3", "番地": "5940-3", "面積": 202, "農地識別": null, "手動一致フラグ": "手動一致", "検索_AreaOnRegistry": 202, "検索_Address": "関宿台町字西六5940-3", "検索_Tiban": "5940-3", "計算面積": 2, "auxiliary_storage_labeling_positionx": null, "auxiliary_storage_labeling_positiony": null, "auxiliary_storage_labeling_show": null, "auxiliary_storage_labeling_labelrotation": null, "auxiliary_storage_labeling_family": null, "auxiliary_storage_labeling_fontstyle": null, "auxiliary_storage_labeling_size": 1.5, "auxiliary_storage_labeling_bold": null, "auxiliary_storage_labeling_italic": null, "auxiliary_storage_labeling_underline": null, "auxiliary_storage_labeling_color": null, "auxiliary_storage_labeling_strikeout": null, "auxiliary_storage_labeling_multilinealignment": null, "auxiliary_storage_labeling_buffersize": null, "auxiliary_storage_labeling_buffercolor": null, "auxiliary_storage_labeling_bufferdraw": null, "auxiliary_storage_labeling_labeldistance": null, "auxiliary_storage_labeling_hali": null, "auxiliary_storage_labeling_vali": null, "auxiliary_storage_labeling_scalevisibility": null, "auxiliary_storage_labeling_minscale": null, "auxiliary_storage_labeling_maxscale": null, "auxiliary_storage_labeling_alwaysshow": null, "auxiliary_storage_labeling_calloutdraw": null, "auxiliary_storage_labeling_labelallparts": null }, "geometry": { "type": "Polygon", "coordinates": [ [ [ 139.786622546104923, 36.084150581036667 ], [ 139.786724054, 36.084175224 ], [ 139.786806127, 36.083995989 ], [ 139.786700343, 36.083962385 ], [ 139.786622546104923, 36.084150581036667 ] ] ] } },
{ "type": "Feature", "properties": { "fid": 26, "polygon_uuid": "6ca6704d-23aa-486a-b3d1-4f49f51d144f", "daicho_shubetsu_cd": "FUD25", "地名地番": "関宿台町西六5941-1", "番地": "5941-1", "面積": 1187, "農地識別": null, "手動一致フラグ": "手動一致", "検索_AreaOnRegistry": 1187, "検索_Address": "関宿台町字西六5941-1", "検索_Tiban": "5941-1", "計算面積": 8, "auxiliary_storage_labeling_positionx": null, "auxiliary_storage_labeling_positiony": null, "auxiliary_storage_labeling_show": null, "auxiliary_storage_labeling_labelrotation": null, "auxiliary_storage_labeling_family": null, "auxiliary_storage_labeling_fontstyle": null, "auxiliary_storage_labeling_size": null, "auxiliary_storage_labeling_bold": null, "auxiliary_storage_labeling_italic": null, "auxiliary_storage_labeling_underline": null, "auxiliary_storage_labeling_color": null, "auxiliary_storage_labeling_strikeout": null, "auxiliary_storage_labeling_multilinealignment": null, "auxiliary_storage_labeling_buffersize": null, "auxiliary_storage_labeling_buffercolor": null, "auxiliary_storage_labeling_bufferdraw": null, "auxiliary_storage_labeling_labeldistance": null, "auxiliary_storage_labeling_hali": null, "auxiliary_storage_labeling_vali": null, "auxiliary_storage_labeling_scalevisibility": null, "auxiliary_storage_labeling_minscale": null, "auxiliary_storage_labeling_maxscale": null, "auxiliary_storage_labeling_alwaysshow": null, "auxiliary_storage_labeling_calloutdraw": null, "auxiliary_storage_labeling_labelallparts": null }, "geometry": { "type": "Polygon", "coordinates": [ [ [ 139.786970026940537, 36.084427317064467 ], [ 139.786652466716021, 36.084349093886338 ], [ 139.786563049, 36.08456627 ], [ 139.786565474000014, 36.08457713 ], [ 139.786869462, 36.084659181 ], [ 139.786970026940537, 36.084427317064467 ] ] ] } },
{ "type": "Feature", "properties": { "fid": 27, "polygon_uuid": "6ca6704d-23aa-486a-b3d1-4f49f51d144f", "daicho_shubetsu_cd": "FUD25", "地名地番": "関宿台町西六5941-2", "番地": "5941-2", "面積": 385, "農地識別": null, "手動一致フラグ": "手動一致", "検索_AreaOnRegistry": 385, "検索_Address": "関宿台町字西六5941-2", "検索_Tiban": "5941-2", "計算面積": 6, "auxiliary_storage_labeling_positionx": null, "auxiliary_storage_labeling_positiony": null, "auxiliary_storage_labeling_show": null, "auxiliary_storage_labeling_labelrotation": null, "auxiliary_storage_labeling_family": null, "auxiliary_storage_labeling_fontstyle": null, "auxiliary_storage_labeling_size": null, "auxiliary_storage_labeling_bold": null, "auxiliary_storage_labeling_italic": null, "auxiliary_storage_labeling_underline": null, "auxiliary_storage_labeling_color": null, "auxiliary_storage_labeling_strikeout": null, "auxiliary_storage_labeling_multilinealignment": null, "auxiliary_storage_labeling_buffersize": null, "auxiliary_storage_labeling_buffercolor": null, "auxiliary_storage_labeling_bufferdraw": null, "auxiliary_storage_labeling_labeldistance": null, "auxiliary_storage_labeling_hali": null, "auxiliary_storage_labeling_vali": null, "auxiliary_storage_labeling_scalevisibility": null, "auxiliary_storage_labeling_minscale": null, "auxiliary_storage_labeling_maxscale": null, "auxiliary_storage_labeling_alwaysshow": null, "auxiliary_storage_labeling_calloutdraw": null, "auxiliary_storage_labeling_labelallparts": null }, "geometry": { "type": "Polygon", "coordinates": [ [ [ 139.786652466716021, 36.084349093886338 ], [ 139.786970026940537, 36.084427317064467 ], [ 139.787017733999988, 36.084317323 ], [ 139.787002953000012, 36.084315211 ], [ 139.78700421100001, 36.084244138 ], [ 139.786975027000011, 36.084238894 ], [ 139.786724054, 36.084175224 ], [ 139.786652466716021, 36.084349093886338 ] ] ] } },
{ "type": "Feature", "properties": { "fid": 28, "polygon_uuid": "c89cc783-106e-4900-aa8e-fd00be442c2c", "daicho_shubetsu_cd": "FUD25", "地名地番": "関宿台町西六5941-3", "番地": "5941-3", "面積": 449, "農地識別": null, "手動一致フラグ": "手動一致", "検索_AreaOnRegistry": 449, "検索_Address": "関宿台町字西六5941-3", "検索_Tiban": "5941-3", "計算面積": 6, "auxiliary_storage_labeling_positionx": null, "auxiliary_storage_labeling_positiony": null, "auxiliary_storage_labeling_show": null, "auxiliary_storage_labeling_labelrotation": null, "auxiliary_storage_labeling_family": null, "auxiliary_storage_labeling_fontstyle": null, "auxiliary_storage_labeling_size": null, "auxiliary_storage_labeling_bold": null, "auxiliary_storage_labeling_italic": null, "auxiliary_storage_labeling_underline": null, "auxiliary_storage_labeling_color": null, "auxiliary_storage_labeling_strikeout": null, "auxiliary_storage_labeling_multilinealignment": null, "auxiliary_storage_labeling_buffersize": null, "auxiliary_storage_labeling_buffercolor": null, "auxiliary_storage_labeling_bufferdraw": null, "auxiliary_storage_labeling_labeldistance": null, "auxiliary_storage_labeling_hali": null, "auxiliary_storage_labeling_vali": null, "auxiliary_storage_labeling_scalevisibility": null, "auxiliary_storage_labeling_minscale": null, "auxiliary_storage_labeling_maxscale": null, "auxiliary_storage_labeling_alwaysshow": null, "auxiliary_storage_labeling_calloutdraw": null, "auxiliary_storage_labeling_labelallparts": null }, "geometry": { "type": "Polygon", "coordinates": [ [ [ 139.786724054, 36.084175224 ], [ 139.786975027000011, 36.084238894 ], [ 139.78700421100001, 36.084244138 ], [ 139.787016183, 36.084137464 ], [ 139.787100092, 36.084145394 ], [ 139.787113508, 36.084079259 ], [ 139.786806127, 36.083995989 ], [ 139.786724054, 36.084175224 ] ] ] } },
{ "type": "Feature", "properties": { "fid": 29, "polygon_uuid": "1a4f4086-db92-47a9-9a38-e2bb8357594f", "daicho_shubetsu_cd": "FUD25", "地名地番": "関宿台町西六5974-1", "番地": "5974-1", "面積": 2194, "農地識別": "B07", "手動一致フラグ": "手動一致", "検索_AreaOnRegistry": 2194, "検索_Address": "関宿台町字西六5974-1", "検索_Tiban": "5974-1", "計算面積": 23, "auxiliary_storage_labeling_positionx": null, "auxiliary_storage_labeling_positiony": null, "auxiliary_storage_labeling_show": null, "auxiliary_storage_labeling_labelrotation": null, "auxiliary_storage_labeling_family": null, "auxiliary_storage_labeling_fontstyle": null, "auxiliary_storage_labeling_size": null, "auxiliary_storage_labeling_bold": null, "auxiliary_storage_labeling_italic": null, "auxiliary_storage_labeling_underline": null, "auxiliary_storage_labeling_color": null, "auxiliary_storage_labeling_strikeout": null, "auxiliary_storage_labeling_multilinealignment": null, "auxiliary_storage_labeling_buffersize": null, "auxiliary_storage_labeling_buffercolor": null, "auxiliary_storage_labeling_bufferdraw": null, "auxiliary_storage_labeling_labeldistance": null, "auxiliary_storage_labeling_hali": null, "auxiliary_storage_labeling_vali": null, "auxiliary_storage_labeling_scalevisibility": null, "auxiliary_storage_labeling_minscale": null, "auxiliary_storage_labeling_maxscale": null, "auxiliary_storage_labeling_alwaysshow": null, "auxiliary_storage_labeling_calloutdraw": null, "auxiliary_storage_labeling_labelallparts": null }, "geometry": { "type": "Polygon", "coordinates": [ [ [ 139.787420785, 36.083206056 ], [ 139.787736169, 36.083391953 ], [ 139.787987493, 36.082766267 ], [ 139.787662734, 36.082679983 ], [ 139.787659545, 36.082687736 ], [ 139.787654236, 36.082690319 ], [ 139.7876468, 36.082698932 ], [ 139.787633, 36.082701512 ], [ 139.787623449, 36.082696338 ], [ 139.787420785, 36.083206056 ] ] ] } },
{ "type": "Feature", "properties": { "fid": 30, "polygon_uuid": "01d4d2cc-6b2c-41f4-9726-db6f8e76a941", "daicho_shubetsu_cd": "FUD25", "地名地番": "関宿台町西六5994-1", "番地": "5994-1", "面積": 1245, "農地識別": "B08", "手動一致フラグ": "手動一致", "検索_AreaOnRegistry": 1245, "検索_Address": "関宿台町字西六5994-1", "検索_Tiban": "5994-1", "計算面積": 13, "auxiliary_storage_labeling_positionx": null, "auxiliary_storage_labeling_positiony": null, "auxiliary_storage_labeling_show": null, "auxiliary_storage_labeling_labelrotation": null, "auxiliary_storage_labeling_family": null, "auxiliary_storage_labeling_fontstyle": null, "auxiliary_storage_labeling_size": null, "auxiliary_storage_labeling_bold": null, "auxiliary_storage_labeling_italic": null, "auxiliary_storage_labeling_underline": null, "auxiliary_storage_labeling_color": null, "auxiliary_storage_labeling_strikeout": null, "auxiliary_storage_labeling_multilinealignment": null, "auxiliary_storage_labeling_buffersize": null, "auxiliary_storage_labeling_buffercolor": null, "auxiliary_storage_labeling_bufferdraw": null, "auxiliary_storage_labeling_labeldistance": null, "auxiliary_storage_labeling_hali": null, "auxiliary_storage_labeling_vali": null, "auxiliary_storage_labeling_scalevisibility": null, "auxiliary_storage_labeling_minscale": null, "auxiliary_storage_labeling_maxscale": null, "auxiliary_storage_labeling_alwaysshow": null, "auxiliary_storage_labeling_calloutdraw": null, "auxiliary_storage_labeling_labelallparts": null }, "geometry": { "type": "Polygon", "coordinates": [ [ [ 139.785582420999987, 36.082070403 ], [ 139.785691464, 36.082098757 ], [ 139.786042005000013, 36.08123391 ], [ 139.785885232, 36.081192182 ], [ 139.785871751, 36.081196866 ], [ 139.785667294, 36.081810998 ], [ 139.785594010000011, 36.082009455 ], [ 139.785582420999987, 36.082070403 ] ] ] } },
{ "type": "Feature", "properties": { "fid": 31, "polygon_uuid": "2a1ff863-6913-4165-bd64-e9d67d13a915", "daicho_shubetsu_cd": "FUD25", "地名地番": "関宿台町西六5998", "番地": "5998", "面積": 1631, "農地識別": "B09", "手動一致フラグ": "手動一致", "検索_AreaOnRegistry": 1631, "検索_Address": "関宿台町字西六5998", "検索_Tiban": "5998", "計算面積": 17, "auxiliary_storage_labeling_positionx": null, "auxiliary_storage_labeling_positiony": null, "auxiliary_storage_labeling_show": null, "auxiliary_storage_labeling_labelrotation": null, "auxiliary_storage_labeling_family": null, "auxiliary_storage_labeling_fontstyle": null, "auxiliary_storage_labeling_size": null, "auxiliary_storage_labeling_bold": null, "auxiliary_storage_labeling_italic": null, "auxiliary_storage_labeling_underline": null, "auxiliary_storage_labeling_color": null, "auxiliary_storage_labeling_strikeout": null, "auxiliary_storage_labeling_multilinealignment": null, "auxiliary_storage_labeling_buffersize": null, "auxiliary_storage_labeling_buffercolor": null, "auxiliary_storage_labeling_bufferdraw": null, "auxiliary_storage_labeling_labeldistance": null, "auxiliary_storage_labeling_hali": null, "auxiliary_storage_labeling_vali": null, "auxiliary_storage_labeling_scalevisibility": null, "auxiliary_storage_labeling_minscale": null, "auxiliary_storage_labeling_maxscale": null, "auxiliary_storage_labeling_alwaysshow": null, "auxiliary_storage_labeling_calloutdraw": null, "auxiliary_storage_labeling_labelallparts": null }, "geometry": { "type": "Polygon", "coordinates": [ [ [ 139.786304027999989, 36.081278136 ], [ 139.78645409, 36.081320525 ], [ 139.78647571, 36.081323631 ], [ 139.786814537, 36.080485189 ], [ 139.78679673100001, 36.080483117 ], [ 139.78679166, 36.080454206 ], [ 139.78664414, 36.080418012 ], [ 139.786304027999989, 36.081278136 ] ] ] } },
{ "type": "Feature", "properties": { "fid": 32, "polygon_uuid": "1f868bd9-c60c-42d9-bef6-9122206f48cd", "daicho_shubetsu_cd": "FUD25", "地名地番": "関宿台町西六5999", "番地": "5999", "面積": 3000, "農地識別": "B10", "手動一致フラグ": "手動一致", "検索_AreaOnRegistry": 3000, "検索_Address": "関宿台町字西六5999", "検索_Tiban": "5999", "計算面積": 30, "auxiliary_storage_labeling_positionx": null, "auxiliary_storage_labeling_positiony": null, "auxiliary_storage_labeling_show": null, "auxiliary_storage_labeling_labelrotation": null, "auxiliary_storage_labeling_family": null, "auxiliary_storage_labeling_fontstyle": null, "auxiliary_storage_labeling_size": null, "auxiliary_storage_labeling_bold": null, "auxiliary_storage_labeling_italic": null, "auxiliary_storage_labeling_underline": null, "auxiliary_storage_labeling_color": null, "auxiliary_storage_labeling_strikeout": null, "auxiliary_storage_labeling_multilinealignment": null, "auxiliary_storage_labeling_buffersize": null, "auxiliary_storage_labeling_buffercolor": null, "auxiliary_storage_labeling_bufferdraw": null, "auxiliary_storage_labeling_labeldistance": null, "auxiliary_storage_labeling_hali": null, "auxiliary_storage_labeling_vali": null, "auxiliary_storage_labeling_scalevisibility": null, "auxiliary_storage_labeling_minscale": null, "auxiliary_storage_labeling_maxscale": null, "auxiliary_storage_labeling_alwaysshow": null, "auxiliary_storage_labeling_calloutdraw": null, "auxiliary_storage_labeling_labelallparts": null }, "geometry": { "type": "Polygon", "coordinates": [ [ [ 139.786814537, 36.080485189 ], [ 139.78647571, 36.081323631 ], [ 139.786792372, 36.08140532 ], [ 139.787114639, 36.080603213 ], [ 139.787121015, 36.080574101 ], [ 139.787114656999989, 36.080572033 ], [ 139.787112133, 36.080538993 ], [ 139.78681964, 36.080458347 ], [ 139.786814537, 36.080485189 ] ] ] } },
{ "type": "Feature", "properties": { "fid": 33, "polygon_uuid": "3298a3e6-3d69-4b3b-97e5-f3ced4a1a726", "daicho_shubetsu_cd": "FUD25", "地名地番": "関宿台町西六6009", "番地": "6009", "面積": 1950, "農地識別": "B11", "手動一致フラグ": "手動一致", "検索_AreaOnRegistry": 1950, "検索_Address": "関宿台町字西六6009", "検索_Tiban": "6009", "計算面積": 19, "auxiliary_storage_labeling_positionx": null, "auxiliary_storage_labeling_positiony": null, "auxiliary_storage_labeling_show": null, "auxiliary_storage_labeling_labelrotation": null, "auxiliary_storage_labeling_family": null, "auxiliary_storage_labeling_fontstyle": null, "auxiliary_storage_labeling_size": null, "auxiliary_storage_labeling_bold": null, "auxiliary_storage_labeling_italic": null, "auxiliary_storage_labeling_underline": null, "auxiliary_storage_labeling_color": null, "auxiliary_storage_labeling_strikeout": null, "auxiliary_storage_labeling_multilinealignment": null, "auxiliary_storage_labeling_buffersize": null, "auxiliary_storage_labeling_buffercolor": null, "auxiliary_storage_labeling_bufferdraw": null, "auxiliary_storage_labeling_labeldistance": null, "auxiliary_storage_labeling_hali": null, "auxiliary_storage_labeling_vali": null, "auxiliary_storage_labeling_scalevisibility": null, "auxiliary_storage_labeling_minscale": null, "auxiliary_storage_labeling_maxscale": null, "auxiliary_storage_labeling_alwaysshow": null, "auxiliary_storage_labeling_calloutdraw": null, "auxiliary_storage_labeling_labelallparts": null }, "geometry": { "type": "Polygon", "coordinates": [ [ [ 139.787741696409768, 36.081659528977355 ], [ 139.787978499, 36.081087773 ], [ 139.78796958800001, 36.081101192 ], [ 139.787951778, 36.081105316 ], [ 139.787674133, 36.081033364 ], [ 139.78764437800001, 36.081028413 ], [ 139.78745422, 36.081515017 ], [ 139.787433836, 36.081571796 ], [ 139.787741696409768, 36.081659528977355 ] ] ] } },
{ "type": "Feature", "properties": { "fid": 34, "polygon_uuid": "3298a3e6-3d69-4b3b-97e5-f3ced4a1a726", "daicho_shubetsu_cd": "FUD25", "地名地番": "関宿台町西六6010", "番地": "6010", "面積": 3000, "農地識別": null, "手動一致フラグ": "手動一致", "検索_AreaOnRegistry": 3000, "検索_Address": "関宿台町字西六6010", "検索_Tiban": "6010", "計算面積": 29, "auxiliary_storage_labeling_positionx": null, "auxiliary_storage_labeling_positiony": null, "auxiliary_storage_labeling_show": null, "auxiliary_storage_labeling_labelrotation": null, "auxiliary_storage_labeling_family": null, "auxiliary_storage_labeling_fontstyle": null, "auxiliary_storage_labeling_size": null, "auxiliary_storage_labeling_bold": null, "auxiliary_storage_labeling_italic": null, "auxiliary_storage_labeling_underline": null, "auxiliary_storage_labeling_color": null, "auxiliary_storage_labeling_strikeout": null, "auxiliary_storage_labeling_multilinealignment": null, "auxiliary_storage_labeling_buffersize": null, "auxiliary_storage_labeling_buffercolor": null, "auxiliary_storage_labeling_bufferdraw": null, "auxiliary_storage_labeling_labeldistance": null, "auxiliary_storage_labeling_hali": null, "auxiliary_storage_labeling_vali": null, "auxiliary_storage_labeling_scalevisibility": null, "auxiliary_storage_labeling_minscale": null, "auxiliary_storage_labeling_maxscale": null, "auxiliary_storage_labeling_alwaysshow": null, "auxiliary_storage_labeling_calloutdraw": null, "auxiliary_storage_labeling_labelallparts": null }, "geometry": { "type": "Polygon", "coordinates": [ [ [ 139.788055859605151, 36.081749138168576 ], [ 139.788391692157575, 36.080900166708773 ], [ 139.78809694, 36.080823505 ], [ 139.787978499, 36.081087773 ], [ 139.787741696409768, 36.081659528977355 ], [ 139.787901829, 36.081705163 ], [ 139.788055859605151, 36.081749138168576 ] ] ] } },
{ "type": "Feature", "properties": { "fid": 35, "polygon_uuid": "3298a3e6-3d69-4b3b-97e5-f3ced4a1a726", "daicho_shubetsu_cd": "FUD25", "地名地番": "関宿台町西六6011", "番地": "6011", "面積": 2162, "農地識別": null, "手動一致フラグ": "手動一致", "検索_AreaOnRegistry": 2162, "検索_Address": "関宿台町字西六6011", "検索_Tiban": "6011", "計算面積": 20, "auxiliary_storage_labeling_positionx": null, "auxiliary_storage_labeling_positiony": null, "auxiliary_storage_labeling_show": null, "auxiliary_storage_labeling_labelrotation": null, "auxiliary_storage_labeling_family": null, "auxiliary_storage_labeling_fontstyle": null, "auxiliary_storage_labeling_size": null, "auxiliary_storage_labeling_bold": null, "auxiliary_storage_labeling_italic": null, "auxiliary_storage_labeling_underline": null, "auxiliary_storage_labeling_color": null, "auxiliary_storage_labeling_strikeout": null, "auxiliary_storage_labeling_multilinealignment": null, "auxiliary_storage_labeling_buffersize": null, "auxiliary_storage_labeling_buffercolor": null, "auxiliary_storage_labeling_bufferdraw": null, "auxiliary_storage_labeling_labeldistance": null, "auxiliary_storage_labeling_hali": null, "auxiliary_storage_labeling_vali": null, "auxiliary_storage_labeling_scalevisibility": null, "auxiliary_storage_labeling_minscale": null, "auxiliary_storage_labeling_maxscale": null, "auxiliary_storage_labeling_alwaysshow": null, "auxiliary_storage_labeling_calloutdraw": null, "auxiliary_storage_labeling_labelallparts": null }, "geometry": { "type": "Polygon", "coordinates": [ [ [ 139.788391692157575, 36.080900166708773 ], [ 139.788055859605151, 36.081749138168576 ], [ 139.788115478, 36.081766159 ], [ 139.788189239, 36.081785804 ], [ 139.788240115, 36.081787889 ], [ 139.788278276999989, 36.081780675 ], [ 139.788609434, 36.080979394 ], [ 139.788589099, 36.08095151 ], [ 139.788391692157575, 36.080900166708773 ] ] ] } },
{ "type": "Feature", "properties": { "fid": 36, "polygon_uuid": "504264b1-4aee-4cb0-9137-8ad9dee79902", "daicho_shubetsu_cd": "FUD25", "地名地番": "関宿台町西六6025", "番地": "6025", "面積": 2905, "農地識別": "B12", "手動一致フラグ": "手動一致", "検索_AreaOnRegistry": 2905, "検索_Address": "関宿台町字西六6025", "検索_Tiban": "6025", "計算面積": 25, "auxiliary_storage_labeling_positionx": null, "auxiliary_storage_labeling_positiony": null, "auxiliary_storage_labeling_show": null, "auxiliary_storage_labeling_labelrotation": null, "auxiliary_storage_labeling_family": null, "auxiliary_storage_labeling_fontstyle": null, "auxiliary_storage_labeling_size": null, "auxiliary_storage_labeling_bold": null, "auxiliary_storage_labeling_italic": null, "auxiliary_storage_labeling_underline": null, "auxiliary_storage_labeling_color": null, "auxiliary_storage_labeling_strikeout": null, "auxiliary_storage_labeling_multilinealignment": null, "auxiliary_storage_labeling_buffersize": null, "auxiliary_storage_labeling_buffercolor": null, "auxiliary_storage_labeling_bufferdraw": null, "auxiliary_storage_labeling_labeldistance": null, "auxiliary_storage_labeling_hali": null, "auxiliary_storage_labeling_vali": null, "auxiliary_storage_labeling_scalevisibility": null, "auxiliary_storage_labeling_minscale": null, "auxiliary_storage_labeling_maxscale": null, "auxiliary_storage_labeling_alwaysshow": null, "auxiliary_storage_labeling_calloutdraw": null, "auxiliary_storage_labeling_labelallparts": null }, "geometry": { "type": "Polygon", "coordinates": [ [ [ 139.78820227, 36.079842233 ], [ 139.788043337, 36.080185089 ], [ 139.787943589, 36.080404023 ], [ 139.787818986, 36.08067751 ], [ 139.788101171, 36.080749159 ], [ 139.788448211, 36.079900691 ], [ 139.788448218000013, 36.079887676 ], [ 139.788214231000012, 36.079822837 ], [ 139.78820227, 36.079842233 ] ] ] } },
{ "type": "Feature", "properties": { "fid": 37, "polygon_uuid": "8b1a2666-38b3-42ac-8e8e-f067d2008c5b", "daicho_shubetsu_cd": "FUD25", "地名地番": "関宿台町西六6077", "番地": "6077", "面積": 3000, "農地識別": "B13", "手動一致フラグ": "手動一致", "検索_AreaOnRegistry": 3000, "検索_Address": "関宿台町字西六6077", "検索_Tiban": "6077", "計算面積": 30, "auxiliary_storage_labeling_positionx": null, "auxiliary_storage_labeling_positiony": null, "auxiliary_storage_labeling_show": null, "auxiliary_storage_labeling_labelrotation": null, "auxiliary_storage_labeling_family": null, "auxiliary_storage_labeling_fontstyle": null, "auxiliary_storage_labeling_size": null, "auxiliary_storage_labeling_bold": null, "auxiliary_storage_labeling_italic": null, "auxiliary_storage_labeling_underline": null, "auxiliary_storage_labeling_color": null, "auxiliary_storage_labeling_strikeout": null, "auxiliary_storage_labeling_multilinealignment": null, "auxiliary_storage_labeling_buffersize": null, "auxiliary_storage_labeling_buffercolor": null, "auxiliary_storage_labeling_bufferdraw": null, "auxiliary_storage_labeling_labeldistance": null, "auxiliary_storage_labeling_hali": null, "auxiliary_storage_labeling_vali": null, "auxiliary_storage_labeling_scalevisibility": null, "auxiliary_storage_labeling_minscale": null, "auxiliary_storage_labeling_maxscale": null, "auxiliary_storage_labeling_alwaysshow": null, "auxiliary_storage_labeling_calloutdraw": null, "auxiliary_storage_labeling_labelallparts": null }, "geometry": { "type": "Polygon", "coordinates": [ [ [ 139.789471746, 36.079129487 ], [ 139.789818615, 36.078261738 ], [ 139.789506472999989, 36.078174319 ], [ 139.789169917, 36.079007232 ], [ 139.789166924, 36.079016932 ], [ 139.789184847, 36.079020577 ], [ 139.789178854, 36.079052223 ], [ 139.789458145, 36.079126292 ], [ 139.789471746, 36.079129487 ] ] ] } },
{ "type": "Feature", "properties": { "fid": 38, "polygon_uuid": "30e7cd98-3b9a-4e50-8083-6d3b408072e0", "daicho_shubetsu_cd": "FUD25", "地名地番": "関宿台町東6668", "番地": "6668", "面積": 3207, "農地識別": "B14", "手動一致フラグ": "手動一致", "検索_AreaOnRegistry": 3207, "検索_Address": "関宿台町字東6668", "検索_Tiban": "6668", "計算面積": 33, "auxiliary_storage_labeling_positionx": null, "auxiliary_storage_labeling_positiony": null, "auxiliary_storage_labeling_show": null, "auxiliary_storage_labeling_labelrotation": null, "auxiliary_storage_labeling_family": null, "auxiliary_storage_labeling_fontstyle": null, "auxiliary_storage_labeling_size": null, "auxiliary_storage_labeling_bold": null, "auxiliary_storage_labeling_italic": null, "auxiliary_storage_labeling_underline": null, "auxiliary_storage_labeling_color": null, "auxiliary_storage_labeling_strikeout": null, "auxiliary_storage_labeling_multilinealignment": null, "auxiliary_storage_labeling_buffersize": null, "auxiliary_storage_labeling_buffercolor": null, "auxiliary_storage_labeling_bufferdraw": null, "auxiliary_storage_labeling_labeldistance": null, "auxiliary_storage_labeling_hali": null, "auxiliary_storage_labeling_vali": null, "auxiliary_storage_labeling_scalevisibility": null, "auxiliary_storage_labeling_minscale": null, "auxiliary_storage_labeling_maxscale": null, "auxiliary_storage_labeling_alwaysshow": null, "auxiliary_storage_labeling_calloutdraw": null, "auxiliary_storage_labeling_labelallparts": null }, "geometry": { "type": "Polygon", "coordinates": [ [ [ 139.794448407, 36.081572139 ], [ 139.794437785000014, 36.081570262 ], [ 139.794432363999988, 36.081566591 ], [ 139.794424233, 36.08156072 ], [ 139.794422428, 36.081554116 ], [ 139.79411787, 36.081509998 ], [ 139.794109553999988, 36.081512931 ], [ 139.794103222, 36.081523933 ], [ 139.794090566, 36.081529065 ], [ 139.794055125999989, 36.081697863 ], [ 139.794008394, 36.081920444 ], [ 139.793970075, 36.082102957 ], [ 139.793900329, 36.082409966 ], [ 139.794257306, 36.082464372 ], [ 139.794448407, 36.081572139 ] ] ] } },
{ "type": "Feature", "properties": { "fid": 39, "polygon_uuid": "c6c0149d-3862-4f88-aa46-24110e12a519", "daicho_shubetsu_cd": "FUD25", "地名地番": "関宿台町東6981-1", "番地": "6981-1", "面積": 949, "農地識別": "B16", "手動一致フラグ": "手動一致", "検索_AreaOnRegistry": 949, "検索_Address": "関宿台町字東6981-1", "検索_Tiban": "6981-1", "計算面積": 4, "auxiliary_storage_labeling_positionx": null, "auxiliary_storage_labeling_positiony": null, "auxiliary_storage_labeling_show": null, "auxiliary_storage_labeling_labelrotation": null, "auxiliary_storage_labeling_family": null, "auxiliary_storage_labeling_fontstyle": null, "auxiliary_storage_labeling_size": 1.5, "auxiliary_storage_labeling_bold": null, "auxiliary_storage_labeling_italic": null, "auxiliary_storage_labeling_underline": null, "auxiliary_storage_labeling_color": null, "auxiliary_storage_labeling_strikeout": null, "auxiliary_storage_labeling_multilinealignment": null, "auxiliary_storage_labeling_buffersize": null, "auxiliary_storage_labeling_buffercolor": null, "auxiliary_storage_labeling_bufferdraw": null, "auxiliary_storage_labeling_labeldistance": null, "auxiliary_storage_labeling_hali": null, "auxiliary_storage_labeling_vali": null, "auxiliary_storage_labeling_scalevisibility": null, "auxiliary_storage_labeling_minscale": null, "auxiliary_storage_labeling_maxscale": null, "auxiliary_storage_labeling_alwaysshow": null, "auxiliary_storage_labeling_calloutdraw": null, "auxiliary_storage_labeling_labelallparts": null }, "geometry": { "type": "Polygon", "coordinates": [ [ [ 139.797175187602448, 36.072552188368768 ], [ 139.797086970482638, 36.071824887225603 ], [ 139.797026187, 36.07181636 ], [ 139.797023850533208, 36.071816151125894 ], [ 139.797122386087636, 36.072557138495306 ], [ 139.797175187602448, 36.072552188368768 ] ] ] } },
{ "type": "Feature", "properties": { "fid": 40, "polygon_uuid": "c6c0149d-3862-4f88-aa46-24110e12a519", "daicho_shubetsu_cd": "FUD25", "地名地番": "関宿台町東6981-2", "番地": "6981-2", "面積": 57, "農地識別": null, "手動一致フラグ": "手動一致", "検索_AreaOnRegistry": 57, "検索_Address": "関宿台町字東6981-2", "検索_Tiban": "6981-2", "計算面積": 3, "auxiliary_storage_labeling_positionx": null, "auxiliary_storage_labeling_positiony": null, "auxiliary_storage_labeling_show": null, "auxiliary_storage_labeling_labelrotation": null, "auxiliary_storage_labeling_family": null, "auxiliary_storage_labeling_fontstyle": null, "auxiliary_storage_labeling_size": 1.5, "auxiliary_storage_labeling_bold": null, "auxiliary_storage_labeling_italic": null, "auxiliary_storage_labeling_underline": null, "auxiliary_storage_labeling_color": null, "auxiliary_storage_labeling_strikeout": null, "auxiliary_storage_labeling_multilinealignment": null, "auxiliary_storage_labeling_buffersize": null, "auxiliary_storage_labeling_buffercolor": null, "auxiliary_storage_labeling_bufferdraw": null, "auxiliary_storage_labeling_labeldistance": null, "auxiliary_storage_labeling_hali": null, "auxiliary_storage_labeling_vali": null, "auxiliary_storage_labeling_scalevisibility": null, "auxiliary_storage_labeling_minscale": null, "auxiliary_storage_labeling_maxscale": null, "auxiliary_storage_labeling_alwaysshow": null, "auxiliary_storage_labeling_calloutdraw": null, "auxiliary_storage_labeling_labelallparts": null }, "geometry": { "type": "Polygon", "coordinates": [ [ [ 139.797086970482638, 36.071824887225603 ], [ 139.797175187602448, 36.072552188368768 ], [ 139.797217005, 36.072548268 ], [ 139.797139311, 36.07183223 ], [ 139.797086970482638, 36.071824887225603 ] ] ] } },
{ "type": "Feature", "properties": { "fid": 41, "polygon_uuid": "c6c0149d-3862-4f88-aa46-24110e12a519", "daicho_shubetsu_cd": "FUD25", "地名地番": "関宿台町東6981-3", "番地": "6981-3", "面積": 545, "農地識別": null, "手動一致フラグ": "手動一致", "検索_AreaOnRegistry": 545, "検索_Address": "関宿台町字東6981-3", "検索_Tiban": "6981-3", "計算面積": 8, "auxiliary_storage_labeling_positionx": null, "auxiliary_storage_labeling_positiony": null, "auxiliary_storage_labeling_show": null, "auxiliary_storage_labeling_labelrotation": null, "auxiliary_storage_labeling_family": null, "auxiliary_storage_labeling_fontstyle": null, "auxiliary_storage_labeling_size": 1.5, "auxiliary_storage_labeling_bold": null, "auxiliary_storage_labeling_italic": null, "auxiliary_storage_labeling_underline": null, "auxiliary_storage_labeling_color": null, "auxiliary_storage_labeling_strikeout": null, "auxiliary_storage_labeling_multilinealignment": null, "auxiliary_storage_labeling_buffersize": null, "auxiliary_storage_labeling_buffercolor": null, "auxiliary_storage_labeling_bufferdraw": null, "auxiliary_storage_labeling_labeldistance": null, "auxiliary_storage_labeling_hali": null, "auxiliary_storage_labeling_vali": null, "auxiliary_storage_labeling_scalevisibility": null, "auxiliary_storage_labeling_minscale": null, "auxiliary_storage_labeling_maxscale": null, "auxiliary_storage_labeling_alwaysshow": null, "auxiliary_storage_labeling_calloutdraw": null, "auxiliary_storage_labeling_labelallparts": null }, "geometry": { "type": "Polygon", "coordinates": [ [ [ 139.797122386087636, 36.072557138495306 ], [ 139.797023850533208, 36.071816151125894 ], [ 139.796919562, 36.071806828 ], [ 139.797003735, 36.072568262 ], [ 139.797122386087636, 36.072557138495306 ] ] ] } },
{ "type": "Feature", "properties": { "fid": 42, "polygon_uuid": "87024563-a215-4320-a1e8-d133745a984f", "daicho_shubetsu_cd": "FUD25", "地名地番": "関宿台町東6982-1", "番地": "6982-1", "面積": 1465, "農地識別": null, "手動一致フラグ": "手動一致", "検索_AreaOnRegistry": 1465, "検索_Address": "関宿台町字東6982-1", "検索_Tiban": "6982-1", "計算面積": 6, "auxiliary_storage_labeling_positionx": null, "auxiliary_storage_labeling_positiony": null, "auxiliary_storage_labeling_show": null, "auxiliary_storage_labeling_labelrotation": null, "auxiliary_storage_labeling_family": null, "auxiliary_storage_labeling_fontstyle": null, "auxiliary_storage_labeling_size": 1.5, "auxiliary_storage_labeling_bold": null, "auxiliary_storage_labeling_italic": null, "auxiliary_storage_labeling_underline": null, "auxiliary_storage_labeling_color": null, "auxiliary_storage_labeling_strikeout": null, "auxiliary_storage_labeling_multilinealignment": null, "auxiliary_storage_labeling_buffersize": null, "auxiliary_storage_labeling_buffercolor": null, "auxiliary_storage_labeling_bufferdraw": null, "auxiliary_storage_labeling_labeldistance": null, "auxiliary_storage_labeling_hali": null, "auxiliary_storage_labeling_vali": null, "auxiliary_storage_labeling_scalevisibility": null, "auxiliary_storage_labeling_minscale": null, "auxiliary_storage_labeling_maxscale": null, "auxiliary_storage_labeling_alwaysshow": null, "auxiliary_storage_labeling_calloutdraw": null, "auxiliary_storage_labeling_labelallparts": null }, "geometry": { "type": "Polygon", "coordinates": [ [ [ 139.797403921758587, 36.072537328734079 ], [ 139.797339296737107, 36.071861535652218 ], [ 139.797251814498765, 36.071848716117742 ], [ 139.797323870708766, 36.072542013705764 ], [ 139.797403921758587, 36.072537328734079 ] ] ] } },
{ "type": "Feature", "properties": { "fid": 43, "polygon_uuid": "87024563-a215-4320-a1e8-d133745a984f", "daicho_shubetsu_cd": "FUD25", "地名地番": "関宿台町東6982-2", "番地": "6982-2", "面積": 231, "農地識別": null, "手動一致フラグ": "手動一致", "検索_AreaOnRegistry": 231, "検索_Address": "関宿台町字東6982-2", "検索_Tiban": "6982-2", "計算面積": 8, "auxiliary_storage_labeling_positionx": null, "auxiliary_storage_labeling_positiony": null, "auxiliary_storage_labeling_show": null, "auxiliary_storage_labeling_labelrotation": null, "auxiliary_storage_labeling_family": null, "auxiliary_storage_labeling_fontstyle": null, "auxiliary_storage_labeling_size": 1.5, "auxiliary_storage_labeling_bold": null, "auxiliary_storage_labeling_italic": null, "auxiliary_storage_labeling_underline": null, "auxiliary_storage_labeling_color": null, "auxiliary_storage_labeling_strikeout": null, "auxiliary_storage_labeling_multilinealignment": null, "auxiliary_storage_labeling_buffersize": null, "auxiliary_storage_labeling_buffercolor": null, "auxiliary_storage_labeling_bufferdraw": null, "auxiliary_storage_labeling_labeldistance": null, "auxiliary_storage_labeling_hali": null, "auxiliary_storage_labeling_vali": null, "auxiliary_storage_labeling_scalevisibility": null, "auxiliary_storage_labeling_minscale": null, "auxiliary_storage_labeling_maxscale": null, "auxiliary_storage_labeling_alwaysshow": null, "auxiliary_storage_labeling_calloutdraw": null, "auxiliary_storage_labeling_labelallparts": null }, "geometry": { "type": "Polygon", "coordinates": [ [ [ 139.797323870708766, 36.072542013705764 ], [ 139.797251814498765, 36.071848716117742 ], [ 139.797139311, 36.07183223 ], [ 139.797217005, 36.072548268 ], [ 139.797323870708766, 36.072542013705764 ] ] ] } },
{ "type": "Feature", "properties": { "fid": 44, "polygon_uuid": "87024563-a215-4320-a1e8-d133745a984f", "daicho_shubetsu_cd": "FUD25", "地名地番": "関宿台町東6982-3", "番地": "6982-3", "面積": 18, "農地識別": null, "手動一致フラグ": "手動一致", "検索_AreaOnRegistry": 18, "検索_Address": "関宿台町字東6982-3", "検索_Tiban": "6982-3", "計算面積": 5, "auxiliary_storage_labeling_positionx": null, "auxiliary_storage_labeling_positiony": null, "auxiliary_storage_labeling_show": null, "auxiliary_storage_labeling_labelrotation": null, "auxiliary_storage_labeling_family": null, "auxiliary_storage_labeling_fontstyle": null, "auxiliary_storage_labeling_size": 1.5, "auxiliary_storage_labeling_bold": null, "auxiliary_storage_labeling_italic": null, "auxiliary_storage_labeling_underline": null, "auxiliary_storage_labeling_color": null, "auxiliary_storage_labeling_strikeout": null, "auxiliary_storage_labeling_multilinealignment": null, "auxiliary_storage_labeling_buffersize": null, "auxiliary_storage_labeling_buffercolor": null, "auxiliary_storage_labeling_bufferdraw": null, "auxiliary_storage_labeling_labeldistance": null, "auxiliary_storage_labeling_hali": null, "auxiliary_storage_labeling_vali": null, "auxiliary_storage_labeling_scalevisibility": null, "auxiliary_storage_labeling_minscale": null, "auxiliary_storage_labeling_maxscale": null, "auxiliary_storage_labeling_alwaysshow": null, "auxiliary_storage_labeling_calloutdraw": null, "auxiliary_storage_labeling_labelallparts": null }, "geometry": { "type": "Polygon", "coordinates": [ [ [ 139.797477456150773, 36.072533025148488 ], [ 139.797429772683671, 36.071874286880842 ], [ 139.797348655, 36.071862907 ], [ 139.797339296737107, 36.071861535652218 ], [ 139.797403921758587, 36.072537328734079 ], [ 139.797477456150773, 36.072533025148488 ] ] ] } },
{ "type": "Feature", "properties": { "fid": 45, "polygon_uuid": "87024563-a215-4320-a1e8-d133745a984f", "daicho_shubetsu_cd": "FUD25", "地名地番": "関宿台町東6983", "番地": "6983", "面積": 571, "農地識別": null, "手動一致フラグ": "手動一致", "検索_AreaOnRegistry": 571, "検索_Address": "関宿台町字東6983", "検索_Tiban": "6983", "計算面積": 4, "auxiliary_storage_labeling_positionx": null, "auxiliary_storage_labeling_positiony": null, "auxiliary_storage_labeling_show": null, "auxiliary_storage_labeling_labelrotation": null, "auxiliary_storage_labeling_family": null, "auxiliary_storage_labeling_fontstyle": null, "auxiliary_storage_labeling_size": 1.5, "auxiliary_storage_labeling_bold": null, "auxiliary_storage_labeling_italic": null, "auxiliary_storage_labeling_underline": null, "auxiliary_storage_labeling_color": null, "auxiliary_storage_labeling_strikeout": null, "auxiliary_storage_labeling_multilinealignment": null, "auxiliary_storage_labeling_buffersize": null, "auxiliary_storage_labeling_buffercolor": null, "auxiliary_storage_labeling_bufferdraw": null, "auxiliary_storage_labeling_labeldistance": null, "auxiliary_storage_labeling_hali": null, "auxiliary_storage_labeling_vali": null, "auxiliary_storage_labeling_scalevisibility": null, "auxiliary_storage_labeling_minscale": null, "auxiliary_storage_labeling_maxscale": null, "auxiliary_storage_labeling_alwaysshow": null, "auxiliary_storage_labeling_calloutdraw": null, "auxiliary_storage_labeling_labelallparts": null }, "geometry": { "type": "Polygon", "coordinates": [ [ [ 139.797429772683671, 36.071874286880842 ], [ 139.797477456150773, 36.072533025148488 ], [ 139.797549787, 36.072528792 ], [ 139.797489456, 36.071923229 ], [ 139.797463060000013, 36.071921005 ], [ 139.797461779, 36.071878777 ], [ 139.797429772683671, 36.071874286880842 ] ] ] } },
{ "type": "Feature", "properties": { "fid": 46, "polygon_uuid": "c92719e5-e466-49a9-817f-1a5f4be56fb4", "daicho_shubetsu_cd": "FUD25", "地名地番": "関宿台町東6984", "番地": "6984", "面積": 1497, "農地識別": null, "手動一致フラグ": "手動一致", "検索_AreaOnRegistry": 1497, "検索_Address": "関宿台町字東6984", "検索_Tiban": "6984", "計算面積": 14, "auxiliary_storage_labeling_positionx": null, "auxiliary_storage_labeling_positiony": null, "auxiliary_storage_labeling_show": null, "auxiliary_storage_labeling_labelrotation": null, "auxiliary_storage_labeling_family": null, "auxiliary_storage_labeling_fontstyle": null, "auxiliary_storage_labeling_size": null, "auxiliary_storage_labeling_bold": null, "auxiliary_storage_labeling_italic": null, "auxiliary_storage_labeling_underline": null, "auxiliary_storage_labeling_color": null, "auxiliary_storage_labeling_strikeout": null, "auxiliary_storage_labeling_multilinealignment": null, "auxiliary_storage_labeling_buffersize": null, "auxiliary_storage_labeling_buffercolor": null, "auxiliary_storage_labeling_bufferdraw": null, "auxiliary_storage_labeling_labeldistance": null, "auxiliary_storage_labeling_hali": null, "auxiliary_storage_labeling_vali": null, "auxiliary_storage_labeling_scalevisibility": null, "auxiliary_storage_labeling_minscale": null, "auxiliary_storage_labeling_maxscale": null, "auxiliary_storage_labeling_alwaysshow": null, "auxiliary_storage_labeling_calloutdraw": null, "auxiliary_storage_labeling_labelallparts": null }, "geometry": { "type": "Polygon", "coordinates": [ [ [ 139.797755373, 36.072516759 ], [ 139.797773584999987, 36.072500665 ], [ 139.79773092, 36.071951699 ], [ 139.797729634, 36.071918973 ], [ 139.79766852, 36.071913676 ], [ 139.797630811, 36.071909442 ], [ 139.797591802999989, 36.071904152 ], [ 139.797561898, 36.071896753 ], [ 139.797543696, 36.07189147 ], [ 139.79752419, 36.071890408 ], [ 139.797513786, 36.071893572 ], [ 139.79750076900001, 36.071924183 ], [ 139.797489456, 36.071923229 ], [ 139.797549787, 36.072528792 ], [ 139.797755373, 36.072516759 ] ] ] } },
{ "type": "Feature", "properties": { "fid": 47, "polygon_uuid": "8b95436a-e398-4ccd-a2df-73ca61ab088c", "daicho_shubetsu_cd": "FUD25", "地名地番": "関宿台町東6985", "番地": "6985", "面積": 1544, "農地識別": null, "手動一致フラグ": "手動一致", "検索_AreaOnRegistry": 1544, "検索_Address": "関宿台町字東6985", "検索_Tiban": "6985", "計算面積": 16, "auxiliary_storage_labeling_positionx": null, "auxiliary_storage_labeling_positiony": null, "auxiliary_storage_labeling_show": null, "auxiliary_storage_labeling_labelrotation": null, "auxiliary_storage_labeling_family": null, "auxiliary_storage_labeling_fontstyle": null, "auxiliary_storage_labeling_size": null, "auxiliary_storage_labeling_bold": null, "auxiliary_storage_labeling_italic": null, "auxiliary_storage_labeling_underline": null, "auxiliary_storage_labeling_color": null, "auxiliary_storage_labeling_strikeout": null, "auxiliary_storage_labeling_multilinealignment": null, "auxiliary_storage_labeling_buffersize": null, "auxiliary_storage_labeling_buffercolor": null, "auxiliary_storage_labeling_bufferdraw": null, "auxiliary_storage_labeling_labeldistance": null, "auxiliary_storage_labeling_hali": null, "auxiliary_storage_labeling_vali": null, "auxiliary_storage_labeling_scalevisibility": null, "auxiliary_storage_labeling_minscale": null, "auxiliary_storage_labeling_maxscale": null, "auxiliary_storage_labeling_alwaysshow": null, "auxiliary_storage_labeling_calloutdraw": null, "auxiliary_storage_labeling_labelallparts": null }, "geometry": { "type": "Polygon", "coordinates": [ [ [ 139.797773584999987, 36.072500665 ], [ 139.797823013, 36.072466898 ], [ 139.797927077, 36.072393032 ], [ 139.798011629, 36.07232866 ], [ 139.798084477, 36.072266396 ], [ 139.798144318999988, 36.072210463 ], [ 139.798115824, 36.071956036 ], [ 139.79800009600001, 36.071947556 ], [ 139.797929879, 36.071942257 ], [ 139.797754336, 36.071930592 ], [ 139.797750428, 36.071945371 ], [ 139.79773092, 36.071951699 ], [ 139.797773584999987, 36.072500665 ] ] ] } },
{ "type": "Feature", "properties": { "fid": 48, "polygon_uuid": null, "daicho_shubetsu_cd": null, "地名地番": "関宿台町東6986", "番地": "6986", "面積": 285, "農地識別": null, "手動一致フラグ": "手動一致", "検索_AreaOnRegistry": 285, "検索_Address": "関宿台町字東6986", "検索_Tiban": "6986", "計算面積": 4, "auxiliary_storage_labeling_positionx": null, "auxiliary_storage_labeling_positiony": null, "auxiliary_storage_labeling_show": null, "auxiliary_storage_labeling_labelrotation": null, "auxiliary_storage_labeling_family": null, "auxiliary_storage_labeling_fontstyle": null, "auxiliary_storage_labeling_size": null, "auxiliary_storage_labeling_bold": null, "auxiliary_storage_labeling_italic": null, "auxiliary_storage_labeling_underline": null, "auxiliary_storage_labeling_color": null, "auxiliary_storage_labeling_strikeout": null, "auxiliary_storage_labeling_multilinealignment": null, "auxiliary_storage_labeling_buffersize": null, "auxiliary_storage_labeling_buffercolor": null, "auxiliary_storage_labeling_bufferdraw": null, "auxiliary_storage_labeling_labeldistance": null, "auxiliary_storage_labeling_hali": null, "auxiliary_storage_labeling_vali": null, "auxiliary_storage_labeling_scalevisibility": null, "auxiliary_storage_labeling_minscale": null, "auxiliary_storage_labeling_maxscale": null, "auxiliary_storage_labeling_alwaysshow": null, "auxiliary_storage_labeling_calloutdraw": null, "auxiliary_storage_labeling_labelallparts": null }, "geometry": { "type": "Polygon", "coordinates": [ [ [ 139.798144318999988, 36.072210463 ], [ 139.798115824, 36.071956036 ], [ 139.798381164616359, 36.071964879980982 ], [ 139.79825891991814, 36.072122347727849 ], [ 139.798144318999988, 36.072210463 ] ] ] } }
]
}
